code,prefecture,jititai,city_kana,zip,address,tel,latitude,longitude,,区判定,No
011002,北海道,札幌市,さっぽろし,060-8611,北海道札幌市中央区北1条西2丁目,011-211-2111,43.0626377,141.3539212,Google Maps,,1
012025,北海道,函館市,はこだてし,040-8666,北海道函館市東雲町4-13,0138-21-3111,41.76867,140.7289417,Google Maps,,2
012033,北海道,小樽市,おたるし,047-8660,北海道小樽市花園2-12-1,0134-32-4111,43.1906415,140.9944642,Google Maps,,3
012041,北海道,旭川市,あさひかわし,070-8525,北海道旭川市7条通9丁目,0166-26-1111,43.7713538,142.3647521,Google Maps,,4
012050,北海道,室蘭市,むろらんし,051-8511,北海道室蘭市幸町1-2,0143-22-1111,42.3151943,140.9737454,Google Maps,,5
012068,北海道,釧路市,くしろし,085-8505,北海道釧路市黒金町7-5,0154-23-5151,42.9848268,144.3814012,Google Maps,,6
012076,北海道,帯広市,おびひろし,080-8670,北海道帯広市西5条南7-1,0155-24-4111,42.9243517,143.1978955,Google Maps,,7
012084,北海道,北見市,きたみし,090-8501,北海道北見市大通西3丁目1番地1,0157-23-7111,43.803326,143.8951145,Google Maps,,8
012092,北海道,夕張市,ゆうばりし,068-0492,北海道夕張市本町4-2,0123-52-3131,43.0567461,141.9740038,Google Maps,,9
012106,北海道,岩見沢市,いわみざわし,068-8686,北海道岩見沢市鳩が丘1-1-1,0126-23-4111,43.1960336,141.7753378,Google Maps,,10
012114,北海道,網走市,あばしりし,093-8555,北海道網走市南6条東4丁目,0152-44-6111,44.0202548,144.2735233,Google Maps,,11
012122,北海道,留萌市,るもいし,077-8601,北海道留萌市幸町1-11,0164-42-1801,43.9409637,141.6368983,Google Maps,,12
012131,北海道,苫小牧市,とまこまいし,053-8722,北海道苫小牧市旭町4-5-6,0144-32-6111,42.6340685,141.6055413,Google Maps,,13
012149,北海道,稚内市,わっかないし,097-8686,北海道稚内市中央3-13-15,0162-23-6161,45.4156725,141.673072,Google Maps,,14
012157,北海道,美唄市,びばいし,072-8660,北海道美唄市西3条南1-1-1,0126-62-3131,43.3328672,141.853832,Google Maps,,15
012165,北海道,芦別市,あしべつし,075-8711,北海道芦別市北1条東1-3,0124-22-2111,43.5181893,142.1894459,Google Maps,,16
012173,北海道,江別市,えべつし,067-8674,北海道江別市高砂町6,011-382-4141,43.1031063,141.5388453,Google Maps,,17
012181,北海道,赤平市,あかびらし,079-1192,北海道赤平市泉町4-1,0125-32-2211,43.5582516,142.0436565,Google Maps,,18
012190,北海道,紋別市,もんべつし,094-8707,北海道紋別市幸町2-1-18,0158-24-2111,44.3564472,143.3542721,Google Maps,,19
012203,北海道,士別市,しべつし,095-8686,北海道士別市東6条4-1,0165-23-3121,44.1790521,142.4006231,Google Maps,,20
012211,北海道,名寄市,なよろし,096-8686,北海道名寄市大通南1-1,01654-3-2111,44.3457825,142.4635018,Google Maps,,21
012220,北海道,三笠市,みかさし,068-2192,北海道三笠市幸町2,01267-2-3181,43.2453335,141.8749253,Google Maps,,22
012238,北海道,根室市,ねむろし,087-8711,北海道根室市常盤町2-27,0153-23-6111,43.3300748,145.5827979,Google Maps,,23
012246,北海道,千歳市,ちとせし,066-8686,北海道千歳市東雲町2-34,0123-24-3131,42.8212783,141.6511985,Google Maps,,24
012254,北海道,滝川市,たきかわし,073-8686,北海道滝川市大町1-2-15,0125-23-1234,43.5577826,141.9104019,Google Maps,,25
012262,北海道,砂川市,すながわし,073-0195,北海道砂川市西7条北2-1-1,0125-54-2121,43.494157,141.9028405,Google Maps,,26
012271,北海道,歌志内市,うたしないし,073-0492,北海道歌志内市字本町5,0125-42-3212,43.5211226,142.034297,Google Maps,,27
012289,北海道,深川市,ふかがわし,074-8650,北海道深川市2条17-17,0164-26-2228,43.723306,142.0537373,Google Maps,,28
012297,北海道,富良野市,ふらのし,076-8555,北海道富良野市弥生町1-1,0167-39-2300,43.3420243,142.3832133,Google Maps,,29
012301,北海道,登別市,のぼりべつし,059-8701,北海道登別市中央町6-11,0143-85-2111,42.413177,141.1060422,Google Maps,,30
012319,北海道,恵庭市,えにわし,061-1498,北海道恵庭市京町1,0123-33-3131,42.8825998,141.5777789,Google Maps,,31
012335,北海道,伊達市,だてし,052-0024,北海道伊達市鹿島町20-1,0142-23-3331,42.4718879,140.8646916,Google Maps,,32
012343,北海道,北広島市,きたひろしまし,061-1192,北海道北広島市中央4-2-1,011-372-3311,42.9855191,141.563055,Google Maps,,33
012351,北海道,石狩市,いしかりし,061-3292,北海道石狩市花川北6条1-30-2,0133-72-3111,43.1713956,141.3155785,Google Maps,,34
012360,北海道,北斗市,ほくとし,049-0192,北海道北斗市中央1-3-10,0138-73-3111,41.8241709,140.6531161,Google Maps,,35
013030,北海道,当別町,とうべつちょう,061-0292,北海道石狩郡当別町白樺町58-9,0133-23-2330,43.2237181,141.5169977,Google Maps,,36
013048,北海道,新篠津村,しんしのつむら,068-1192,北海道石狩郡新篠津村第47線北13,0126-57-2111,43.2247001,141.6551684,Google Maps,,37
013315,北海道,松前町,まつまえちょう,049-1592,北海道松前郡松前町字福山248番地1,0139-42-2275,41.4300175,140.1104217,Google Maps,,38
013323,北海道,福島町,ふくしまちょう,049-1392,北海道松前郡福島町字福島820,0139-47-3001,41.4838539,140.251394,Google Maps,,39
013331,北海道,知内町,しりうちちょう,049-1103,北海道上磯郡知内町字重内21-1,01392-5-6161,41.5982666,140.4188279,Google Maps,,40
013340,北海道,木古内町,きこないちょう,049-0422,北海道上磯郡木古内町字本町218,01392-2-3131,41.6783704,140.4376534,Google Maps,,41
013374,北海道,七飯町,ななえちょう,041-1192,北海道亀田郡七飯町本町6丁目1-1,0138-65-2511,41.8957189,140.6943934,Google Maps,,42
013439,北海道,鹿部町,しかべちょう,041-1498,北海道茅部郡鹿部町字鹿部252-1,01372-7-2111,42.0266853,140.8316325,Google Maps,,43
013455,北海道,森町,もりまち,049-2393,北海道茅部郡森町字御幸町144-1,01374-2-2181,42.1049897,140.5765038,Google Maps,,44
013463,北海道,八雲町,やくもちょう,049-3192,北海道二海郡八雲町住初町138,0137-62-2111,42.2559569,140.2651668,Google Maps,,45
013471,北海道,長万部町,おしゃまんべちょう,049-3592,北海道山越郡長万部町字長万部453-1,01377-2-2000,42.5135504,140.3803173,Google Maps,,46
013617,北海道,江差町,えさしちょう,043-8560,北海道檜山郡江差町字中歌町193-1,0139-52-1020,41.8691504,140.1275076,Google Maps,,47
013625,北海道,上ノ国町,かみのくにちょう,049-0698,北海道檜山郡上ノ国町字大留100,0139-55-2311,41.8011124,140.1198925,Google Maps,,48
013633,北海道,厚沢部町,あっさぶちょう,043-1113,北海道檜山郡厚沢部町新町207,0139-64-3311,41.9209115,140.2253109,Google Maps,,49
013641,北海道,乙部町,おとべちょう,043-0103,北海道爾志郡乙部町字緑町388,0139-62-2311,41.9685412,140.1356129,Google Maps,,50
013676,北海道,奥尻町,おくしりちょう,043-1498,北海道奥尻郡奥尻町字奥尻428-2,01397-2-3111,42.1720464,139.5129906,Google Maps,,51
013706,北海道,今金町,いまかねちょう,049-4393,北海道瀬棚郡今金町字今金48-1,0137-82-0111,42.4293365,140.0086692,Google Maps,,52
013714,北海道,せたな町,せたなちょう,049-4592,北海道久遠郡せたな町北檜山区徳島63-1,0137-84-5111,42.4170406,139.8831755,Google Maps,,53
013919,北海道,島牧村,しままきむら,048-0621,北海道島牧郡島牧村字泊83-1,0136-75-6211,42.6997796,140.0617838,Google Maps,,54
013927,北海道,寿都町,すっつちょう,048-0406,北海道寿都郡寿都町字渡島町140-1,0136-62-2511,42.7911998,140.2287933,Google Maps,,55
013935,北海道,黒松内町,くろまつないちょう,048-0192,北海道寿都郡黒松内町字黒松内302-1,0136-72-3311,42.6679082,140.3075122,Google Maps,,56
013943,北海道,蘭越町,らんこしちょう,048-1392,北海道磯谷郡蘭越町蘭越町258-5,0136-57-5111,42.8091573,140.5283537,Google Maps,,57
013951,北海道,ニセコ町,にせこちょう,048-1595,北海道虻田郡ニセコ町字富士見55番地,0136-44-2121,42.8050447,140.6879869,Google Maps,,58
013960,北海道,真狩村,まっかりむら,048-1631,北海道虻田郡真狩村字真狩118,0136-45-2121,42.762983,140.8037371,Google Maps,,59
013978,北海道,留寿都村,るすつむら,048-1731,北海道虻田郡留寿都村字留寿都175,0136-46-3131,42.7378866,140.8753361,Google Maps,,60
013986,北海道,喜茂別町,きもべつちょう,044-0292,北海道虻田郡喜茂別町字喜茂別123,0136-33-2211,42.7954943,140.9345018,Google Maps,,61
013994,北海道,京極町,きょうごくちょう,044-0101,北海道虻田郡京極町字京極527,0136-42-2111,42.8582056,140.8842031,Google Maps,,62
014001,北海道,倶知安町,くっちゃんちょう,044-0001,北海道虻田郡倶知安町北1条東3-3,0136-22-1121,42.9020036,140.7589841,Google Maps,,63
014010,北海道,共和町,きょうわちょう,048-2292,北海道岩内郡共和町南幌似38-2,0135-73-2011,42.9804117,140.6111876,Google Maps,,64
014028,北海道,岩内町,いわないちょう,045-8555,北海道岩内郡岩内町字高台134-1,0135-62-1011,42.97984,140.5147826,Google Maps,,65
014036,北海道,泊村,とまりむら,045-0202,北海道古宇郡泊村大字茅沼村字臼別191-7,0135-75-2021,43.0634362,140.4987933,Google Maps,,66
014044,北海道,神恵内村,かもえないむら,045-0301,北海道古宇郡神恵内村大字神恵内村81-20,0135-76-5011,43.1433628,140.4307548,Google Maps,,67
014052,北海道,積丹町,しゃこたんちょう,046-0292,北海道積丹郡積丹町大字美国町字船澗48-5,0135-44-2111,43.2990163,140.5979841,Google Maps,,68
014061,北海道,古平町,ふるびらちょう,046-0192,北海道古平郡古平町大字浜町50番地,0135-48-9836,43.2639797,140.6386465,Google Maps,,69
014079,北海道,仁木町,にきちょう,048-2492,北海道余市郡仁木町西町1-36-1,0135-32-2511,43.1518145,140.7658705,Google Maps,,70
014087,北海道,余市町,よいちちょう,046-8546,北海道余市郡余市町朝日町26,0135-21-2111,43.1953239,140.7835377,Google Maps,,71
014095,北海道,赤井川村,あかいがわむら,046-0592,北海道余市郡赤井川村字赤井川74-2,0135-34-6211,43.08351,140.8136627,Google Maps,,72
014231,北海道,南幌町,なんぽろちょう,069-0292,北海道空知郡南幌町栄町3-2-1,011-378-2121,43.0637872,141.65037,Google Maps,,73
014249,北海道,奈井江町,ないえちょう,079-0392,北海道空知郡奈井江町字奈井江11,0125-65-2111,43.4267566,141.8823955,Google Maps,,74
014257,北海道,上砂川町,かみすながわちょう,073-0292,北海道空知郡上砂川町字上砂川町40-10,0125-62-2011,43.4826592,141.9839851,Google Maps,,75
014273,北海道,由仁町,ゆにちょう,069-1292,北海道夕張郡由仁町新光200,0123-83-2111,42.9995971,141.7903926,Google Maps,,76
014281,北海道,長沼町,ながぬまちょう,069-1392,北海道夕張郡長沼町中央北1-1-1,0123-88-2111,43.0104109,141.6952169,Google Maps,,77
014290,北海道,栗山町,くりやまちょう,069-1512,北海道夕張郡栗山町松風3-252,0123-72-1111,43.0563286,141.7842391,Google Maps,,78
014303,北海道,月形町,つきがたちょう,061-0592,北海道樺戸郡月形町1219,0126-53-2321,43.3383584,141.6694437,Google Maps,,79
014311,北海道,浦臼町,うらうすちょう,061-0692,北海道樺戸郡浦臼町字ウラウスナイ183-15,0125-68-2111,43.4305149,141.8187815,Google Maps,,80
014320,北海道,新十津川町,しんとつかわちょう,073-1103,北海道樺戸郡新十津川町字中央301-1,0125-76-2131,43.5489364,141.8774104,Google Maps,,81
014338,北海道,妹背牛町,もせうしちょう,079-0592,北海道雨竜郡妹背牛町字妹背牛5200,0164-32-2411,43.700102,141.9614467,Google Maps,,82
014346,北海道,秩父別町,ちっぷべつちょう,078-2192,北海道雨竜郡秩父別町4101,0164-33-2111,43.7670812,141.958195,Google Maps,,83
014362,北海道,雨竜町,うりゅうちょう,078-2692,北海道雨竜郡雨竜町字フシコウリウ104,0125-77-2211,43.6435332,141.8887143,Google Maps,,84
014371,北海道,北竜町,ほくりゅうちょう,078-2512,北海道雨竜郡北竜町字和11-1,0164-34-2111,43.7310068,141.8794972,Google Maps,,85
014389,北海道,沼田町,ぬまたちょう,078-2202,北海道雨竜郡沼田町南1条3-6-53,0164-35-2111,43.8067961,141.9333338,Google Maps,,86
014524,北海道,鷹栖町,たかすちょう,071-1292,北海道上川郡鷹栖町南1条3丁目5番1号,0166-87-2111,43.8432678,142.3543716,Google Maps,,87
014532,北海道,東神楽町,ひがしかぐらちょう,071-1592,北海道上川郡東神楽町南1条西1丁目3-2,0166-83-2111,43.6963994,142.4516825,Google Maps,,88
014541,北海道,当麻町,とうまちょう,078-1393,北海道上川郡当麻町3条東2丁目11-1,0166-84-2111,43.8284978,142.5078968,Google Maps,,89
014559,北海道,比布町,ぴっぷちょう,078-0392,北海道上川郡比布町北町1-2-1,0166-85-2111,43.8751984,142.4776112,Google Maps,,90
014567,北海道,愛別町,あいべつちょう,078-1492,北海道上川郡愛別町字本町179,01658-6-5111,43.9064945,142.5780835,Google Maps,,91
014575,北海道,上川町,かみかわちょう,078-1753,北海道上川郡上川町南町180,01658-2-1211,43.8471848,142.770398,Google Maps,,92
014583,北海道,東川町,ひがしかわちょう,071-1492,北海道上川郡東川町東町1-16-1,0166-82-2111,43.6989936,142.5102325,Google Maps,,93
014591,北海道,美瑛町,びえいちょう,071-0292,北海道上川郡美瑛町本町4-6-1,0166-92-1111,43.5881869,142.4669716,Google Maps,,94
014605,北海道,上富良野町,かみふらのちょう,071-0596,北海道空知郡上富良野町大町2-2-11,0167-45-6400,43.4556418,142.4670768,Google Maps,,95
014613,北海道,中富良野町,なかふらのちょう,071-0795,北海道空知郡中富良野町本町9-1,0167-44-2122,43.4056051,142.4250752,Google Maps,,96
014621,北海道,南富良野町,みなみふらのちょう,079-2402,北海道空知郡南富良野町字幾寅867,0167-52-2112,43.16416,142.56857,Google Maps,,97
014630,北海道,占冠村,しむかっぷむら,079-2201,北海道勇払郡占冠村字中央,0167-56-2121,42.9797423,142.4214117,Google Maps,,98
014648,北海道,和寒町,わっさむちょう,098-0192,北海道上川郡和寒町字西町120,0165-32-2421,44.023038,142.4132789,Google Maps,,99
014656,北海道,剣淵町,けんぶちちょう,098-0392,北海道上川郡剣淵町仲町37-1,0165-34-2121,44.0958434,142.3611451,Google Maps,,100
014681,北海道,下川町,しもかわちょう,098-1206,北海道上川郡下川町幸町63,01655-4-2511,44.3026254,142.6351824,Google Maps,,101
014699,北海道,美深町,びふかちょう,098-2252,北海道中川郡美深町字西町18,01656-2-1611,44.4816047,142.3431845,Google Maps,,102
014702,北海道,音威子府村,おといねっぷむら,098-2501,北海道中川郡音威子府村字音威子府444-1,01656-5-3311,44.7254604,142.2623011,Google Maps,,103
014711,北海道,中川町,なかがわちょう,098-2892,北海道中川郡中川町字中川337,01656-7-2811,44.8112303,142.0713813,Google Maps,,104
014729,北海道,幌加内町,ほろかないちょう,074-0492,北海道雨竜郡幌加内町字幌加内4699,0165-35-2121,44.0101029,142.1538986,Google Maps,,105
014818,北海道,増毛町,ましけちょう,077-0292,北海道増毛郡増毛町弁天町3-61,0164-53-1111,43.8560578,141.5250605,Google Maps,,106
014826,北海道,小平町,おびらちょう,078-3392,北海道留萌郡小平町字小平町216,0164-56-2111,44.0154468,141.6628069,Google Maps,,107
014834,北海道,苫前町,とままえちょう,078-3792,北海道苫前郡苫前町字旭37-1,0164-64-2211,44.3061952,141.6529843,Google Maps,,108
014842,北海道,羽幌町,はぼろちょう,078-4198,北海道苫前郡羽幌町南町1-1,0164-62-1211,44.3606601,141.6970979,Google Maps,,109
014851,北海道,初山別村,しょさんべつむら,078-4492,北海道苫前郡初山別村字初山別96-1,0164-67-2211,44.5321818,141.7663333,Google Maps,,110
014869,北海道,遠別町,えんべつちょう,098-3543,北海道天塩郡遠別町字本町3-37,01632-7-2111,44.7224477,141.7923272,Google Maps,,111
014877,北海道,天塩町,てしおちょう,098-3398,北海道天塩郡天塩町新栄通8丁目,01632-2-1001,44.8882903,141.7450979,Google Maps,,112
015113,北海道,猿払村,さるふつむら,098-6232,北海道宗谷郡猿払村鬼志別西町172-1,01635-2-3131,45.3306307,142.1089096,Google Maps,,113
015121,北海道,浜頓別町,はまとんべつちょう,098-5792,北海道枝幸郡浜頓別町中央南1,01634-2-2345,45.1237477,142.3597036,Google Maps,,114
015130,北海道,中頓別町,なかとんべつちょう,098-5595,北海道枝幸郡中頓別町字中頓別172-6,01634-6-1111,44.9697459,142.2867244,Google Maps,,115
015148,北海道,枝幸町,えさしちょう,098-5892,北海道枝幸郡枝幸町本町916,0163-62-1234,44.9386907,142.5814118,Google Maps,,116
015164,北海道,豊富町,とよとみちょう,098-4110,北海道天塩郡豊富町大通6丁目,0162-82-1001,45.1029277,141.7775395,Google Maps,,117
015172,北海道,礼文町,れぶんちょう,097-1201,北海道礼文郡礼文町大字香深村字トンナイ558-5,0163-86-1001,45.3030103,141.0477215,Google Maps,,118
015181,北海道,利尻町,りしりちょう,097-0401,北海道利尻郡利尻町沓形字緑町14-1,0163-84-2345,45.1870957,141.1395432,Google Maps,,119
015199,北海道,利尻富士町,りしりふじちょう,097-0101,北海道利尻郡利尻富士町鴛泊字富士野6,0163-82-1111,45.2474977,141.2145697,Google Maps,,120
015202,北海道,幌延町,ほろのべちょう,098-3207,北海道天塩郡幌延町宮園町1番地1,01632-5-1111,45.0179429,141.8497062,Google Maps,,121
015431,北海道,美幌町,びほろちょう,092-8650,北海道網走郡美幌町字東2条北2-25,0152-73-1111,43.8245745,144.1072129,Google Maps,,122
015440,北海道,津別町,つべつちょう,092-0292,北海道網走郡津別町字幸町41,0152-76-2151,43.7069868,144.0243183,Google Maps,,123
015458,北海道,斜里町,しゃりちょう,099-4192,北海道斜里郡斜里町本町12,0152-23-3131,43.9114708,144.6708581,Google Maps,,124
015466,北海道,清里町,きよさとちょう,099-4492,北海道斜里郡清里町羽衣町13,0152-25-2131,43.8352158,144.5945124,Google Maps,,125
015474,北海道,小清水町,こしみずちょう,099-3698,北海道斜里郡小清水町元町2-1-1,0152-62-2311,43.8566961,144.4621071,Google Maps,,126
015491,北海道,訓子府町,くんねっぷちょう,099-1498,北海道常呂郡訓子府町東町398,0157-47-2111,43.7253764,143.7416024,Google Maps,,127
015504,北海道,置戸町,おけとちょう,099-1100,北海道常呂郡置戸町字置戸181,0157-52-3311,43.676359,143.5863303,Google Maps,,128
015521,北海道,佐呂間町,さろまちょう,093-0592,北海道常呂郡佐呂間町字永代町3-1,01587-2-1211,44.0179629,143.7748608,Google Maps,,129
015555,北海道,遠軽町,えんがるちょう,099-0492,北海道紋別郡遠軽町1条通北3-1-1,0158-42-4811,44.0619416,143.5280576,Google Maps,,130
015598,北海道,湧別町,ゆうべつちょう,099-6592,北海道紋別郡湧別町上湧別屯田市街地318,01586-2-2111,44.1514787,143.5728715,Google Maps,,131
015601,北海道,滝上町,たきのうえちょう,099-5692,北海道紋別郡滝上町字滝ノ上市街地4条通2-1,0158-29-2111,44.1916298,143.0780883,Google Maps,,132
015610,北海道,興部町,おこっぺちょう,098-1692,北海道紋別郡興部町字興部710,0158-82-2131,44.4699014,143.1238211,Google Maps,,133
015628,北海道,西興部村,にしおこっぺむら,098-1501,北海道紋別郡西興部村字西興部100,0158-87-2111,44.328615,142.9452491,Google Maps,,134
015636,北海道,雄武町,おうむちょう,098-1792,北海道紋別郡雄武町本町,0158-84-2121,44.5825323,142.9619828,Google Maps,,135
015644,北海道,大空町,おおぞらちょう,099-2392,北海道網走郡大空町女満別西3条4丁目1-1,0152-74-2111,43.9119041,144.1725343,Google Maps,,136
015717,北海道,豊浦町,とようらちょう,049-5492,北海道虻田郡豊浦町字船見町10,0142-83-2121,42.5834214,140.7118078,Google Maps,,137
015750,北海道,壮瞥町,そうべつちょう,052-0101,北海道有珠郡壮瞥町字滝之町287-7,0142-66-2121,42.5521081,140.8859653,Google Maps,,138
015784,北海道,白老町,しらおいちょう,059-0995,北海道白老郡白老町大町1-1-1,0144-82-2121,42.5508737,141.3550743,Google Maps,,139
015814,北海道,厚真町,あつまちょう,059-1692,北海道勇払郡厚真町京町120,0145-27-2321,42.723663,141.8779224,Google Maps,,140
015849,北海道,洞爺湖町,とうやこちょう,049-5692,北海道虻田郡洞爺湖町栄町58,0142-76-2121,42.5513196,140.7640555,Google Maps,,141
015857,北海道,安平町,あびらちょう,059-1595,北海道勇払郡安平町早来大町95,0145-22-2511,42.7696007,141.8231529,Google Maps,,142
015865,北海道,むかわ町,むかわちょう,054-8660,北海道勇払郡むかわ町美幸2-88,0145-42-2411,42.5748049,141.9267718,Google Maps,,143
016012,北海道,日高町,ひだかちょう,059-2192,北海道沙流郡日高町門別本町210-1,01456-2-5131,42.4802438,142.0747667,Google Maps,,144
016021,北海道,平取町,びらとりちょう,055-0192,北海道沙流郡平取町本町28,01457-2-2221,42.5850341,142.1286044,Google Maps,,145
016047,北海道,新冠町,にいかっぷちょう,059-2492,北海道新冠郡新冠町字北星町3-2,0146-47-2111,42.3624747,142.3183081,Google Maps,,146
016071,北海道,浦河町,うらかわちょう,057-8511,北海道浦河郡浦河町築地1-3-1,0146-22-2311,42.1683877,142.7683027,Google Maps,,147
016080,北海道,様似町,さまにちょう,058-8501,北海道様似郡様似町大通1-21,0146-36-2111,42.1280734,142.9332392,Google Maps,,148
016098,北海道,えりも町,えりもちょう,058-0292,北海道幌泉郡えりも町字本町206,01466-2-2111,42.016302,143.1482137,Google Maps,,149
016101,北海道,新ひだか町,しんひだかちょう,056-8650,北海道日高郡新ひだか町静内御幸町3丁目2-50,0146-43-2111,42.3412993,142.3685985,Google Maps,,150
016314,北海道,音更町,おとふけちょう,080-0198,北海道河東郡音更町元町2,0155-42-2111,42.9941755,143.1979227,Google Maps,,151
016322,北海道,士幌町,しほろちょう,080-1292,北海道河東郡士幌町字士幌225,01564-5-2211,43.1681096,143.2411912,Google Maps,,152
016331,北海道,上士幌町,かみしほろちょう,080-1492,北海道河東郡上士幌町字上士幌東3線238,01564-2-2111,43.2322698,143.2976214,Google Maps,,153
016349,北海道,鹿追町,しかおいちょう,081-0292,北海道河東郡鹿追町東町1-15-1,0156-66-2311,43.0989186,142.9889642,Google Maps,,154
016357,北海道,新得町,しんとくちょう,081-8501,北海道上川郡新得町3条南4-26,0156-64-5111,43.0798979,142.8388881,Google Maps,,155
016365,北海道,清水町,しみずちょう,089-0192,北海道上川郡清水町南4条2-2,0156-62-2111,43.0115844,142.8845824,Google Maps,,156
016373,北海道,芽室町,めむろちょう,082-8651,北海道河西郡芽室町東2条2-14,0155-62-9720,42.9119196,143.0507768,Google Maps,,157
016381,北海道,中札内村,なかさつないむら,089-1392,北海道河西郡中札内村東１条南１丁目２番地１,0155-67-2311,42.6979042,143.1343559,Google Maps,,158
016390,北海道,更別村,さらべつむら,089-1595,北海道河西郡更別村字更別南1線93,0155-52-2111,42.6507175,143.1864396,Google Maps,,159
016411,北海道,大樹町,たいきちょう,089-2195,北海道広尾郡大樹町東本通33,01558-6-2111,42.4975324,143.2788775,Google Maps,,160
016420,北海道,広尾町,ひろおちょう,089-2692,北海道広尾郡広尾町西4条7-1,01558-2-2111,42.285763,143.3114792,Google Maps,,161
016438,北海道,幕別町,まくべつちょう,089-0692,北海道中川郡幕別町本町130-1,0155-54-2111,42.9085994,143.3561193,Google Maps,,162
016446,北海道,池田町,いけだちょう,083-8650,北海道中川郡池田町西1条7-11,015-572-3111,42.9213433,143.4487546,Google Maps,,163
016454,北海道,豊頃町,とよころちょう,089-5392,北海道中川郡豊頃町茂岩本町125,015-574-2211,42.8010304,143.5058614,Google Maps,,164
016462,北海道,本別町,ほんべつちょう,089-3392,北海道中川郡本別町北2-4-1,0156-22-2141,43.1246602,143.6107647,Google Maps,,165
016471,北海道,足寄町,あしょろちょう,089-3797,北海道足寄郡足寄町北1条4-48-1,0156-25-2141,43.2448462,143.5538973,Google Maps,,166
016489,北海道,陸別町,りくべつちょう,089-4311,北海道足寄郡陸別町字陸別東1条3-1,0156-27-2141,43.4689274,143.7473981,Google Maps,,167
016497,北海道,浦幌町,うらほろちょう,089-5692,北海道十勝郡浦幌町字桜町15-6,015-576-2111,42.8089584,143.6585368,Google Maps,,168
016616,北海道,釧路町,くしろちょう,088-0692,北海道釧路郡釧路町別保1-1,0154-62-2111,42.9960096,144.4661071,Google Maps,,169
016624,北海道,厚岸町,あっけしちょう,088-1192,北海道厚岸郡厚岸町真栄3丁目1番地,0153-52-3131,43.0518334,144.8469819,Google Maps,,170
016632,北海道,浜中町,はまなかちょう,088-1592,北海道厚岸郡浜中町湯沸445番地,0153-62-2111,43.0759368,145.1311004,Google Maps,,171
016641,北海道,標茶町,しべちゃちょう,088-2312,北海道川上郡標茶町川上4-2,015-485-2111,43.3033268,144.6006365,Google Maps,,172
016659,北海道,弟子屈町,てしかがちょう,088-3292,北海道川上郡弟子屈町中央2-3-1,015-482-2191,43.4853385,144.45927,Google Maps,,173
016675,北海道,鶴居村,つるいむら,085-1203,北海道阿寒郡鶴居村鶴居西1-1,0154-64-2111,43.2300686,144.3211187,Google Maps,,174
016683,北海道,白糠町,しらぬかちょう,088-0392,北海道白糠郡白糠町西1条南1-1-1,01547-2-2171,42.956174,144.0717341,Google Maps,,175
016918,北海道,別海町,べつかいちょう,086-0205,北海道野付郡別海町別海常盤町280,0153-75-2111,43.3941004,145.1180356,Google Maps,,176
016926,北海道,中標津町,なかしべつちょう,086-1197,北海道標津郡中標津町丸山2-22,0153-73-3111,43.555713,144.9732883,Google Maps,,177
016934,北海道,標津町,しべつちょう,086-1632,北海道標津郡標津町北2条西1-1-3,0153-82-2131,43.661408,145.1313128,Google Maps,,178
016942,北海道,羅臼町,らうすちょう,086-1892,北海道目梨郡羅臼町栄町100-83,0153-87-2111,44.0218608,145.189688,Google Maps,,179
022012,青森県,青森市,あおもりし,030-8555,青森県青森市中央1-22-5,017-734-1111,40.8222397,140.7474381,Google Maps,,180
022021,青森県,弘前市,ひろさきし,036-8551,青森県弘前市大字上白銀町1-1,0172-35-1111,40.6032688,140.463095,Google Maps,,181
022039,青森県,八戸市,はちのへし,031-8686,青森県八戸市内丸1-1-1,0178-43-2111,40.5139639,141.4889199,Google Maps,,182
022047,青森県,黒石市,くろいしし,036-0396,青森県黒石市大字市ノ町11-1,0172-52-2111,40.6425774,140.5945884,Google Maps,,183
022055,青森県,五所川原市,ごしょがわらし,037-8686,青森県五所川原市字布屋町41-1,0173-35-2111,40.8077466,140.4461216,Google Maps,,184
022063,青森県,十和田市,とわだし,034-8615,青森県十和田市西十二番町6-1,0176-23-5111,40.6125439,141.2055345,Google Maps,,185
022071,青森県,三沢市,みさわし,033-8666,青森県三沢市桜町1-1-38,0176-53-5111,40.6830103,141.3690567,Google Maps,,186
022080,青森県,むつ市,むつし,035-8686,青森県むつ市中央1丁目8-1,0175-22-1111,41.2930438,141.183166,Google Maps,,187
022098,青森県,つがる市,つがるし,038-3192,青森県つがる市木造若緑61-1,0173-42-2111,40.8087,140.3801366,Google Maps,,188
022101,青森県,平川市,ひらかわし,036-0104,青森県平川市柏木町藤山25-6,0172-44-1111,40.5836914,140.567135,Google Maps,,189
023019,青森県,平内町,ひらないまち,039-3393,青森県東津軽郡平内町大字小湊字小湊63,017-755-2111,40.9260812,140.9559248,Google Maps,,190
023035,青森県,今別町,いまべつまち,030-1502,青森県東津軽郡今別町大字今別字今別167,0174-35-2001,41.1819512,140.4818441,Google Maps,,191
023043,青森県,蓬田村,よもぎたむら,030-1211,青森県東津軽郡蓬田村大字蓬田字汐越1-3,0174-27-2111,40.9718074,140.6560598,Google Maps,,192
023078,青森県,外ヶ浜町,そとがはままち,030-1393,青森県東津軽郡外ヶ浜町字蟹田高銅屋44-2,0174-31-1111,41.0432074,140.6323956,Google Maps,,193
023213,青森県,鰺ヶ沢町,あじがさわまち,038-2792,青森県西津軽郡鰺ヶ沢町大字舞戸町字鳴戸321番地,0173-72-2111,40.7830118,140.2338655,Google Maps,,194
023230,青森県,深浦町,ふかうらまち,038-2324,青森県西津軽郡深浦町大字深浦字苗代沢84-2,0173-74-2111,40.6479361,139.9275253,Google Maps,,195
023434,青森県,西目屋村,にしめやむら,036-1492,青森県中津軽郡西目屋村大字田代字神田57番地,0172-85-2111,40.5779336,140.2970336,Google Maps,,196
023612,青森県,藤崎町,ふじさきまち,038-3803,青森県南津軽郡藤崎町大字西豊田1-1,0172-75-3111,40.6560202,140.5027908,Google Maps,,197
023621,青森県,大鰐町,おおわにまち,038-0292,青森県南津軽郡大鰐町大字大鰐字羽黒館5-3,0172-48-2111,40.5184136,140.568173,Google Maps,,198
023671,青森県,田舎館村,いなかだてむら,038-1113,青森県南津軽郡田舎館村大字田舎館字中辻123-1,0172-58-2111,40.6314201,140.5501819,Google Maps,,199
023817,青森県,板柳町,いたやなぎまち,038-3692,青森県北津軽郡板柳町大字板柳字土井239-3,0172-73-2111,40.6959641,140.4576644,Google Maps,,200
023841,青森県,鶴田町,つるたまち,038-3595,青森県北津軽郡鶴田町大字鶴田字早瀬200-1,0173-22-2111,40.7585669,140.4288512,Google Maps,,201
023876,青森県,中泊町,なかどまりまち,037-0392,青森県北津軽郡中泊町大字中里字紅葉坂209,0173-57-2111,40.9604373,140.4341146,Google Maps,,202
024015,青森県,野辺地町,のへじまち,039-3131,青森県上北郡野辺地町字野辺地123-1,0175-64-2111,40.8644719,141.1287076,Google Maps,,203
024023,青森県,七戸町,しちのへまち,039-2792,青森県上北郡七戸町字森ノ上131-4,0176-68-2111,40.7446944,141.1579814,Google Maps,,204
024058,青森県,六戸町,ろくのへまち,039-2392,青森県上北郡六戸町大字犬落瀬字前谷地60,0176-55-3111,40.6091106,141.3255642,Google Maps,,205
024066,青森県,横浜町,よこはままち,039-4145,青森県上北郡横浜町字寺下35,0175-78-2111,41.0833051,141.2478072,Google Maps,,206
024082,青森県,東北町,とうほくまち,039-2492,青森県上北郡東北町上北南4-32-484,0176-56-3111,40.7279844,141.2577679,Google Maps,,207
024112,青森県,六ヶ所村,ろっかしょむら,039-3212,青森県上北郡六ヶ所村大字尾駮字野附475,0175-72-2111,40.9660162,141.373343,Google Maps,,208
024121,青森県,おいらせ町,おいらせちょう,039-2192,青森県上北郡おいらせ町中下田135-2,0178-56-2111,40.5991585,141.3978463,Google Maps,,209
024236,青森県,大間町,おおままち,039-4692,青森県下北郡大間町大字大間字奥戸下道20-4,0175-37-2111,41.5225577,140.9045774,Google Maps,,210
024244,青森県,東通村,ひがしどおりむら,039-4292,青森県下北郡東通村大字砂子又字沢内5-34,0175-27-2111,41.2775973,141.3290676,Google Maps,,211
024252,青森県,風間浦村,かざまうらむら,039-4502,青森県下北郡風間浦村大字易国間字大川目28-5,0175-35-2111,41.4876404,140.9955472,Google Maps,,212
024261,青森県,佐井村,さいむら,039-4711,青森県下北郡佐井村大字佐井字糠森20,0175-38-2111,41.4296787,140.8591486,Google Maps,,213
024414,青森県,三戸町,さんのへまち,039-0198,青森県三戸郡三戸町大字在府小路町43,0179-20-1111,40.3781567,141.2585295,Google Maps,,214
024422,青森県,五戸町,ごのへまち,039-1513,青森県三戸郡五戸町字古舘21-1,0178-62-2111,40.531209,141.3079353,Google Maps,,215
024431,青森県,田子町,たっこまち,039-0292,青森県三戸郡田子町大字田子字天神堂平81,0179-20-7111,40.3400214,141.1520762,Google Maps,,216
024457,青森県,南部町,なんぶちょう,039-0592,青森県三戸郡南部町大字平字広場28-1,0178-76-2111,40.4210237,141.3306478,Google Maps,,217
024465,青森県,階上町,はしかみちょう,039-1201,青森県三戸郡階上町大字道仏字天当平1-87,0178-88-2111,40.4524236,141.6210187,Google Maps,,218
024503,青森県,新郷村,しんごうむら,039-1801,青森県三戸郡新郷村大字戸来字風呂前10,0178-78-2111,40.4665114,141.173775,Google Maps,,219
032018,岩手県,盛岡市,もりおかし,020-8530,岩手県盛岡市内丸12-2,019-651-4111,39.7017611,141.1542801,Google Maps,,220
032026,岩手県,宮古市,みやこし,027-8501,岩手県宮古市宮町1-1-30,0193-62-2111,39.6415587,141.9571158,Google Maps,,221
032034,岩手県,大船渡市,おおふなとし,022-8501,岩手県大船渡市盛町字宇津野沢15,0192-27-3111,39.0819056,141.7085767,Google Maps,,222
032051,岩手県,花巻市,はなまきし,025-8601,岩手県花巻市花城町9-30,0198-24-2111,39.3885978,141.1169006,Google Maps,,223
032069,岩手県,北上市,きたかみし,024-8501,岩手県北上市芳町1-1,0197-64-2111,39.2867796,141.1132504,Google Maps,,224
032077,岩手県,久慈市,くじし,028-8030,岩手県久慈市川崎町1-1,0194-52-2111,40.1904229,141.7755227,Google Maps,,225
032085,岩手県,遠野市,とおのし,028-0592,岩手県遠野市中央通り9-1,0198-62-2111,39.3306737,141.5314658,Google Maps,,226
032093,岩手県,一関市,いちのせきし,021-8501,岩手県一関市竹山町7-2,0191-21-2111,38.9347027,141.1267695,Google Maps,,227
032107,岩手県,陸前高田市,りくぜんたかたし,029-2292,岩手県陸前高田市高田町字下和野100,0192-54-2111,39.019087,141.6347269,Google Maps,,228
032115,岩手県,釜石市,かまいしし,026-8686,岩手県釜石市只越町3-9-13,0193-22-2111,39.2758253,141.8857432,Google Maps,,229
032131,岩手県,二戸市,にのへし,028-6192,岩手県二戸市福岡字川又47,0195-23-3111,40.2712003,141.304643,Google Maps,,230
032140,岩手県,八幡平市,はちまんたいし,028-7397,岩手県八幡平市野駄21-170,0195-74-2111,39.9472928,141.0259246,Google Maps,,231
032158,岩手県,奥州市,おうしゅうし,023-8501,岩手県奥州市水沢大手町1-1,0197-24-2111,39.1444454,141.1391612,Google Maps,,232
032166,岩手県,滝沢市,たきざわし,020-0692,岩手県滝沢市中鵜飼55,019-684-2111,39.7350425,141.0778456,Google Maps,,233
033014,岩手県,雫石町,しずくいしちょう,020-0595,岩手県岩手郡雫石町千刈田5-1,019-692-2111,39.6962653,140.9757745,Google Maps,,234
033022,岩手県,葛巻町,くずまきまち,028-5495,岩手県岩手郡葛巻町葛巻16-1-1,0195-66-2111,40.0432886,141.4022104,Google Maps,,235
033031,岩手県,岩手町,いわてまち,028-4395,岩手県岩手郡岩手町大字五日市10-44,0195-62-2111,40.0315119,141.2138151,Google Maps,,236
033219,岩手県,紫波町,しわちょう,028-3392,岩手県紫波郡紫波町紫波中央駅前2-3-1,019-672-2111,39.554528,141.1557579,Google Maps,,237
033227,岩手県,矢巾町,やはばちょう,028-3692,岩手県紫波郡矢巾町大字南矢幅第13地割123番地,019-697-2111,39.6062797,141.1424062,Google Maps,,238
033669,岩手県,西和賀町,にしわがまち,029-5512,岩手県和賀郡西和賀町川尻40地割40番地71,0197-82-2111,39.3178843,140.7788759,Google Maps,,239
033812,岩手県,金ケ崎町,かねがさきちょう,029-4592,岩手県胆沢郡金ケ崎町西根南町22-1,0197-42-2111,39.1957802,141.116289,Google Maps,,240
034029,岩手県,平泉町,ひらいずみちょう,029-4192,岩手県西磐井郡平泉町平泉字志羅山45-2,0191-46-2111,38.9866804,141.1137999,Google Maps,,241
034410,岩手県,住田町,すみたちょう,029-2396,岩手県気仙郡住田町世田米字川向88-1,0192-46-2111,39.142227,141.574995,Google Maps,,242
034614,岩手県,大槌町,おおつちちょう,028-1115,岩手県上閉伊郡大槌町上町1番3号,0193-42-2111,39.3584714,141.8993907,Google Maps,,243
034827,岩手県,山田町,やまだまち,028-1392,岩手県下閉伊郡山田町八幡町3-20,0193-82-3111,39.4681092,141.9494507,Google Maps,,244
034835,岩手県,岩泉町,いわいずみちょう,027-0595,岩手県下閉伊郡岩泉町岩泉字惣畑59-5,0194-22-2111,39.8431663,141.7964158,Google Maps,,245
034843,岩手県,田野畑村,たのはたむら,028-8407,岩手県下閉伊郡田野畑村田野畑143-1,0194-34-2111,39.9304419,141.8888689,Google Maps,,246
034851,岩手県,普代村,ふだいむら,028-8392,岩手県下閉伊郡普代村第9地割字銅屋13-2,0194-35-2111,40.0052841,141.8859042,Google Maps,,247
035017,岩手県,軽米町,かるまいまち,028-6302,岩手県九戸郡軽米町大字軽米10-85,0195-46-2111,40.3264016,141.4609318,Google Maps,,248
035033,岩手県,野田村,のだむら,028-8201,岩手県九戸郡野田村大字野田第20地割14,0194-78-2111,40.1096861,141.8178302,Google Maps,,249
035068,岩手県,九戸村,くのへむら,028-6502,岩手県九戸郡九戸村大字伊保内第10地割11番地6,0195-42-2111,40.2113611,141.4189764,Google Maps,,250
035076,岩手県,洋野町,ひろのちょう,028-7995,岩手県九戸郡洋野町種市23-27,0194-65-2111,40.3757891,141.659814,Google Maps,,251
035246,岩手県,一戸町,いちのへまち,028-5311,岩手県二戸郡一戸町高善寺字大川鉢24-9,0195-33-2111,40.2130213,141.2954722,Google Maps,,252
041009,宮城県,仙台市,せんだいし,980-8671,宮城県仙台市青葉区国分町3-7-1,022-261-1111,38.268424,140.8692447,Google Maps,,253
042021,宮城県,石巻市,いしのまきし,986-8501,宮城県石巻市穀町14-1,0225-95-1111,38.434263,141.3027413,Google Maps,,254
042030,宮城県,塩竈市,しおがまし,985-8501,宮城県塩竈市旭町1-1,022-364-1111,38.3144561,141.0228039,Google Maps,,255
042056,宮城県,気仙沼市,けせんぬまし,988-8501,宮城県気仙沼市八日町1-1-1,0226-22-6600,38.9083247,141.5701067,Google Maps,,256
042064,宮城県,白石市,しろいしし,989-0292,宮城県白石市大手町1-1,0224-25-2111,38.0018755,140.6199953,Google Maps,,257
042072,宮城県,名取市,なとりし,981-1292,宮城県名取市増田字柳田80,022-384-2111,38.1718094,140.8924669,Google Maps,,258
042081,宮城県,角田市,かくだし,981-1592,宮城県角田市角田字大坊41,0224-63-2111,37.9769589,140.7823763,Google Maps,,259
042099,宮城県,多賀城市,たがじょうし,985-8531,宮城県多賀城市中央2-1-1,022-368-1141,38.2934244,141.0040847,Google Maps,,260
042111,宮城県,岩沼市,いわぬまし,989-2480,宮城県岩沼市桜1-6-20,0223-22-1111,38.1042815,140.8697119,Google Maps,,261
042129,宮城県,登米市,とめし,987-0511,宮城県登米市迫町佐沼字中江2-6-1,0220-22-2111,38.6918631,141.1877268,Google Maps,,262
042137,宮城県,栗原市,くりはらし,987-2293,宮城県栗原市築館薬師1-7-1,0228-22-1122,38.7304075,141.0202839,Google Maps,,263
042145,宮城県,東松島市,ひがしまつしまし,981-0503,宮城県東松島市矢本字上河戸36-1,0225-82-1111,38.4261574,141.2102376,Google Maps,,264
042153,宮城県,大崎市,おおさきし,989-6188,宮城県大崎市古川七日町1-1,0229-23-2111,38.5771493,140.9559899,Google Maps,,265
042161,宮城県,富谷市,とみやし,981-3392,宮城県富谷市富谷坂松田30,022-358-3111,38.3999043,140.8953202,Google Maps,,266
043010,宮城県,蔵王町,ざおうまち,989-0892,宮城県刈田郡蔵王町大字円田字西浦北10,0224-33-2211,38.0981314,140.6586958,Google Maps,,267
043028,宮城県,七ケ宿町,しちかしゅくまち,989-0592,宮城県刈田郡七ケ宿町字関126,0224-37-2111,37.9930482,140.4417216,Google Maps,,268
043214,宮城県,大河原町,おおがわらまち,989-1295,宮城県柴田郡大河原町字新南19,0224-53-2111,38.0493482,140.7307967,Google Maps,,269
043222,宮城県,村田町,むらたまち,989-1392,宮城県柴田郡村田町大字村田字迫6,0224-83-2111,38.1179652,140.7224032,Google Maps,,270
043231,宮城県,柴田町,しばたまち,989-1692,宮城県柴田郡柴田町船岡中央2-3-45,0224-55-2111,38.0565331,140.7659184,Google Maps,,271
043249,宮城県,川崎町,かわさきまち,989-1592,宮城県柴田郡川崎町大字前川字裏丁175-1,0224-84-2111,38.1772411,140.6428597,Google Maps,,272
043419,宮城県,丸森町,まるもりまち,981-2192,宮城県伊具郡丸森町字鳥屋120,0224-72-2111,37.9117098,140.7669419,Google Maps,,273
043613,宮城県,亘理町,わたりちょう,989-2393,宮城県亘理郡亘理町字悠里1,0223-34-1111,38.0442056,140.8679241,Google Maps,,274
043621,宮城県,山元町,やまもとちょう,989-2292,宮城県亘理郡山元町浅生原字作田山32,0223-37-1111,37.9627544,140.8771914,Google Maps,,275
044016,宮城県,松島町,まつしままち,981-0215,宮城県宮城郡松島町高城字帰命院下一19-1,022-354-5701,38.3801782,141.0672865,Google Maps,,276
044041,宮城県,七ヶ浜町,しちがはままち,985-8577,宮城県宮城郡七ヶ浜町東宮浜字丑谷辺5-1,022-357-2111,38.3047497,141.0586299,Google Maps,,277
044067,宮城県,利府町,りふちょう,981-0112,宮城県宮城郡利府町利府字新並松4,022-767-2111,38.3302984,140.9759298,Google Maps,,278
044211,宮城県,大和町,たいわちょう,981-3680,宮城県黒川郡大和町吉岡まほろば1-1-1,022-345-1111,38.4374727,140.8863505,Google Maps,,279
044229,宮城県,大郷町,おおさとちょう,981-3592,宮城県黒川郡大郷町粕川字西長崎5-8,022-359-3111,38.4243395,141.0044392,Google Maps,,280
044245,宮城県,大衡村,おおひらむら,981-3692,宮城県黒川郡大衡村大衡字平林62,022-345-5111,38.4665476,140.8804866,Google Maps,,281
044440,宮城県,色麻町,しかまちょう,981-4122,宮城県加美郡色麻町四竃字北谷地41,0229-65-2111,38.5487881,140.8499189,Google Maps,,282
044458,宮城県,加美町,かみまち,981-4292,宮城県加美郡加美町字西田3-5,0229-63-3111,38.5717712,140.8547689,Google Maps,,283
045012,宮城県,涌谷町,わくやちょう,987-0192,宮城県遠田郡涌谷町字新町裏153-2,0229-43-2111,38.5397004,141.1282093,Google Maps,,284
045055,宮城県,美里町,みさとまち,987-8602,宮城県遠田郡美里町北浦字駒米13,0229-33-2111,38.5446542,141.0562367,Google Maps,,285
045811,宮城県,女川町,おながわちょう,986-2265,宮城県牡鹿郡女川町女川1-1-1,0225-54-3131,38.4454347,141.4431535,Google Maps,,286
046060,宮城県,南三陸町,みなみさんりくちょう,986-0725,宮城県本吉郡南三陸町志津川字沼田101,0226-46-2600,38.6806337,141.46254,Google Maps,,287
052019,秋田県,秋田市,あきたし,010-8560,秋田県秋田市山王1-1-1,018-863-2222,39.7201459,140.1017848,Google Maps,,288
052027,秋田県,能代市,のしろし,016-8501,秋田県能代市上町1-3,0185-52-2111,40.1999758,140.0354927,Google Maps,,289
052035,秋田県,横手市,よこてし,013-8601,秋田県横手市中央町8-2,0182-35-2111,39.3137913,140.5666735,Google Maps,,290
052043,秋田県,大館市,おおだてし,017-8555,秋田県大館市字中城20,0186-49-3111,40.2714125,140.564144,Google Maps,,291
052060,秋田県,男鹿市,おがし,010-0595,秋田県男鹿市船川港船川字泉台66-1,0185-23-2111,39.886714,139.8475198,Google Maps,,292
052078,秋田県,湯沢市,ゆざわし,012-8501,秋田県湯沢市佐竹町1-1,0183-73-2111,39.1643019,140.4957291,Google Maps,,293
052094,秋田県,鹿角市,かづのし,018-5292,秋田県鹿角市花輪字荒田4-1,0186-30-0203,40.2149213,140.787598,Google Maps,,294
052108,秋田県,由利本荘市,ゆりほんじょうし,015-8501,秋田県由利本荘市尾崎17,0184-24-3321,39.3862039,140.0492253,Google Maps,,295
052116,秋田県,潟上市,かたがみし,010-0201,秋田県潟上市天王字棒沼台226-1,018-853-5301,39.8572388,140.0130215,Google Maps,,296
052124,秋田県,大仙市,だいせんし,014-8601,秋田県大仙市大曲花園町1-1,0187-63-1111,39.453709,140.4755704,Google Maps,,297
052132,秋田県,北秋田市,きたあきたし,018-3392,秋田県北秋田市花園町19-1,0186-62-1111,40.2260617,140.3707348,Google Maps,,298
052141,秋田県,にかほ市,にかほし,018-0192,秋田県にかほ市象潟町字浜ノ田1,0184-43-3200,39.2031541,139.9081524,Google Maps,,299
052159,秋田県,仙北市,せんぼくし,014-1298,秋田県仙北市田沢湖生保内字宮ノ後30,0187-43-1111,39.700057,140.7306168,Google Maps,,300
053031,秋田県,小坂町,こさかまち,017-0292,秋田県鹿角郡小坂町小坂字上谷地41-1,0186-29-3901,40.3333678,140.7359568,Google Maps,,301
053279,秋田県,上小阿仁村,かみこあにむら,018-4494,秋田県北秋田郡上小阿仁村小沢田字向川原118,0186-77-2221,40.0639475,140.2957535,Google Maps,,302
053465,秋田県,藤里町,ふじさとまち,018-3201,秋田県山本郡藤里町藤琴字藤琴8,0185-79-2111,40.2783596,140.2621015,Google Maps,,303
053481,秋田県,三種町,みたねちょう,018-2401,秋田県山本郡三種町鵜川字岩谷子8,0185-85-2111,40.1015484,140.0051267,Google Maps,,304
053490,秋田県,八峰町,はっぽうちょう,018-2502,秋田県山本郡八峰町峰浜目名潟字目長田118,0185-76-2111,40.3202725,140.053516,Google Maps,,305
053619,秋田県,五城目町,ごじょうめまち,018-1792,秋田県南秋田郡五城目町西磯ノ目1-1-1,018-852-5100,39.9438295,140.1115055,Google Maps,,306
053635,秋田県,八郎潟町,はちろうがたまち,018-1692,秋田県南秋田郡八郎潟町字大道80,018-875-5800,39.9493285,140.0733222,Google Maps,,307
053660,秋田県,井川町,いかわまち,018-1596,秋田県南秋田郡井川町北川尻字海老沢樋ノ口78-1,018-874-4411,39.9141746,140.0813273,Google Maps,,308
053686,秋田県,大潟村,おおがたむら,010-0494,秋田県南秋田郡大潟村字中央1-1,0185-45-2111,40.0174848,139.9599994,Google Maps,,309
054348,秋田県,美郷町,みさとちょう,019-1541,秋田県仙北郡美郷町土崎字上野乙170-10,0187-84-1111,39.4618761,140.5813203,Google Maps,,310
054631,秋田県,羽後町,うごまち,012-1131,秋田県雄勝郡羽後町西馬音内字中野177,0183-62-2111,39.1993188,140.4130509,Google Maps,,311
054640,秋田県,東成瀬村,ひがしなるせむら,019-0801,秋田県雄勝郡東成瀬村田子内字仙人下30-1,0182-47-3401,39.1795332,140.6492363,Google Maps,,312
062014,山形県,山形市,やまがたし,990-8540,山形県山形市旅篭町2-3-25,023-641-1212,38.2554173,140.3396189,Google Maps,,313
062022,山形県,米沢市,よねざわし,992-8501,山形県米沢市金池5-2-25,0238-22-5111,37.9218712,140.1161308,Google Maps,,314
062031,山形県,鶴岡市,つるおかし,997-8601,山形県鶴岡市馬場町9-25,0235-25-2111,38.7272052,139.8267366,Google Maps,,315
062049,山形県,酒田市,さかたし,998-8540,山形県酒田市本町2-2-45,0234-22-5111,38.914619,139.8365476,Google Maps,,316
062057,山形県,新庄市,しんじょうし,996-8501,山形県新庄市沖の町10-37,0233-22-2111,38.7650013,140.3016864,Google Maps,,317
062065,山形県,寒河江市,さがえし,991-8601,山形県寒河江市中央1-9-45,0237-86-2111,38.3809204,140.2760187,Google Maps,,318
062073,山形県,上山市,かみのやまし,999-3192,山形県上山市河崎1-1-10,023-672-1111,38.148736,140.2679585,Google Maps,,319
062081,山形県,村山市,むらやまし,995-8666,山形県村山市中央1-3-6,0237-55-2111,38.4837765,140.3812692,Google Maps,,320
062090,山形県,長井市,ながいし,993-8601,山形県長井市栄町1-1,0238-84-2111,38.106956,140.033808,Google Maps,,321
062103,山形県,天童市,てんどうし,994-8510,山形県天童市老野森1-1-1,023-654-1111,38.3620169,140.3784724,Google Maps,,322
062111,山形県,東根市,ひがしねし,999-3795,山形県東根市中央1-1-1,0237-42-1111,38.4313387,140.3911422,Google Maps,,323
062120,山形県,尾花沢市,おばなざわし,999-4292,山形県尾花沢市若葉町1-2-3,0237-22-1111,38.601073,140.4068381,Google Maps,,324
062138,山形県,南陽市,なんようし,999-2292,山形県南陽市三間通436-1,0238-40-3211,38.0551229,140.1480788,Google Maps,,325
063011,山形県,山辺町,やまのべまち,990-0392,山形県東村山郡山辺町緑ヶ丘5,023-667-1111,38.2896463,140.2592387,Google Maps,,326
063029,山形県,中山町,なかやままち,990-0492,山形県東村山郡中山町長崎120,023-662-2111,38.333179,140.2830278,Google Maps,,327
063215,山形県,河北町,かほくちょう,999-3511,山形県西村山郡河北町谷地戊81,0237-73-2111,38.4262949,140.3143895,Google Maps,,328
063223,山形県,西川町,にしかわまち,990-0792,山形県西村山郡西川町大字海味510,0237-74-2111,38.4265153,140.1474112,Google Maps,,329
063231,山形県,朝日町,あさひまち,990-1442,山形県西村山郡朝日町大字宮宿1115,0237-67-2111,38.2992196,140.1459544,Google Maps,,330
063240,山形県,大江町,おおえまち,990-1101,山形県西村山郡大江町大字左沢882-1,0237-62-2111,38.3807089,140.2069134,Google Maps,,331
063410,山形県,大石田町,おおいしだまち,999-4112,山形県北村山郡大石田町緑町1,0237-35-2111,38.5937438,140.37246,Google Maps,,332
063614,山形県,金山町,かねやままち,999-5402,山形県最上郡金山町大字金山324-1,0233-52-2111,38.8835716,140.3393178,Google Maps,,333
063622,山形県,最上町,もがみまち,999-6101,山形県最上郡最上町向町644,0233-43-2111,38.7584629,140.5193482,Google Maps,,334
063631,山形県,舟形町,ふながたまち,999-4601,山形県最上郡舟形町舟形263,0233-32-2111,38.6914206,140.3198899,Google Maps,,335
063649,山形県,真室川町,まむろがわまち,999-5312,山形県最上郡真室川町大字新町124番4,0233-62-2111,38.8569503,140.2515659,Google Maps,,336
063657,山形県,大蔵村,おおくらむら,996-0212,山形県最上郡大蔵村大字清水2528,0233-75-2111,38.7042526,140.2299859,Google Maps,,337
063665,山形県,鮭川村,さけがわむら,999-5292,山形県最上郡鮭川村大字佐渡2003-7,0233-55-2111,38.7962929,140.2223526,Google Maps,,338
063673,山形県,戸沢村,とざわむら,999-6401,山形県最上郡戸沢村大字古口270,0233-72-2111,38.7376085,140.143704,Google Maps,,339
063819,山形県,高畠町,たかはたまち,992-0392,山形県東置賜郡高畠町大字高畠436,0238-52-1111,38.0027403,140.1896228,Google Maps,,340
063827,山形県,川西町,かわにしまち,999-0193,山形県東置賜郡川西町上小松977番地1,0238-42-2111,38.0051531,140.0531594,Google Maps,,341
064017,山形県,小国町,おぐにまち,999-1363,山形県西置賜郡小国町大字小国小坂町2-70,0238-62-2111,38.0615938,139.7434064,Google Maps,,342
064025,山形県,白鷹町,しらたかまち,992-0892,山形県西置賜郡白鷹町大字荒砥甲833,0238-85-2111,38.1835774,140.0983154,Google Maps,,343
064033,山形県,飯豊町,いいでまち,999-0696,山形県西置賜郡飯豊町大字椿2888,0238-72-2111,38.0457064,139.9875853,Google Maps,,344
064262,山形県,三川町,みかわまち,997-1301,山形県東田川郡三川町大字横山字西田85,0235-66-3111,38.7944644,139.8496087,Google Maps,,345
064289,山形県,庄内町,しょうないまち,999-7781,山形県東田川郡庄内町余目字町132-1,0234-43-2211,38.8497459,139.9046337,Google Maps,,346
064611,山形県,遊佐町,ゆざまち,999-8301,山形県飽海郡遊佐町遊佐字舞鶴211,0234-72-3311,39.0145478,139.9073827,Google Maps,,347
072010,福島県,福島市,ふくしまし,960-8601,福島県福島市五老内町3-1,024-535-1111,37.7608297,140.4748443,Google Maps,,348
072028,福島県,会津若松市,あいづわかまつし,965-8601,福島県会津若松市東栄町3-46,0242-39-1111,37.4948112,139.9297559,Google Maps,,349
072036,福島県,郡山市,こおりやまし,963-8601,福島県郡山市朝日1-23-7,024-924-2491,37.40015,140.3583452,Google Maps,,350
072044,福島県,いわき市,いわきし,970-8686,福島県いわき市平字梅本21,0246-22-1111,37.0509478,140.8868202,Google Maps,,351
072052,福島県,白河市,しらかわし,961-8602,福島県白河市八幡小路7-1,0248-22-1111,37.126557,140.2109648,Google Maps,,352
072079,福島県,須賀川市,すかがわし,962-8601,福島県須賀川市八幡町135,0248-75-1111,37.2869321,140.3725508,Google Maps,,353
072087,福島県,喜多方市,きたかたし,966-8601,福島県喜多方市字御清水東7244-2,0241-24-5206,37.6510636,139.8747157,Google Maps,,354
072095,福島県,相馬市,そうまし,976-8601,福島県相馬市中村字北町63-3,0244-37-2120,37.797335,140.9189843,Google Maps,,355
072109,福島県,二本松市,にほんまつし,964-8601,福島県二本松市金色403-1,0243-23-1111,37.5852353,140.4306342,Google Maps,,356
072117,福島県,田村市,たむらし,963-4393,福島県田村市船引町船引字畑添76-2,0247-81-2111,37.4405737,140.5764171,Google Maps,,357
072125,福島県,南相馬市,みなみそうまし,975-8686,福島県南相馬市原町区本町2-27,0244-22-2111,37.6421961,140.9573779,Google Maps,,358
072133,福島県,伊達市,だてし,960-0692,福島県伊達市保原町字舟橋180,024-575-1111,37.8191119,140.5627617,Google Maps,,359
072141,福島県,本宮市,もとみやし,969-1192,福島県本宮市本宮字万世212,0243-33-1111,37.5131556,140.3938856,Google Maps,,360
073016,福島県,桑折町,こおりまち,969-1692,福島県伊達郡桑折町大字谷地字道下22番地7,024-582-2111,37.8546543,140.520599,Google Maps,,361
073032,福島県,国見町,くにみまち,969-1792,福島県伊達郡国見町大字藤田字一丁田二1-7,024-585-2111,37.8766623,140.5490827,Google Maps,,362
073083,福島県,川俣町,かわまたまち,960-1492,福島県伊達郡川俣町字五百田30,024-566-2111,37.6651196,140.5982897,Google Maps,,363
073229,福島県,大玉村,おおたまむら,969-1392,福島県安達郡大玉村玉井字星内70,0243-48-3131,37.5345079,140.3707057,Google Maps,,364
073423,福島県,鏡石町,かがみいしまち,969-0492,福島県岩瀬郡鏡石町不時沼345,0248-62-2111,37.2528403,140.3434021,Google Maps,,365
073440,福島県,天栄村,てんえいむら,962-0592,福島県岩瀬郡天栄村大字下松本字原畑78,0248-82-2111,37.2551809,140.2470543,Google Maps,,366
073628,福島県,下郷町,しもごうまち,969-5345,福島県南会津郡下郷町大字塩生字大石1000,0241-69-1122,37.2556188,139.8722941,Google Maps,,367
073644,福島県,檜枝岐村,ひのえまたむら,967-0525,福島県南会津郡檜枝岐村字下ノ原880,0241-75-2500,37.0241519,139.3889352,Google Maps,,368
073679,福島県,只見町,ただみまち,968-0498,福島県南会津郡只見町大字只見字雨堤1039,0241-82-5210,37.3490449,139.3159547,Google Maps,,369
073687,福島県,南会津町,みなみあいづまち,967-0004,福島県南会津郡南会津町田島字後原甲3531-1,0241-62-6100,37.2003772,139.7732557,Google Maps,,370
074021,福島県,北塩原村,きたしおばらむら,966-0485,福島県耶麻郡北塩原村大字北山字姥ヶ作3151,0241-23-3111,37.6557711,139.9377051,Google Maps,,371
074055,福島県,西会津町,にしあいづまち,969-4495,福島県耶麻郡西会津町野沢字下小屋上乙3308,0241-45-2211,37.587622,139.6492165,Google Maps,,372
074071,福島県,磐梯町,ばんだいまち,969-3392,福島県耶麻郡磐梯町大字磐梯字中ノ橋1855,0242-74-1221,37.5620842,139.9887733,Google Maps,,373
074080,福島県,猪苗代町,いなわしろまち,969-3123,福島県耶麻郡猪苗代町字城南100,0242-62-2111,37.5571994,140.1047758,Google Maps,,374
074217,福島県,会津坂下町,あいづばんげまち,969-6592,福島県河沼郡会津坂下町字市中三番甲3662,0242-84-1503,37.5615073,139.8216774,Google Maps,,375
074225,福島県,湯川村,ゆがわむら,969-3593,福島県河沼郡湯川村大字清水田字長瀞18,0241-27-8800,37.5653407,139.8867475,Google Maps,,376
074233,福島県,柳津町,やないづまち,969-7201,福島県河沼郡柳津町大字柳津字下平乙234,0241-42-2112,37.5261485,139.7195134,Google Maps,,377
074446,福島県,三島町,みしままち,969-7511,福島県大沼郡三島町大字宮下字宮下350,0241-48-5511,37.4702672,139.6443135,Google Maps,,378
074454,福島県,金山町,かねやままち,968-0011,福島県大沼郡金山町大字川口字谷地393,0241-54-5111,37.453806,139.5259751,Google Maps,,379
074462,福島県,昭和村,しょうわむら,968-0103,福島県大沼郡昭和村大字下中津川字中島652,0241-57-2111,37.3352527,139.6102464,Google Maps,,380
074471,福島県,会津美里町,あいづみさとまち,969-6292,福島県大沼郡会津美里町字新布才地1番地,0242-55-1122,37.4650185,139.8345424,Google Maps,,381
074616,福島県,西郷村,にしごうむら,961-8501,福島県西白河郡西郷村大字熊倉字折口原40,0248-25-1111,37.1417236,140.1560908,Google Maps,,382
074641,福島県,泉崎村,いずみざきむら,969-0101,福島県西白河郡泉崎村大字泉崎字八丸145,0248-53-2111,37.1539192,140.3033924,Google Maps,,383
074659,福島県,中島村,なかじまむら,961-0192,福島県西白河郡中島村大字滑津字中島西11-1,0248-52-2111,37.1488131,140.3501982,Google Maps,,384
074667,福島県,矢吹町,やぶきまち,969-0296,福島県西白河郡矢吹町一本木101,0248-42-2111,37.2012738,140.3386151,Google Maps,,385
074811,福島県,棚倉町,たなぐらまち,963-6192,福島県東白川郡棚倉町大字棚倉字中居野33,0247-33-2111,37.0299727,140.3797224,Google Maps,,386
074829,福島県,矢祭町,やまつりまち,963-5192,福島県東白川郡矢祭町大字東舘字舘本66,0247-46-3131,36.8714042,140.4248003,Google Maps,,387
074837,福島県,塙町,はなわまち,963-5492,福島県東白川郡塙町大字塙字大町3-21,0247-43-2111,36.957323,140.409529,Google Maps,,388
074845,福島県,鮫川村,さめがわむら,963-8401,福島県東白川郡鮫川村大字赤坂中野字新宿39-5,0247-49-3111,37.0424164,140.5097013,Google Maps,,389
075019,福島県,石川町,いしかわまち,963-7893,福島県石川郡石川町字長久保185-4,0247-26-2111,37.1569233,140.4466806,Google Maps,,390
075027,福島県,玉川村,たまかわむら,963-6392,福島県石川郡玉川村大字小高字中畷9,0247-57-3101,37.2107446,140.4090043,Google Maps,,391
075035,福島県,平田村,ひらたむら,963-8292,福島県石川郡平田村大字永田字切田116,0247-55-3111,37.2219539,140.5756362,Google Maps,,392
075043,福島県,浅川町,あさかわまち,963-6292,福島県石川郡浅川町大字浅川字背戸谷地112-15,0247-36-4121,37.0810019,140.4127957,Google Maps,,393
075051,福島県,古殿町,ふるどのまち,963-8304,福島県石川郡古殿町大字松川字新桑原31,0247-53-3111,37.089328,140.555788,Google Maps,,394
075213,福島県,三春町,みはるまち,963-7796,福島県田村郡三春町字大町1-2,0247-62-2111,37.4409864,140.4926744,Google Maps,,395
075221,福島県,小野町,おのまち,963-3492,福島県田村郡小野町大字小野新町字舘廻92,0247-72-2111,37.2863149,140.6260795,Google Maps,,396
075418,福島県,広野町,ひろのまち,979-0402,福島県双葉郡広野町大字下北迫字苗代替35,0240-27-2111,37.2149105,140.9946114,Google Maps,,397
075426,福島県,楢葉町,ならはまち,979-0696,福島県双葉郡楢葉町大字北田字鐘突堂5-6,0240-25-2111,37.2823711,140.9928574,Google Maps,,398
075434,福島県,富岡町,とみおかまち,979-1192,福島県双葉郡富岡町大字本岡字王塚622-1,0240-22-2111,37.3471151,141.0093539,Google Maps,,399
075442,福島県,川内村,かわうちむら,979-1292,福島県双葉郡川内村大字上川内字早渡11-24,0240-38-2111,37.3374107,140.8093278,Google Maps,,400
075451,福島県,大熊町,おおくままち,979-1306,福島県双葉郡大熊町大字大川原字南平1717,0240-23-7568,37.381837,140.9583946,Google Maps,,401
075469,福島県,双葉町,ふたばまち,979-1495,福島県双葉郡双葉町大字長塚字町西73-4,0240-33-2111,37.4528327,141.006069,Google Maps,,402
075477,福島県,浪江町,なみえまち,979-1592,福島県双葉郡浪江町大字幾世橋字六反田7-2,0240-34-2111,37.4945223,141.0007335,Google Maps,,403
075485,福島県,葛尾村,かつらおむら,979-1602,福島県双葉郡葛尾村大字落合字落合16,0240-29-2111,37.5039303,140.7641947,Google Maps,,404
075612,福島県,新地町,しんちまち,979-2792,福島県相馬郡新地町谷地小屋字樋掛田30,0244-62-2111,37.8763247,140.9195404,Google Maps,,405
075647,福島県,飯舘村,いいたてむら,960-1892,福島県相馬郡飯舘村伊丹沢字伊丹沢580-1,0244-42-1611,37.6790212,140.7352599,Google Maps,,406
082015,茨城県,水戸市,みとし,310-8610,茨城県水戸市中央1-4-1,029-224-1111,36.365891,140.471608,Google Maps,,407
082023,茨城県,日立市,ひたちし,317-8601,茨城県日立市助川町1-1-1,0294-22-3111,36.5991158,140.6504521,Google Maps,,408
082031,茨城県,土浦市,つちうらし,300-8686,茨城県土浦市大和町9-1,029-826-1111,36.0782998,140.2043265,Google Maps,,409
082040,茨城県,古河市,こがし,306-0291,茨城県古河市下大野2248,0280-92-3111,36.17854,139.7553112,Google Maps,,410
082058,茨城県,石岡市,いしおかし,315-8640,茨城県石岡市石岡1-1-1,0299-23-1111,36.1905973,140.2867624,Google Maps,,411
082074,茨城県,結城市,ゆうきし,307-8501,茨城県結城市中央町2丁目3番地,0296-32-1111,36.2896209,139.8714774,Google Maps,,412
082082,茨城県,龍ケ崎市,りゅうがさきし,301-8611,茨城県龍ケ崎市3710,0297-64-1111,35.9116106,140.1823263,Google Maps,,413
082104,茨城県,下妻市,しもつまし,304-8501,茨城県下妻市本城町3-13,0296-43-2111,36.1841762,139.9682991,Google Maps,,414
082112,茨城県,常総市,じょうそうし,303-8501,茨城県常総市水海道諏訪町3222-3,0297-23-2111,36.0235066,139.9936784,Google Maps,,415
082121,茨城県,常陸太田市,ひたちおおたし,313-8611,茨城県常陸太田市金井町3690,0294-72-3111,36.5382226,140.5309212,Google Maps,,416
082147,茨城県,高萩市,たかはぎし,318-8511,茨城県高萩市本町1-100-1,0293-23-1111,36.7136789,140.7094506,Google Maps,,417
082155,茨城県,北茨城市,きたいばらきし,319-1592,茨城県北茨城市磯原町磯原1630,0293-43-1111,36.802007,140.7504155,Google Maps,,418
082163,茨城県,笠間市,かさまし,309-1792,茨城県笠間市中央3-2-1,0296-77-1101,36.3461653,140.3052725,Google Maps,,419
082171,茨城県,取手市,とりでし,302-8585,茨城県取手市寺田5139,0297-74-2141,35.9111492,140.0494571,Google Maps,,420
082198,茨城県,牛久市,うしくし,300-1292,茨城県牛久市中央3-15-1,029-873-2111,35.9799932,140.1499852,Google Maps,,421
082201,茨城県,つくば市,つくばし,305-8555,茨城県つくば市研究学園1-1-1,029-883-1111,36.0835449,140.0751717,Google Maps,,422
082210,茨城県,ひたちなか市,ひたちなかし,312-8501,茨城県ひたちなか市東石川2-10-1,029-273-0111,36.3965854,140.5346664,Google Maps,,423
082228,茨城県,鹿嶋市,かしまし,314-8655,茨城県鹿嶋市大字平井1187-1,0299-82-2911,35.9666554,140.6452448,Google Maps,,424
082236,茨城県,潮来市,いたこし,311-2493,茨城県潮来市辻626,0299-63-1111,35.9471025,140.5553821,Google Maps,,425
082244,茨城県,守谷市,もりやし,302-0198,茨城県守谷市大柏950-1,0297-45-1111,35.9509703,139.9759109,Google Maps,,426
082252,茨城県,常陸大宮市,ひたちおおみやし,319-2292,茨城県常陸大宮市中富町3135-6,0295-52-1111,36.5435378,140.4113347,Google Maps,,427
082261,茨城県,那珂市,なかし,311-0192,茨城県那珂市福田1819-5,029-298-1111,36.4574691,140.4868293,Google Maps,,428
082279,茨城県,筑西市,ちくせいし,308-8616,茨城県筑西市丙360,0296-24-2111,36.3052655,139.9794297,Google Maps,,429
082287,茨城県,坂東市,ばんどうし,306-0692,茨城県坂東市岩井4365,0297-35-2121,36.0482415,139.8888211,Google Maps,,430
082295,茨城県,稲敷市,いなしきし,300-0595,茨城県稲敷市犬塚1570-1,029-892-2000,35.9717638,140.3042394,Google Maps,,431
082309,茨城県,かすみがうら市,かすみがうらし,315-8512,茨城県かすみがうら市上土田461,0299-59-2111,36.1518514,140.2370794,Google Maps,,432
082317,茨城県,桜川市,さくらがわし,309-1293,茨城県桜川市羽田1023,0296-58-5111,36.3271483,140.0892679,Google Maps,,433
082325,茨城県,神栖市,かみすし,314-0192,茨城県神栖市溝口4991-5,0299-90-1111,35.891267,140.6621491,Google Maps,,434
082333,茨城県,行方市,なめがたし,311-3892,茨城県行方市麻生1561-9,0299-72-0811,35.9905303,140.488997,Google Maps,,435
082341,茨城県,鉾田市,ほこたし,311-1592,茨城県鉾田市鉾田1444-1,0291-33-2111,36.1594598,140.5159853,Google Maps,,436
082350,茨城県,つくばみらい市,つくばみらいし,300-2395,茨城県つくばみらい市福田195,0297-58-2111,35.962556,140.0375412,Google Maps,,437
082368,茨城県,小美玉市,おみたまし,319-0192,茨城県小美玉市堅倉835,0299-48-1111,36.239319,140.3525865,Google Maps,,438
083020,茨城県,茨城町,いばらきまち,311-3192,茨城県東茨城郡茨城町大字小堤1080,029-292-1111,36.2869093,140.4245271,Google Maps,,439
083097,茨城県,大洗町,おおあらいまち,311-1392,茨城県東茨城郡大洗町磯浜町6881-275,029-267-5111,36.3133661,140.5747579,Google Maps,,440
083101,茨城県,城里町,しろさとまち,311-4391,茨城県東茨城郡城里町大字石塚1428-25,029-288-3111,36.4789612,140.3759657,Google Maps,,441
083411,茨城県,東海村,とうかいむら,319-1192,茨城県那珂郡東海村東海3-7-1,029-282-1711,36.4728174,140.56629,Google Maps,,442
083640,茨城県,大子町,だいごまち,319-3521,茨城県久慈郡大子町大字北田気662,0295-72-1111,36.7641788,140.3635174,Google Maps,,443
084425,茨城県,美浦村,みほむら,300-0492,茨城県稲敷郡美浦村大字受領1515,029-885-0340,36.0045451,140.3019109,Google Maps,,444
084433,茨城県,阿見町,あみまち,300-0392,茨城県稲敷郡阿見町中央1-1-1,029-888-1111,36.0307977,140.214782,Google Maps,,445
084476,茨城県,河内町,かわちまち,300-1392,茨城県稲敷郡河内町源清田1183,0297-84-2111,35.8848235,140.2445257,Google Maps,,446
085219,茨城県,八千代町,やちよまち,300-3592,茨城県結城郡八千代町大字菅谷1170,0296-48-1111,36.1816178,139.8911996,Google Maps,,447
085421,茨城県,五霞町,ごかまち,306-0392,茨城県猿島郡五霞町大字小福田1162-1,0280-84-1111,36.1141014,139.7459362,Google Maps,,448
085464,茨城県,境町,さかいまち,306-0495,茨城県猿島郡境町391-1,0280-81-1300,36.1084158,139.7950318,Google Maps,,449
085642,茨城県,利根町,とねまち,300-1696,茨城県北相馬郡利根町布川841-1,0297-68-2211,35.8577404,140.1391542,Google Maps,,450
092011,栃木県,宇都宮市,うつのみやし,320-8540,栃木県宇都宮市旭1-1-5,028-632-2222,36.5551589,139.8823279,Google Maps,,451
092029,栃木県,足利市,あしかがし,326-8601,栃木県足利市本城3-2145,0284-20-2222,36.3404348,139.450369,Google Maps,,452
092037,栃木県,栃木市,とちぎし,328-8686,栃木県栃木市万町9-25,0282-22-3535,36.3826225,139.7341147,Google Maps,,453
092045,栃木県,佐野市,さのし,327-8501,栃木県佐野市高砂町1,0283-24-5111,36.3143561,139.5783553,Google Maps,,454
092053,栃木県,鹿沼市,かぬまし,322-8601,栃木県鹿沼市今宮町1688-1,0289-64-2111,36.5670745,139.7446526,Google Maps,,455
092061,栃木県,日光市,にっこうし,321-1292,栃木県日光市今市本町1,0288-22-1111,36.7199417,139.6979192,Google Maps,,456
092088,栃木県,小山市,おやまし,323-8686,栃木県小山市中央町1-1-1,0285-23-1111,36.3140384,139.8004265,Google Maps,,457
092096,栃木県,真岡市,もおかし,321-4395,栃木県真岡市荒町5191,0285-82-1111,36.4403881,140.0135212,Google Maps,,458
092100,栃木県,大田原市,おおたわらし,324-8641,栃木県大田原市本町1-4-1,0287-23-1111,36.8707564,140.0154845,Google Maps,,459
092118,栃木県,矢板市,やいたし,329-2192,栃木県矢板市本町5-4,0287-43-1111,36.8056007,139.9224503,Google Maps,,460
092134,栃木県,那須塩原市,なすしおばらし,325-8501,栃木県那須塩原市共墾社108-2,0287-62-7111,36.9622234,140.0467511,Google Maps,,461
092142,栃木県,さくら市,さくらし,329-1392,栃木県さくら市氏家2771,028-681-1111,36.6853131,139.9664548,Google Maps,,462
092151,栃木県,那須烏山市,なすからすやまし,321-0692,栃木県那須烏山市中央1-1-1,0287-83-1111,36.6569259,140.1514319,Google Maps,,463
092169,栃木県,下野市,しもつけし,329-0492,栃木県下野市笹原26,0285-32-8888,36.411067,139.878597,Google Maps,,464
093017,栃木県,上三川町,かみのかわまち,329-0696,栃木県河内郡上三川町しらさぎ1-1,0285-56-9111,36.4402776,139.9117048,Google Maps,,465
093424,栃木県,益子町,ましこまち,321-4293,栃木県芳賀郡益子町大字益子2030,0285-72-2111,36.4673748,140.0933704,Google Maps,,466
093432,栃木県,茂木町,もてぎまち,321-3598,栃木県芳賀郡茂木町大字茂木155,0285-63-1111,36.5324809,140.1872811,Google Maps,,467
093441,栃木県,市貝町,いちかいまち,321-3493,栃木県芳賀郡市貝町大字市塙1280,0285-68-1111,36.5431411,140.1021492,Google Maps,,468
093459,栃木県,芳賀町,はがまち,321-3392,栃木県芳賀郡芳賀町祖母井1020,028-677-1111,36.5481761,140.0581949,Google Maps,,469
093611,栃木県,壬生町,みぶまち,321-0292,栃木県下都賀郡壬生町大字壬生甲3841-1,0282-81-1806,36.4420978,139.8146664,Google Maps,,470
093645,栃木県,野木町,のぎまち,329-0195,栃木県下都賀郡野木町大字丸林571,0280-57-4111,36.233269,139.7408056,Google Maps,,471
093840,栃木県,塩谷町,しおやまち,329-2292,栃木県塩谷郡塩谷町大字玉生955-3,0287-45-1111,36.7788334,139.857017,Google Maps,,472
093866,栃木県,高根沢町,たかねざわまち,329-1292,栃木県塩谷郡高根沢町大字石末2053,028-675-8100,36.6310293,139.9864508,Google Maps,,473
094072,栃木県,那須町,なすまち,329-3292,栃木県那須郡那須町大字寺子丙3-13,0287-72-6901,37.0204112,140.1212123,Google Maps,,474
094111,栃木県,那珂川町,なかがわまち,324-0692,栃木県那須郡那珂川町馬頭555,0287-92-1111,36.7362795,140.1723953,Google Maps,,475
102016,群馬県,前橋市,まえばしし,371-8601,群馬県前橋市大手町2-12-1,027-224-1111,36.3894493,139.0634672,Google Maps,,476
102024,群馬県,高崎市,たかさきし,370-8501,群馬県高崎市高松町35-1,027-321-1111,36.3226864,139.0029002,Google Maps,,477
102032,群馬県,桐生市,きりゅうし,376-8501,群馬県桐生市織姫町1-1,0277-46-1111,36.4054233,139.3305031,Google Maps,,478
102041,群馬県,伊勢崎市,いせさきし,372-8501,群馬県伊勢崎市今泉町2-410,0270-24-5111,36.311651,139.1973447,Google Maps,,479
102059,群馬県,太田市,おおたし,373-8718,群馬県太田市浜町2-35,0276-47-1111,36.291145,139.3753556,Google Maps,,480
102067,群馬県,沼田市,ぬまたし,378-8501,群馬県沼田市下之町888,0278-23-2111,36.6439794,139.0427318,Google Maps,,481
102075,群馬県,館林市,たてばやしし,374-8501,群馬県館林市城町1-1,0276-72-4111,36.2443576,139.5417891,Google Maps,,482
102083,群馬県,渋川市,しぶかわし,377-8501,群馬県渋川市石原80,0279-22-2111,36.4897826,139.0005658,Google Maps,,483
102091,群馬県,藤岡市,ふじおかし,375-8601,群馬県藤岡市中栗須327,0274-22-1211,36.2585732,139.0745275,Google Maps,,484
102105,群馬県,富岡市,とみおかし,370-2392,群馬県富岡市富岡1460-1,0274-62-1511,36.2595572,138.8897709,Google Maps,,485
102113,群馬県,安中市,あんなかし,379-0192,群馬県安中市安中1-23-13,027-382-1111,36.3263103,138.8872229,Google Maps,,486
102121,群馬県,みどり市,みどりし,379-2395,群馬県みどり市笠懸町鹿2952,0277-76-2111,36.3948413,139.2811273,Google Maps,,487
103446,群馬県,榛東村,しんとうむら,370-3593,群馬県北群馬郡榛東村大字新井790番地1,0279-54-2211,36.4386123,138.9671352,Google Maps,,488
103454,群馬県,吉岡町,よしおかまち,370-3692,群馬県北群馬郡吉岡町大字下野田560,0279-54-3111,36.4471446,139.0094684,Google Maps,,489
103667,群馬県,上野村,うえのむら,370-1614,群馬県多野郡上野村大字川和11,0274-59-2111,36.083176,138.777331,Google Maps,,490
103675,群馬県,神流町,かんなまち,370-1592,群馬県多野郡神流町万場90-6,0274-57-2111,36.1160573,138.9168846,Google Maps,,491
103829,群馬県,下仁田町,しもにたまち,370-2601,群馬県甘楽郡下仁田町大字下仁田682,0274-82-2111,36.2122019,138.7891259,Google Maps,,492
103837,群馬県,南牧村,なんもくむら,370-2806,群馬県甘楽郡南牧村大字大日向1098,0274-87-2011,36.158656,138.7114009,Google Maps,,493
103845,群馬県,甘楽町,かんらまち,370-2292,群馬県甘楽郡甘楽町大字小幡161-1,0274-74-3131,36.2430048,138.9217332,Google Maps,,494
104213,群馬県,中之条町,なかのじょうまち,377-0494,群馬県吾妻郡中之条町大字中之条町1091,0279-75-2111,36.5898229,138.8410372,Google Maps,,495
104248,群馬県,長野原町,ながのはらまち,377-1392,群馬県吾妻郡長野原町大字長野原1340番地1,0279-82-2244,36.543788,138.6502078,Google Maps,,496
104256,群馬県,嬬恋村,つまごいむら,377-1692,群馬県吾妻郡嬬恋村大字大前110,0279-96-0511,36.5168851,138.5302133,Google Maps,,497
104264,群馬県,草津町,くさつまち,377-1792,群馬県吾妻郡草津町大字草津28,0279-88-0001,36.6206573,138.596104,Google Maps,,498
104281,群馬県,高山村,たかやまむら,377-0792,群馬県吾妻郡高山村大字中山2856-1,0279-63-2111,36.6208556,138.943468,Google Maps,,499
104299,群馬県,東吾妻町,ひがしあがつままち,377-0892,群馬県吾妻郡東吾妻町大字原町1046,0279-68-2111,36.5713853,138.8198184,Google Maps,,500
104434,群馬県,片品村,かたしなむら,378-0498,群馬県利根郡片品村大字鎌田3967-3,0278-58-2111,36.772303,139.2253172,Google Maps,,501
104442,群馬県,川場村,かわばむら,378-0101,群馬県利根郡川場村大字谷地3200,0278-52-2111,36.7406654,139.1069771,Google Maps,,502
104485,群馬県,昭和村,しょうわむら,379-1298,群馬県利根郡昭和村大字糸井388,0278-24-5111,36.639719,139.065967,Google Maps,,503
104493,群馬県,みなかみ町,みなかみまち,379-1393,群馬県利根郡みなかみ町後閑318,0278-62-2111,36.6786719,138.9990585,Google Maps,,504
104647,群馬県,玉村町,たまむらまち,370-1192,群馬県佐波郡玉村町大字下新田201,0270-65-2511,36.3044055,139.1145809,Google Maps,,505
105210,群馬県,板倉町,いたくらまち,374-0192,群馬県邑楽郡板倉町大字板倉2682-1,0276-82-1111,36.22591,139.6018939,Google Maps,,506
105228,群馬県,明和町,めいわまち,370-0795,群馬県邑楽郡明和町新里250-1,0276-84-3111,36.2112794,139.5342841,Google Maps,,507
105236,群馬県,千代田町,ちよだまち,370-0598,群馬県邑楽郡千代田町大字赤岩1895-1,0276-86-2111,36.2177614,139.4424123,Google Maps,,508
105244,群馬県,大泉町,おおいずみまち,370-0595,群馬県邑楽郡大泉町日の出55-1,0276-63-3111,36.247915,139.404839,Google Maps,,509
105252,群馬県,邑楽町,おうらまち,370-0692,群馬県邑楽郡邑楽町大字中野2570番地1,0276-88-5511,36.2526993,139.4634036,Google Maps,,510
111007,埼玉県,さいたま市,さいたまし,330-9588,埼玉県さいたま市浦和区常盤6-4-4,048-829-1111,35.8618275,139.645528,Google Maps,,511
112011,埼玉県,川越市,かわごえし,350-8601,埼玉県川越市元町1-3-1,049-224-8811,35.9251101,139.4862025,Google Maps,,512
112020,埼玉県,熊谷市,くまがやし,360-8601,埼玉県熊谷市宮町2-47-1,048-524-1111,36.1469623,139.3886223,Google Maps,,513
112038,埼玉県,川口市,かわぐちし,332-8601,埼玉県川口市青木2-1-1,048-258-1110,35.8075923,139.7241555,Google Maps,,514
112062,埼玉県,行田市,ぎょうだし,361-8601,埼玉県行田市本丸2-5,048-556-1111,36.1388338,139.4557465,Google Maps,,515
112071,埼玉県,秩父市,ちちぶし,368-8686,埼玉県秩父市熊木町8-15,0494-22-2211,35.9917644,139.0854619,Google Maps,,516
112089,埼玉県,所沢市,ところざわし,359-8501,埼玉県所沢市並木1-1-1,04-2998-1111,35.799425,139.4688015,Google Maps,,517
112097,埼玉県,飯能市,はんのうし,357-8501,埼玉県飯能市大字双柳1-1,042-973-2111,35.8570662,139.3274386,Google Maps,,518
112101,埼玉県,加須市,かぞし,347-8501,埼玉県加須市三俣2-1-1,0480-62-1111,36.1314045,139.6017459,Google Maps,,519
112119,埼玉県,本庄市,ほんじょうし,367-8501,埼玉県本庄市本庄3-5-3,0495-25-1111,36.2426266,139.1989719,Google Maps,,520
112127,埼玉県,東松山市,ひがしまつやまし,355-8601,埼玉県東松山市松葉町1-1-58,0493-23-2221,36.0421634,139.3999757,Google Maps,,521
112143,埼玉県,春日部市,かすかべし,344-8577,埼玉県春日部市中央7-2-1,048-736-1111,35.9739836,139.7548294,Google Maps,,522
112151,埼玉県,狭山市,さやまし,350-1380,埼玉県狭山市入間川1-23-5,04-2953-1111,35.8529635,139.4119448,Google Maps,,523
112160,埼玉県,羽生市,はにゅうし,348-8601,埼玉県羽生市東6-15,048-561-1121,36.1726187,139.5485178,Google Maps,,524
112178,埼玉県,鴻巣市,こうのすし,365-8601,埼玉県鴻巣市中央1-1,048-541-1321,36.065896,139.5222116,Google Maps,,525
112186,埼玉県,深谷市,ふかやし,366-8501,埼玉県深谷市仲町11-1,048-571-1211,36.1977166,139.2813508,Google Maps,,526
112194,埼玉県,上尾市,あげおし,362-8501,埼玉県上尾市本町3-1-1,048-775-5111,35.9774841,139.5931866,Google Maps,,527
112216,埼玉県,草加市,そうかし,340-8550,埼玉県草加市高砂1-1-1,048-922-0151,35.8253629,139.8049795,Google Maps,,528
112224,埼玉県,越谷市,こしがやし,343-8501,埼玉県越谷市越ヶ谷4-2-1,048-964-2111,35.8910055,139.7904232,Google Maps,,529
112232,埼玉県,蕨市,わらびし,335-8501,埼玉県蕨市中央5-14-15,048-432-3200,35.8256001,139.6795605,Google Maps,,530
112241,埼玉県,戸田市,とだし,335-8588,埼玉県戸田市上戸田1-18-1,048-441-1800,35.817604,139.6779773,Google Maps,,531
112259,埼玉県,入間市,いるまし,358-8511,埼玉県入間市豊岡1-16-1,04-2964-1111,35.835819,139.3911012,Google Maps,,532
112275,埼玉県,朝霞市,あさかし,351-8501,埼玉県朝霞市本町1-1-1,048-463-1111,35.7972308,139.5938917,Google Maps,,533
112283,埼玉県,志木市,しきし,353-8501,埼玉県志木市中宗岡1-1-1,048-473-1111,35.8366613,139.580454,Google Maps,,534
112291,埼玉県,和光市,わこうし,351-0192,埼玉県和光市広沢1-5,048-464-1111,35.7821274,139.607235,Google Maps,,535
112305,埼玉県,新座市,にいざし,352-8623,埼玉県新座市野火止1-1-1,048-477-1111,35.7930226,139.5656372,Google Maps,,536
112313,埼玉県,桶川市,おけがわし,363-8501,埼玉県桶川市泉1-3-28,048-786-3211,36.0027755,139.5584394,Google Maps,,537
112321,埼玉県,久喜市,くきし,346-8501,埼玉県久喜市大字下早見85-3,0480-22-1111,36.0622763,139.6665542,Google Maps,,538
112330,埼玉県,北本市,きたもとし,364-8633,埼玉県北本市本町1-111,048-591-1111,36.0270235,139.5297905,Google Maps,,539
112348,埼玉県,八潮市,やしおし,340-8588,埼玉県八潮市中央1-2-1,048-996-2111,35.8225316,139.8391596,Google Maps,,540
112356,埼玉県,富士見市,ふじみし,354-8511,埼玉県富士見市大字鶴馬1800-1,049-251-2711,35.8566776,139.549091,Google Maps,,541
112372,埼玉県,三郷市,みさとし,341-8501,埼玉県三郷市花和田648-1,048-953-1111,35.830159,139.8717089,Google Maps,,542
112381,埼玉県,蓮田市,はすだし,349-0193,埼玉県蓮田市大字黒浜2799-1,048-768-3111,35.9945368,139.6621889,Google Maps,,543
112399,埼玉県,坂戸市,さかどし,350-0292,埼玉県坂戸市千代田1-1-1,049-283-1331,35.9572776,139.4030231,Google Maps,,544
112402,埼玉県,幸手市,さってし,340-0192,埼玉県幸手市東4-6-8,0480-43-1111,36.0780755,139.7257969,Google Maps,,545
112411,埼玉県,鶴ヶ島市,つるがしまし,350-2292,埼玉県鶴ヶ島市大字三ツ木16-1,049-271-1111,35.9343692,139.3931646,Google Maps,,546
112429,埼玉県,日高市,ひだかし,350-1292,埼玉県日高市大字南平沢1020,042-989-2111,35.9076935,139.3391073,Google Maps,,547
112437,埼玉県,吉川市,よしかわし,342-8501,埼玉県吉川市きよみ野1-1,048-982-5111,35.8960694,139.8556157,Google Maps,,548
112453,埼玉県,ふじみ野市,ふじみのし,356-8501,埼玉県ふじみ野市福岡1-1-1,049-261-2611,35.879887,139.5197189,Google Maps,,549
112461,埼玉県,白岡市,しらおかし,349-0292,埼玉県白岡市千駄野432,0480-92-1111,36.0190367,139.6765119,Google Maps,,550
113018,埼玉県,伊奈町,いなまち,362-8517,埼玉県北足立郡伊奈町中央四丁目355番地,048-721-2111,35.999669,139.623708,Google Maps,,551
113247,埼玉県,三芳町,みよしまち,354-8555,埼玉県入間郡三芳町大字藤久保1100-1,049-258-0019,35.8289837,139.5272811,Google Maps,,552
113263,埼玉県,毛呂山町,もろやままち,350-0493,埼玉県入間郡毛呂山町中央2-1,049-295-2112,35.9414878,139.315983,Google Maps,,553
113271,埼玉県,越生町,おごせまち,350-0494,埼玉県入間郡越生町大字越生900-2,049-292-3121,35.9646994,139.2940631,Google Maps,,554
113417,埼玉県,滑川町,なめがわまち,355-8585,埼玉県比企郡滑川町大字福田750-1,0493-56-2211,36.0660052,139.3609073,Google Maps,,555
113425,埼玉県,嵐山町,らんざんまち,355-0211,埼玉県比企郡嵐山町大字杉山1030-1,0493-62-2150,36.0566479,139.3205532,Google Maps,,556
113433,埼玉県,小川町,おがわまち,355-0392,埼玉県比企郡小川町大字大塚55,0493-72-1221,36.0572698,139.2618799,Google Maps,,557
113468,埼玉県,川島町,かわじままち,350-0192,埼玉県比企郡川島町大字下八ツ林870-1,049-297-1811,35.9924791,139.4842976,Google Maps,,558
113476,埼玉県,吉見町,よしみまち,355-0192,埼玉県比企郡吉見町大字下細谷411,0493-54-1511,36.0398636,139.4537104,Google Maps,,559
113484,埼玉県,鳩山町,はとやままち,350-0392,埼玉県比企郡鳩山町大字大豆戸184-16,049-296-1211,35.9814845,139.3339567,Google Maps,,560
113492,埼玉県,ときがわ町,ときがわまち,355-0395,埼玉県比企郡ときがわ町大字玉川2490,0493-65-1521,36.0085832,139.2967659,Google Maps,,561
113611,埼玉県,横瀬町,よこぜまち,368-0072,埼玉県秩父郡横瀬町大字横瀬4545,0494-25-0111,35.9873109,139.1000716,Google Maps,,562
113620,埼玉県,皆野町,みなのまち,369-1492,埼玉県秩父郡皆野町大字皆野1420-1,0494-62-1230,36.0708172,139.0988043,Google Maps,,563
113638,埼玉県,長瀞町,ながとろまち,369-1392,埼玉県秩父郡長瀞町大字本野上1035-1,0494-66-3111,36.114715,139.1096546,Google Maps,,564
113654,埼玉県,小鹿野町,おがのまち,368-0192,埼玉県秩父郡小鹿野町小鹿野89,0494-75-1221,36.0171893,139.008531,Google Maps,,565
113697,埼玉県,東秩父村,ひがしちちぶむら,355-0393,埼玉県秩父郡東秩父村大字御堂634,0493-82-1221,36.0582314,139.1946444,Google Maps,,566
113816,埼玉県,美里町,みさとまち,367-0194,埼玉県児玉郡美里町大字木部323-1,0495-76-1111,36.1771483,139.1813361,Google Maps,,567
113832,埼玉県,神川町,かみかわまち,367-0292,埼玉県児玉郡神川町大字植竹909,0495-77-2111,36.2141933,139.1014396,Google Maps,,568
113859,埼玉県,上里町,かみさとまち,369-0392,埼玉県児玉郡上里町大字七本木5518,0495-35-1221,36.2516326,139.1449743,Google Maps,,569
114081,埼玉県,寄居町,よりいまち,369-1292,埼玉県大里郡寄居町大字寄居1180-1,048-581-2121,36.1184038,139.1929618,Google Maps,,570
114421,埼玉県,宮代町,みやしろまち,345-8504,埼玉県南埼玉郡宮代町笠原1-4-1,0480-34-1111,36.0226077,139.7229177,Google Maps,,571
114642,埼玉県,杉戸町,すぎとまち,345-8502,埼玉県北葛飾郡杉戸町清地2-9-29,0480-33-1111,36.025466,139.7367371,Google Maps,,572
114651,埼玉県,松伏町,まつぶしまち,343-0192,埼玉県北葛飾郡松伏町大字松伏2424,048-991-2711,35.92611,139.8152008,Google Maps,,573
121002,千葉県,千葉市,ちばし,260-8722,千葉県千葉市中央区千葉港1-1,043-245-5111,35.6071266,140.1062141,Google Maps,,574
122025,千葉県,銚子市,ちょうしし,288-8601,千葉県銚子市若宮町1-1,0479-24-8181,35.7341872,140.8273705,Google Maps,,575
122033,千葉県,市川市,いちかわし,272-8501,千葉県市川市八幡1-1-1,047-334-1111,35.7218095,139.9307553,Google Maps,,576
122041,千葉県,船橋市,ふなばしし,273-8501,千葉県船橋市湊町2-10-25,047-436-2111,35.6947103,139.9825097,Google Maps,,577
122050,千葉県,館山市,たてやまし,294-8601,千葉県館山市北条1145-1,0470-22-3111,34.9965879,139.8700534,Google Maps,,578
122068,千葉県,木更津市,きさらづし,292-8501,千葉県木更津市富士見1-2-1,0438-23-7111,35.3812389,139.9249075,Google Maps,,579
122076,千葉県,松戸市,まつどし,271-8588,千葉県松戸市根本387-5,047-366-1111,35.7872853,139.9030472,Google Maps,,580
122084,千葉県,野田市,のだし,278-8550,千葉県野田市鶴奉7-1,04-7125-1111,35.9550627,139.8747948,Google Maps,,581
122106,千葉県,茂原市,もばらし,297-8511,千葉県茂原市道表1,0475-23-2111,35.4282867,140.2878932,Google Maps,,582
122114,千葉県,成田市,なりたし,286-8585,千葉県成田市花崎町760,0476-22-1111,35.7766787,140.3189175,Google Maps,,583
122122,千葉県,佐倉市,さくらし,285-8501,千葉県佐倉市海隣寺町97,043-484-1111,35.7234882,140.2239702,Google Maps,,584
122131,千葉県,東金市,とうがねし,283-8511,千葉県東金市東岩崎1番地1,0475-50-1111,35.5598711,140.3660079,Google Maps,,585
122157,千葉県,旭市,あさひし,289-2595,千葉県旭市ニの2132,0479-62-1212,35.7160491,140.6483295,Google Maps,,586
122165,千葉県,習志野市,ならしのし,275-8601,千葉県習志野市鷺沼2-1-1,047-451-1151,35.6816458,140.0272438,Google Maps,,587
122173,千葉県,柏市,かしわし,277-8505,千葉県柏市柏5-10-1,04-7167-1111,35.8351606,140.0025391,Google Maps,,588
122181,千葉県,勝浦市,かつうらし,299-5292,千葉県勝浦市新官1343-1,0470-73-1211,35.1522147,140.3209416,Google Maps,,589
122190,千葉県,市原市,いちはらし,290-8501,千葉県市原市国分寺台中央1-1-1,0436-22-1111,35.497971,140.1154896,Google Maps,,590
122203,千葉県,流山市,ながれやまし,270-0192,千葉県流山市平和台1-1-1,04-7158-1111,35.8562407,139.9024496,Google Maps,,591
122211,千葉県,八千代市,やちよし,276-8501,千葉県八千代市大和田新田312-5,047-483-1151,35.7221516,140.1004005,Google Maps,,592
122220,千葉県,我孫子市,あびこし,270-1192,千葉県我孫子市我孫子1858,04-7185-1111,35.8645934,140.0287917,Google Maps,,593
122238,千葉県,鴨川市,かもがわし,296-8601,千葉県鴨川市横渚1450,04-7092-1111,35.1121478,140.0982753,Google Maps,,594
122246,千葉県,鎌ケ谷市,かまがやし,273-0195,千葉県鎌ケ谷市新鎌ケ谷2-6-1,047-445-1141,35.7768584,140.0002405,Google Maps,,595
122254,千葉県,君津市,きみつし,299-1192,千葉県君津市久保2-13-1,0439-56-1581,35.3305474,139.9022383,Google Maps,,596
122262,千葉県,富津市,ふっつし,293-8506,千葉県富津市下飯野2443,0439-80-1222,35.3037644,139.8571168,Google Maps,,597
122271,千葉県,浦安市,うらやすし,279-8501,千葉県浦安市猫実1-1-1,047-351-1111,35.6531444,139.9019379,Google Maps,,598
122289,千葉県,四街道市,よつかいどうし,284-8555,千葉県四街道市鹿渡無番地,043-421-2111,35.666563,140.176818,Google Maps,,599
122297,千葉県,袖ケ浦市,そでがうらし,299-0292,千葉県袖ケ浦市坂戸市場1-1,0438-62-2111,35.4298409,139.954397,Google Maps,,600
122301,千葉県,八街市,やちまたし,289-1192,千葉県八街市八街ほ35-29,043-443-1111,35.6661903,140.31787,Google Maps,,601
122319,千葉県,印西市,いんざいし,270-1396,千葉県印西市大森2364-2,0476-42-5111,35.8323682,140.1458509,Google Maps,,602
122327,千葉県,白井市,しろいし,270-1492,千葉県白井市復1123,047-492-1111,35.7906791,140.0555913,Google Maps,,603
122335,千葉県,富里市,とみさとし,286-0292,千葉県富里市七栄652-1,0476-93-1111,35.7270924,140.3444968,Google Maps,,604
122343,千葉県,南房総市,みなみぼうそうし,299-2492,千葉県南房総市富浦町青木28,0470-33-1021,35.0431378,139.8399791,Google Maps,,605
122351,千葉県,匝瑳市,そうさし,289-2198,千葉県匝瑳市八日市場ハ793番地2,0479-73-0084,35.7078677,140.5642774,Google Maps,,606
122360,千葉県,香取市,かとりし,287-8501,千葉県香取市佐原ロ2127,0478-54-1111,35.8975678,140.4985674,Google Maps,,607
122378,千葉県,山武市,さんむし,289-1392,千葉県山武市殿台296,0475-80-1112,35.6029671,140.4135896,Google Maps,,608
122386,千葉県,いすみ市,いすみし,298-8501,千葉県いすみ市大原7400-1,0470-62-1111,35.2539697,140.3845667,Google Maps,,609
122394,千葉県,大網白里市,おおあみしらさとし,299-3292,千葉県大網白里市大網115-2,0475-70-0300,35.5217341,140.320973,Google Maps,,610
123226,千葉県,酒々井町,しすいまち,285-8510,千葉県印旛郡酒々井町中央台4-11,043-496-1171,35.724769,140.2691174,Google Maps,,611
123293,千葉県,栄町,さかえまち,270-1592,千葉県印旛郡栄町安食台1-2,0476-95-1111,35.8413309,140.2439294,Google Maps,,612
123421,千葉県,神崎町,こうざきまち,289-0292,千葉県香取郡神崎町神崎本宿163,0478-72-2111,35.9016356,140.4051612,Google Maps,,613
123471,千葉県,多古町,たこまち,289-2292,千葉県香取郡多古町多古584,0479-76-2611,35.7359207,140.4680433,Google Maps,,614
123498,千葉県,東庄町,とうのしょうまち,289-0692,千葉県香取郡東庄町笹川い4713-131,0478-86-1111,35.8371678,140.6685548,Google Maps,,615
124036,千葉県,九十九里町,くじゅうくりまち,283-0195,千葉県山武郡九十九里町片貝4099,0475-70-3100,35.5347585,140.4411931,Google Maps,,616
124095,千葉県,芝山町,しばやままち,289-1692,千葉県山武郡芝山町小池992,0479-77-3901,35.6931912,140.4144265,Google Maps,,617
124109,千葉県,横芝光町,よこしばひかりまち,289-1793,千葉県山武郡横芝光町宮川11902,0479-84-1211,35.6656436,140.5044844,Google Maps,,618
124214,千葉県,一宮町,いちのみやまち,299-4396,千葉県長生郡一宮町一宮2457,0475-42-2111,35.3729519,140.3684077,Google Maps,,619
124222,千葉県,睦沢町,むつざわまち,299-4492,千葉県長生郡睦沢町下之郷1650-1,0475-44-1111,35.3610613,140.3195624,Google Maps,,620
124231,千葉県,長生村,ちょうせいむら,299-4394,千葉県長生郡長生村本郷1-77,0475-32-2111,35.4119089,140.3534746,Google Maps,,621
124249,千葉県,白子町,しらこまち,299-4292,千葉県長生郡白子町関5074-2,0475-33-2111,35.4544401,140.3743976,Google Maps,,622
124265,千葉県,長柄町,ながらまち,297-0298,千葉県長生郡長柄町桜谷712,0475-35-2111,35.4311431,140.2270477,Google Maps,,623
124273,千葉県,長南町,ちょうなんまち,297-0192,千葉県長生郡長南町長南2110,0475-46-2111,35.3864095,140.2371693,Google Maps,,624
124419,千葉県,大多喜町,おおたきまち,298-0292,千葉県夷隅郡大多喜町大多喜93,0470-82-2111,35.2851179,140.2454515,Google Maps,,625
124435,千葉県,御宿町,おんじゅくまち,299-5192,千葉県夷隅郡御宿町須賀1522,0470-68-2511,35.1915622,140.3487256,Google Maps,,626
124630,千葉県,鋸南町,きょなんまち,299-2192,千葉県安房郡鋸南町下佐久間3458,0470-55-2111,35.1111452,139.8357167,Google Maps,,627
131016,東京都,千代田区,ちよだく,102-8688,東京都千代田区九段南1-2-1,03-3264-2111,35.6939726,139.7536284,Google Maps,,628
131024,東京都,中央区,ちゅうおうく,104-8404,東京都中央区築地1-1-1,03-3543-0211,35.6712335,139.7726894,Google Maps,,629
131032,東京都,港区,みなとく,105-8511,東京都港区芝公園1-5-25,03-3578-2111,35.6579896,139.7515522,Google Maps,,630
131041,東京都,新宿区,しんじゅくく,160-8484,東京都新宿区歌舞伎町1-4-1,03-3209-1111,35.6937837,139.7035027,Google Maps,,631
131059,東京都,文京区,ぶんきょうく,112-8555,東京都文京区春日1-16-21,03-3812-7111,35.7078916,139.75275,Google Maps,,632
131067,東京都,台東区,たいとうく,110-8615,東京都台東区東上野4-5-6,03-5246-1111,35.7125889,139.7799389,Google Maps,,633
131075,東京都,墨田区,すみだく,130-8640,東京都墨田区吾妻橋1-23-20,03-5608-1111,35.710203,139.8016147,Google Maps,,634
131083,東京都,江東区,こうとうく,135-8383,東京都江東区東陽4-11-28,03-3647-9111,35.6723119,139.8174658,Google Maps,,635
131091,東京都,品川区,しながわく,140-8715,東京都品川区広町2-1-36,03-3777-1111,35.6092231,139.7301566,Google Maps,,636
131105,東京都,目黒区,めぐろく,153-8573,東京都目黒区上目黒2-19-15,03-3715-1111,35.6413295,139.6982372,Google Maps,,637
131113,東京都,大田区,おおたく,144-8621,東京都大田区蒲田5-13-14,03-5744-1111,35.5613247,139.7159766,Google Maps,,638
131121,東京都,世田谷区,せたがやく,154-8504,東京都世田谷区世田谷4-21-27,03-5432-1111,35.6459934,139.6529117,Google Maps,,639
131130,東京都,渋谷区,しぶやく,150-8010,東京都渋谷区宇田川町1-1,03-3463-1211,35.6637155,139.6977455,Google Maps,,640
131148,東京都,中野区,なかのく,164-8501,東京都中野区中野4-11-19,03-3389-1111,35.7088094,139.6629131,Google Maps,,641
131156,東京都,杉並区,すぎなみく,166-8570,東京都杉並区阿佐谷南1-15-1,03-3312-2111,35.6997417,139.6361999,Google Maps,,642
131164,東京都,豊島区,としまく,171-8422,東京都豊島区南池袋2-45-1,03-3981-1111,35.7261041,139.716654,Google Maps,,643
131172,東京都,北区,きたく,114-8508,東京都北区王子本町1-15-22,03-3908-1111,35.7529694,139.7341477,Google Maps,,644
131181,東京都,荒川区,あらかわく,116-8501,東京都荒川区荒川2-2-3,03-3802-3111,35.7361602,139.7834597,Google Maps,,645
131199,東京都,板橋区,いたばしく,173-8501,東京都板橋区板橋2-66-1,03-3964-1111,35.7510286,139.7091676,Google Maps,,646
131202,東京都,練馬区,ねりまく,176-8501,東京都練馬区豊玉北6-12-1,03-3993-1111,35.7356702,139.6517044,Google Maps,,647
131211,東京都,足立区,あだちく,120-8510,東京都足立区中央本町1-17-1,03-3880-5111,35.7750049,139.8044358,Google Maps,,648
131229,東京都,葛飾区,かつしかく,124-8555,東京都葛飾区立石5-13-1,03-3695-1111,35.7429768,139.8474082,Google Maps,,649
131237,東京都,江戸川区,えどがわく,132-8501,東京都江戸川区中央1-4-1,03-3652-1151,35.7067967,139.8684502,Google Maps,,650
132012,東京都,八王子市,はちおうじし,192-8501,東京都八王子市元本郷町3-24-1,042-626-3111,35.6666466,139.3159957,Google Maps,,651
132021,東京都,立川市,たちかわし,190-8666,東京都立川市泉町1156-9,042-523-2111,35.7138321,139.4077861,Google Maps,,652
132039,東京都,武蔵野市,むさしのし,180-8777,東京都武蔵野市緑町2-2-28,0422-51-5131,35.7177674,139.5661616,Google Maps,,653
132047,東京都,三鷹市,みたかし,181-8555,東京都三鷹市野崎1-1-1,0422-45-1151,35.6833364,139.5591106,Google Maps,,654
132055,東京都,青梅市,おうめし,198-8701,東京都青梅市東青梅1-11-1,0428-22-1111,35.7878502,139.2757966,Google Maps,,655
132063,東京都,府中市,ふちゅうし,183-8703,東京都府中市宮西町2-24,042-364-4111,35.669494,139.4770622,Google Maps,,656
132071,東京都,昭島市,あきしまし,196-8511,東京都昭島市田中町1-17-1,042-544-5111,35.7057664,139.353638,Google Maps,,657
132080,東京都,調布市,ちょうふし,182-8511,東京都調布市小島町2-35-1,042-481-7111,35.6505957,139.540808,Google Maps,,658
132098,東京都,町田市,まちだし,194-8520,東京都町田市森野2-2-22,042-722-3111,35.5465377,139.4388163,Google Maps,,659
132101,東京都,小金井市,こがねいし,184-8504,東京都小金井市本町6-6-3,042-383-1111,35.6994789,139.5030574,Google Maps,,660
132110,東京都,小平市,こだいらし,187-8701,東京都小平市小川町2-1333,042-341-1211,35.7285845,139.4774702,Google Maps,,661
132128,東京都,日野市,ひのし,191-0016,東京都日野市神明1-12-1,042-585-1111,35.6704918,139.3955785,Google Maps,,662
132136,東京都,東村山市,ひがしむらやまし,189-8501,東京都東村山市本町1-2-3,042-393-5111,35.7546184,139.4685107,Google Maps,,663
132144,東京都,国分寺市,こくぶんじし,185-8501,東京都国分寺市戸倉1-6-1,042-325-0111,35.7103498,139.4632461,Google Maps,,664
132152,東京都,国立市,くにたちし,186-8501,東京都国立市富士見台2-47-1,042-576-2111,35.6838992,139.4413976,Google Maps,,665
132187,東京都,福生市,ふっさし,197-8501,東京都福生市本町5,042-551-1511,35.7385654,139.326855,Google Maps,,666
132195,東京都,狛江市,こまえし,201-8585,東京都狛江市和泉本町1-1-5,03-3430-1111,35.6349307,139.5784989,Google Maps,,667
132209,東京都,東大和市,ひがしやまとし,207-8585,東京都東大和市中央3-930,042-563-2111,35.7453669,139.4263875,Google Maps,,668
132217,東京都,清瀬市,きよせし,204-8511,東京都清瀬市中里5-842,042-492-5111,35.7860872,139.5261302,Google Maps,,669
132225,東京都,東久留米市,ひがしくるめし,203-8555,東京都東久留米市本町3-3-1,042-470-7777,35.757971,139.529748,Google Maps,,670
132233,東京都,武蔵村山市,むさしむらやまし,208-8501,東京都武蔵村山市本町1-1-1,042-565-1111,35.7548016,139.3874508,Google Maps,,671
132241,東京都,多摩市,たまし,206-8666,東京都多摩市関戸6-12-1,042-375-8111,35.6370131,139.4463622,Google Maps,,672
132250,東京都,稲城市,いなぎし,206-8601,東京都稲城市東長沼2111,042-378-2111,35.6381042,139.504664,Google Maps,,673
132276,東京都,羽村市,はむらし,205-8601,東京都羽村市緑ヶ丘5-2-1,042-555-1111,35.7669177,139.3112169,Google Maps,,674
132284,東京都,あきる野市,あきるのし,197-0814,東京都あきる野市二宮350,042-558-1111,35.7289247,139.294259,Google Maps,,675
132292,東京都,西東京市,にしとうきょうし,188-8666,東京都西東京市南町5-6-13,042-464-1311,35.7259183,139.5383587,Google Maps,,676
133035,東京都,瑞穂町,みずほまち,190-1292,東京都西多摩郡瑞穂町大字箱根ヶ崎2335,042-557-0501,35.7719172,139.3537942,Google Maps,,677
133051,東京都,日の出町,ひのでまち,190-0192,東京都西多摩郡日の出町平井2780,042-597-0511,35.7425175,139.2567142,Google Maps,,678
133078,東京都,檜原村,ひのはらむら,190-0212,東京都西多摩郡檜原村467-1,042-598-1011,35.7266107,139.1473955,Google Maps,,679
133086,東京都,奥多摩町,おくたままち,198-0212,東京都西多摩郡奥多摩町氷川215-6,0428-83-2111,35.8095871,139.0962438,Google Maps,,680
133612,東京都,大島町,おおしままち,100-0101,東京都大島町元町1-1-14,04992-2-1443,34.7502047,139.3552538,Google Maps,,681
133621,東京都,利島村,としまむら,100-0301,東京都利島村248,04992-9-0011,34.5291416,139.2819004,Google Maps,,682
133639,東京都,新島村,にいじまむら,100-0402,東京都新島村本村1-1-1,04992-5-0240,34.3771094,139.2571572,Google Maps,,683
133647,東京都,神津島村,こうづしまむら,100-0601,東京都神津島村904,04992-8-0011,34.2055236,139.1344994,Google Maps,,684
133817,東京都,三宅村,みやけむら,100-1212,東京都三宅島三宅村阿古497,04994-5-0981,34.0759684,139.4791688,Google Maps,,685
133825,東京都,御蔵島村,みくらじまむら,100-1301,東京都御蔵島村字入かねが沢,04994-8-2121,33.8973802,139.5958016,Google Maps,,686
134015,東京都,八丈町,はちじょうまち,100-1498,東京都八丈島八丈町大賀郷2551-2,04996-2-1121,33.1127348,139.7890684,Google Maps,,687
134023,東京都,青ヶ島村,あおがしまむら,100-1701,東京都青ヶ島村無番地,04996-9-0111,32.4665329,139.7636109,Google Maps,,688
134210,東京都,小笠原村,おがさわらむら,100-2101,東京都小笠原村父島字西町,04998-2-3111,27.0960596,142.1872488,Google Maps,,689
141003,神奈川県,横浜市,よこはまし,231-0005,神奈川県横浜市中区本町6－50-10,045-671-2121,35.4503614,139.6342277,Google Maps,,690
141305,神奈川県,川崎市,かわさきし,210-8577,神奈川県川崎市川崎区宮本町1,044-200-2111,35.5299962,139.7024428,Google Maps,,691
141500,神奈川県,相模原市,さがみはらし,252-5277,神奈川県相模原市中央区中央2－11－15,042-754-1111,35.5844677,139.3908202,Google Maps,,692
142018,神奈川県,横須賀市,よこすかし,238-8550,神奈川県横須賀市小川町11,046-822-4000,35.2811159,139.6724943,Google Maps,,693
142034,神奈川県,平塚市,ひらつかし,254-8686,神奈川県平塚市浅間町9－1,0463-23-1111,35.335418,139.3497693,Google Maps,,694
142042,神奈川県,鎌倉市,かまくらし,248-8686,神奈川県鎌倉市御成町18－10,0467-23-3000,35.3191043,139.5468552,Google Maps,,695
142051,神奈川県,藤沢市,ふじさわし,251-8601,神奈川県藤沢市朝日町1－1,0466-25-1111,35.3404739,139.4476786,Google Maps,,696
142069,神奈川県,小田原市,おだわらし,250-8555,神奈川県小田原市荻窪300,0465-33-1300,35.2645162,139.1523358,Google Maps,,697
142077,神奈川県,茅ヶ崎市,ちがさきし,253-8686,神奈川県茅ヶ崎市茅ヶ崎1－1－1,0467-82-1111,35.3341565,139.4042001,Google Maps,,698
142085,神奈川県,逗子市,ずしし,249-8686,神奈川県逗子市逗子5－2－16,046-873-1111,35.2955817,139.5804221,Google Maps,,699
142107,神奈川県,三浦市,みうらし,238-0298,神奈川県三浦市城山町1－1,046-882-1111,35.1441633,139.6207845,Google Maps,,700
142115,神奈川県,秦野市,はだのし,257-8501,神奈川県秦野市桜町1－3－2,0463-82-5111,35.3747504,139.2200129,Google Maps,,701
142123,神奈川県,厚木市,あつぎし,243-8511,神奈川県厚木市中町3－17－17,046-223-1511,35.4430513,139.362533,Google Maps,,702
142131,神奈川県,大和市,やまとし,242-8601,神奈川県大和市下鶴間1－1－1,046-263-1111,35.4875315,139.4580074,Google Maps,,703
142140,神奈川県,伊勢原市,いせはらし,259-1188,神奈川県伊勢原市田中348,0463-94-4711,35.4024073,139.3154222,Google Maps,,704
142158,神奈川県,海老名市,えびなし,243-0492,神奈川県海老名市勝瀬175－1,046-231-2111,35.4461558,139.3908833,Google Maps,,705
142166,神奈川県,座間市,ざまし,252-8566,神奈川県座間市緑ヶ丘1－1－1,046-255-1111,35.4886389,139.4076868,Google Maps,,706
142174,神奈川県,南足柄市,みなみあしがらし,250-0192,神奈川県南足柄市関本440,0465-74-2111,35.3209755,139.0998604,Google Maps,,707
142182,神奈川県,綾瀬市,あやせし,252-1192,神奈川県綾瀬市早川550,0467-77-1111,35.4371671,139.4267821,Google Maps,,708
143014,神奈川県,葉山町,はやままち,240-0192,神奈川県三浦郡葉山町堀内2135,046-876-1111,35.2720904,139.5861854,Google Maps,,709
143219,神奈川県,寒川町,さむかわまち,253-0196,神奈川県高座郡寒川町宮山165,0467-74-1111,35.3725977,139.3838044,Google Maps,,710
143413,神奈川県,大磯町,おおいそまち,255-8555,神奈川県中郡大磯町東小磯183,0463-61-4100,35.3076731,139.311384,Google Maps,,711
143421,神奈川県,二宮町,にのみやまち,259-0196,神奈川県中郡二宮町二宮961,0463-71-3311,35.2994982,139.255537,Google Maps,,712
143618,神奈川県,中井町,なかいまち,259-0197,神奈川県足柄上郡中井町比奈窪56,0465-81-1111,35.331141,139.21865,Google Maps,,713
143626,神奈川県,大井町,おおいまち,258-8501,神奈川県足柄上郡大井町金子1995,0465-83-1311,35.3266903,139.1566312,Google Maps,,714
143634,神奈川県,松田町,まつだまち,258-8585,神奈川県足柄上郡松田町松田惣領2037,0465-83-1221,35.3483025,139.139025,Google Maps,,715
143642,神奈川県,山北町,やまきたまち,258-0195,神奈川県足柄上郡山北町山北1301－4,0465-75-1122,35.3606352,139.0838066,Google Maps,,716
143669,神奈川県,開成町,かいせいまち,258-8502,神奈川県足柄上郡開成町延沢773,0465-83-2331,35.3364368,139.1232639,Google Maps,,717
143821,神奈川県,箱根町,はこねまち,250-0398,神奈川県足柄下郡箱根町湯本256,0460-85-7111,35.2321585,139.1071391,Google Maps,,718
143839,神奈川県,真鶴町,まなづるまち,259-0202,神奈川県足柄下郡真鶴町岩244－1,0465-68-1131,35.1584294,139.1371911,Google Maps,,719
143847,神奈川県,湯河原町,ゆがわらまち,259-0392,神奈川県足柄下郡湯河原町中央2－2－1,0465-63-2111,35.1478754,139.1083785,Google Maps,,720
144011,神奈川県,愛川町,あいかわまち,243-0392,神奈川県愛甲郡愛川町角田251－1,046-285-2111,35.5288212,139.3217516,Google Maps,,721
144029,神奈川県,清川村,きよかわむら,243-0195,神奈川県愛甲郡清川村煤ヶ谷2216,046-288-1211,35.4823873,139.2763134,Google Maps,,722
151009,新潟県,新潟市,にいがたし,951-8550,新潟県新潟市中央区学校町通1番町602-1,025-228-1000,37.9161252,139.0365079,Google Maps,,723
152021,新潟県,長岡市,ながおかし,940-8501,新潟県長岡市大手通1-4-10,0258-35-1122,37.4464497,138.8510991,Google Maps,,724
152048,新潟県,三条市,さんじょうし,955-8686,新潟県三条市旭町2-3-1,0256-34-5511,37.6361093,138.9614303,Google Maps,,725
152056,新潟県,柏崎市,かしわざきし,945-8511,新潟県柏崎市日石町2-1,0257-23-5111,37.3648877,138.557933,Google Maps,,726
152064,新潟県,新発田市,しばたし,957-8686,新潟県新発田市中央町3-3-3,0254-22-3030,37.9480087,139.3270736,Google Maps,,727
152081,新潟県,小千谷市,おぢやし,947-8501,新潟県小千谷市城内2-7-5,0258-83-3511,37.3143294,138.7951123,Google Maps,,728
152099,新潟県,加茂市,かもし,959-1392,新潟県加茂市幸町2-3-5,0256-52-0080,37.666116,139.0406859,Google Maps,,729
152102,新潟県,十日町市,とおかまちし,948-8501,新潟県十日町市千歳町3-3,025-757-3111,37.1276835,138.7559586,Google Maps,,730
152111,新潟県,見附市,みつけし,954-8686,新潟県見附市昭和町2-1-1,0258-62-1700,37.530752,138.9128367,Google Maps,,731
152129,新潟県,村上市,むらかみし,958-8501,新潟県村上市三之町1-1,0254-53-2111,38.2239966,139.4800172,Google Maps,,732
152137,新潟県,燕市,つばめし,959-0295,新潟県燕市吉田西太田1934,0256-92-1111,37.6731139,138.8823247,Google Maps,,733
152161,新潟県,糸魚川市,いといがわし,941-8501,新潟県糸魚川市一の宮1-2-5,025-552-1511,37.0393615,137.8665844,Google Maps,,734
152170,新潟県,妙高市,みょうこうし,944-8686,新潟県妙高市栄町5-1,0255-72-5111,37.0252107,138.2535676,Google Maps,,735
152188,新潟県,五泉市,ごせんし,959-1692,新潟県五泉市太田1094-1,0250-43-3911,37.7444786,139.1825548,Google Maps,,736
152226,新潟県,上越市,じょうえつし,943-8601,新潟県上越市木田1丁目1-3,025-526-5111,37.1472844,138.2363108,Google Maps,,737
152234,新潟県,阿賀野市,あがのし,959-2092,新潟県阿賀野市岡山町10-15,0250-62-2510,37.8344501,139.2259732,Google Maps,,738
152242,新潟県,佐渡市,さどし,952-1292,新潟県佐渡市千種232,0259-63-3111,38.0182635,138.368292,Google Maps,,739
152251,新潟県,魚沼市,うおぬまし,946-8601,新潟県魚沼市小出島910,025-792-1000,37.2298977,138.9621265,Google Maps,,740
152269,新潟県,南魚沼市,みなみうおぬまし,949-6696,新潟県南魚沼市六日町180-1,025-773-6660,37.0655217,138.8761109,Google Maps,,741
152277,新潟県,胎内市,たいないし,959-2693,新潟県胎内市新和町2-10,0254-43-6111,38.0597046,139.4102678,Google Maps,,742
153079,新潟県,聖籠町,せいろうまち,957-0192,新潟県北蒲原郡聖籠町大字諏訪山1635-4,0254-27-2111,37.9745648,139.2743528,Google Maps,,743
153427,新潟県,弥彦村,やひこむら,959-0392,新潟県西蒲原郡弥彦村大字矢作402,0256-94-3131,37.6904862,138.855015,Google Maps,,744
153613,新潟県,田上町,たがみまち,959-1503,新潟県南蒲原郡田上町原ヶ崎新田3070,0256-57-6222,37.6987501,139.0571788,Google Maps,,745
153851,新潟県,阿賀町,あがまち,959-4495,新潟県東蒲原郡阿賀町津川580,0254-92-3111,37.6755665,139.4587415,Google Maps,,746
154059,新潟県,出雲崎町,いずもざきまち,949-4392,新潟県三島郡出雲崎町大字川西140,0258-78-3111,37.5306968,138.709406,Google Maps,,747
154610,新潟県,湯沢町,ゆざわまち,949-6192,新潟県南魚沼郡湯沢町大字神立300,025-784-3451,36.9337364,138.8171772,Google Maps,,748
154822,新潟県,津南町,つなんまち,949-8292,新潟県中魚沼郡津南町大字下船渡戊585,025-765-3111,37.01424,138.6524865,Google Maps,,749
155047,新潟県,刈羽村,かりわむら,945-0397,新潟県刈羽郡刈羽村大字割町新田215-1,0257-45-2244,37.4218263,138.6225245,Google Maps,,750
155811,新潟県,関川村,せきかわむら,959-3292,新潟県岩船郡関川村大字下関912,0254-64-1441,38.0886905,139.5709786,Google Maps,,751
155861,新潟県,粟島浦村,あわしまうらむら,958-0061,新潟県岩船郡粟島浦村字日ノ見山1513-11,0254-55-2111,38.4682065,139.254353,Google Maps,,752
162019,富山県,富山市,とやまし,930-8510,富山県富山市新桜町7-38,076-431-6111,36.6960392,137.2136888,Google Maps,,753
162027,富山県,高岡市,たかおかし,933-8601,富山県高岡市広小路7-50,0766-20-1111,36.7535805,137.0261142,Google Maps,,754
162043,富山県,魚津市,うおづし,937-8555,富山県魚津市釈迦堂1-10-1,0765-23-1019,36.8273433,137.4092121,Google Maps,,755
162051,富山県,氷見市,ひみし,935-8686,富山県氷見市鞍川1060番地,0766-74-8100,36.8559385,136.9728124,Google Maps,,756
162060,富山県,滑川市,なめりかわし,936-8601,富山県滑川市寺家町104,076-475-2111,36.7643827,137.3411844,Google Maps,,757
162078,富山県,黒部市,くろべし,938-8555,富山県黒部市三日市1301,0765-54-2111,36.8714585,137.4477591,Google Maps,,758
162086,富山県,砺波市,となみし,939-1398,富山県砺波市栄町7-3,0763-33-1111,36.6468746,136.9626372,Google Maps,,759
162094,富山県,小矢部市,おやべし,932-8611,富山県小矢部市本町1-1,0766-67-1760,36.6755859,136.8687131,Google Maps,,760
162108,富山県,南砺市,なんとし,939-1692,富山県南砺市荒木1550,0763-23-2003,36.5880911,136.9194516,Google Maps,,761
162116,富山県,射水市,いみずし,939-0294,富山県射水市新開発410-1,0766-51-6600,36.7304833,137.0754511,Google Maps,,762
163210,富山県,舟橋村,ふなはしむら,930-0295,富山県中新川郡舟橋村仏生寺55,076-464-1121,36.7039367,137.3071241,Google Maps,,763
163228,富山県,上市町,かみいちまち,930-0393,富山県中新川郡上市町法音寺1,076-472-1111,36.698382,137.3624921,Google Maps,,764
163236,富山県,立山町,たてやままち,930-0292,富山県中新川郡立山町前沢2440,076-463-1121,36.663503,137.3137204,Google Maps,,765
163422,富山県,入善町,にゅうぜんまち,939-0693,富山県下新川郡入善町入膳423,0765-72-1100,36.9250612,137.5052191,Google Maps,,766
163431,富山県,朝日町,あさひまち,939-0793,富山県下新川郡朝日町道下1133,0765-83-1100,36.9462185,137.5599543,Google Maps,,767
172014,石川県,金沢市,かなざわし,920-8577,石川県金沢市広坂1-1-1,076-220-2111,36.5611893,136.6567292,Google Maps,,768
172022,石川県,七尾市,ななおし,926-8611,石川県七尾市袖ヶ江町イ部25,0767-53-1111,37.0425818,136.9671067,Google Maps,,769
172031,石川県,小松市,こまつし,923-8650,石川県小松市小馬出町91,0761-22-4111,36.4085854,136.4457837,Google Maps,,770
172049,石川県,輪島市,わじまし,928-8525,石川県輪島市二ツ屋町2字29,0768-22-2211,37.3897248,136.8998522,Google Maps,,771
172057,石川県,珠洲市,すずし,927-1295,石川県珠洲市上戸町北方1の6の2,0768-82-2222,37.4363596,137.2604571,Google Maps,,772
172065,石川県,加賀市,かがし,922-8622,石川県加賀市大聖寺南町ニ41,0761-72-1111,36.3027165,136.3149133,Google Maps,,773
172073,石川県,羽咋市,はくいし,925-8501,石川県羽咋市旭町ア200,0767-22-1111,36.8934925,136.7797258,Google Maps,,774
172090,石川県,かほく市,かほくし,929-1195,石川県かほく市宇野気ニ81,076-283-1111,36.7196032,136.7069031,Google Maps,,775
172103,石川県,白山市,はくさんし,924-8688,石川県白山市倉光2-1,076-276-1111,36.5144033,136.5655863,Google Maps,,776
172111,石川県,能美市,のみし,923-1297,石川県能美市来丸町1110,0761-58-1111,36.4468491,136.5541536,Google Maps,,777
172120,石川県,野々市市,ののいちし,921-8510,石川県野々市市三納1-1,076-227-6000,36.5195413,136.6098161,Google Maps,,778
173240,石川県,川北町,かわきたまち,923-1295,石川県能美郡川北町壱ツ屋174,076-277-1111,36.46885,136.5420173,Google Maps,,779
173614,石川県,津幡町,つばたまち,929-0393,石川県河北郡津幡町加賀爪ニ3,076-288-2121,36.6685904,136.7278335,Google Maps,,780
173657,石川県,内灘町,うちなだまち,920-0292,石川県河北郡内灘町字大学1-2-1,076-286-1111,36.6533905,136.6450476,Google Maps,,781
173843,石川県,志賀町,しかまち,925-0198,石川県羽咋郡志賀町末吉千古1-1,0767-32-1111,37.0062097,136.7779761,Google Maps,,782
173860,石川県,宝達志水町,ほうだつしみずちょう,929-1492,石川県羽咋郡宝達志水町子浦そ18-1,0767-29-3111,36.8626111,136.7968693,Google Maps,,783
174076,石川県,中能登町,なかのとまち,929-1792,石川県鹿島郡中能登町末坂9部46番地,0767-74-1234,36.9891594,136.9031631,Google Maps,,784
174611,石川県,穴水町,あなみずまち,927-8601,石川県鳳珠郡穴水町字川島ラ174,0768-52-0300,37.2310744,136.9123618,Google Maps,,785
174637,石川県,能登町,のとちょう,927-0492,石川県鳳珠郡能登町字宇出津ト字50番地1,0768-62-1000,37.3102926,137.1483725,Google Maps,,786
182010,福井県,福井市,ふくいし,910-8511,福井県福井市大手3-10-1,0776-20-5111,36.0640726,136.2190243,Google Maps,,787
182028,福井県,敦賀市,つるがし,914-8501,福井県敦賀市中央町2-1-1,0770-21-1111,35.6455894,136.0554487,Google Maps,,788
182044,福井県,小浜市,おばまし,917-8585,福井県小浜市大手町6-3,0770-53-1111,35.4955789,135.7466941,Google Maps,,789
182052,福井県,大野市,おおのし,912-8666,福井県大野市天神町1-1,0779-66-1111,35.9812272,136.487689,Google Maps,,790
182061,福井県,勝山市,かつやまし,911-8501,福井県勝山市元町1-1-1,0779-88-1111,36.0609189,136.5007238,Google Maps,,791
182079,福井県,鯖江市,さばえし,916-8666,福井県鯖江市西山町13-1,0778-51-2200,35.9564929,136.1843121,Google Maps,,792
182087,福井県,あわら市,あわらし,919-0692,福井県あわら市市姫3-1-1,0776-73-1221,36.2113678,136.2290055,Google Maps,,793
182095,福井県,越前市,えちぜんし,915-8530,福井県越前市府中1-13-7,0778-22-3000,35.9036063,136.1690353,Google Maps,,794
182109,福井県,坂井市,さかいし,919-0592,福井県坂井市坂井町下新庄1-1,0776-66-1500,36.1668861,136.2315957,Google Maps,,795
183229,福井県,永平寺町,えいへいじちょう,910-1192,福井県吉田郡永平寺町松岡春日1-4,0776-61-1111,36.0923444,136.2990604,Google Maps,,796
183822,福井県,池田町,いけだちょう,910-2512,福井県今立郡池田町稲荷35-4,0778-44-6000,35.8905043,136.3437544,Google Maps,,797
184047,福井県,南越前町,みなみえちぜんちょう,919-0292,福井県南条郡南越前町東大道29-1,0778-47-3000,35.8351309,136.1944692,Google Maps,,798
184233,福井県,越前町,えちぜんちょう,916-0192,福井県丹生郡越前町西田中13-5-1,0778-34-1234,35.9742541,136.129956,Google Maps,,799
184420,福井県,美浜町,みはまちょう,919-1192,福井県三方郡美浜町郷市25-25,0770-32-1111,35.5999347,135.9396704,Google Maps,,800
184811,福井県,高浜町,たかはまちょう,919-2292,福井県大飯郡高浜町宮崎86-23-2,0770-72-1111,35.4879766,135.5459448,Google Maps,,801
184837,福井県,おおい町,おおいちょう,919-2111,福井県大飯郡おおい町本郷136-1-1,0770-77-1111,35.4812141,135.6171715,Google Maps,,802
185019,福井県,若狭町,わかさちょう,919-1393,福井県三方上中郡若狭町中央1-1,0770-45-1111,35.5490428,135.9082489,Google Maps,,803
192015,山梨県,甲府市,こうふし,400-8585,山梨県甲府市丸の内1-18-1,055-237-1161,35.6620984,138.5683689,Google Maps,,804
192023,山梨県,富士吉田市,ふじよしだし,403-8601,山梨県富士吉田市下吉田6-1-1,0555-22-1111,35.4874631,138.807784,Google Maps,,805
192040,山梨県,都留市,つるし,402-8501,山梨県都留市上谷1-1-1,0554-43-1111,35.5516669,138.9051461,Google Maps,,806
192058,山梨県,山梨市,やまなしし,405-8501,山梨県山梨市小原西843,0553-22-1111,35.6934286,138.6869172,Google Maps,,807
192066,山梨県,大月市,おおつきし,401-8601,山梨県大月市大月2-6-20,0554-22-2111,35.6105076,138.9400311,Google Maps,,808
192074,山梨県,韮崎市,にらさきし,407-8501,山梨県韮崎市水神1-3-1,0551-22-1111,35.7089094,138.4460722,Google Maps,,809
192082,山梨県,南アルプス市,みなみあるぷすし,400-0395,山梨県南アルプス市小笠原376,055-282-1111,35.6083598,138.4656818,Google Maps,,810
192091,山梨県,北杜市,ほくとし,408-0188,山梨県北杜市須玉町大豆生田961-1,0551-42-1111,35.7765063,138.4236602,Google Maps,,811
192104,山梨県,甲斐市,かいし,400-0192,山梨県甲斐市篠原2610,055-276-2111,35.6611215,138.5157513,Google Maps,,812
192112,山梨県,笛吹市,ふえふきし,406-8510,山梨県笛吹市石和町市部777,055-262-4111,35.6472892,138.6397257,Google Maps,,813
192121,山梨県,上野原市,うえのはらし,409-0192,山梨県上野原市上野原3832,0554-62-3111,35.6300547,139.1081617,Google Maps,,814
192139,山梨県,甲州市,こうしゅうし,404-8501,山梨県甲州市塩山上於曽1085番地1,0553-32-2111,35.7042676,138.7294176,Google Maps,,815
192147,山梨県,中央市,ちゅうおうし,409-3892,山梨県中央市臼井阿原301-1,055-274-1111,35.5996133,138.5175319,Google Maps,,816
193461,山梨県,市川三郷町,いちかわみさとちょう,409-3601,山梨県西八代郡市川三郷町市川大門1790-3,055-272-1101,35.5651168,138.5024859,Google Maps,,817
193640,山梨県,早川町,はやかわちょう,409-2732,山梨県南巨摩郡早川町高住758,0556-45-2511,35.4127376,138.3629782,Google Maps,,818
193658,山梨県,身延町,みのぶちょう,409-3392,山梨県南巨摩郡身延町切石350,0556-42-2111,35.4674504,138.4425084,Google Maps,,819
193666,山梨県,南部町,なんぶちょう,409-2192,山梨県南巨摩郡南部町福士28505-2,0556-66-2111,35.2423536,138.4859783,Google Maps,,820
193682,山梨県,富士川町,ふじかわちょう,400-0592,山梨県南巨摩郡富士川町天神中条1134,0556-22-1111,35.5622494,138.4626079,Google Maps,,821
193844,山梨県,昭和町,しょうわちょう,409-3880,山梨県中巨摩郡昭和町押越542-2,055-275-2111,35.62789,138.5351754,Google Maps,,822
194221,山梨県,道志村,どうしむら,402-0209,山梨県南都留郡道志村6181-1,0554-52-2111,35.5277844,139.0334447,Google Maps,,823
194239,山梨県,西桂町,にしかつらちょう,403-0022,山梨県南都留郡西桂町小沼1500-1,0555-25-2121,35.5241214,138.8472795,Google Maps,,824
194247,山梨県,忍野村,おしのむら,401-0592,山梨県南都留郡忍野村忍草1514,0555-84-3111,35.4600784,138.8478758,Google Maps,,825
194255,山梨県,山中湖村,やまなかこむら,401-0595,山梨県南都留郡山中湖村山中237-1,0555-62-1111,35.4105599,138.8610446,Google Maps,,826
194298,山梨県,鳴沢村,なるさわむら,401-0398,山梨県南都留郡鳴沢村1575,0555-85-2311,35.4807038,138.7047409,Google Maps,,827
194301,山梨県,富士河口湖町,ふじかわぐちこまち,401-0392,山梨県南都留郡富士河口湖町船津1700,0555-72-1111,35.4973238,138.7550004,Google Maps,,828
194425,山梨県,小菅村,こすげむら,409-0211,山梨県北都留郡小菅村4698,0428-87-0111,35.7599371,138.9401805,Google Maps,,829
194433,山梨県,丹波山村,たばやまむら,409-0300,山梨県北都留郡丹波山村2450,0428-88-0211,35.7896647,138.9222856,Google Maps,,830
202011,長野県,長野市,ながのし,380-8512,長野県長野市大字鶴賀緑町1613,026-226-4911,36.648415,138.19482,Google Maps,,831
202029,長野県,松本市,まつもとし,390-8620,長野県松本市丸の内3-7,0263-34-3000,36.2384552,137.9719403,Google Maps,,832
202037,長野県,上田市,うえだし,386-8601,長野県上田市大手1-11-16,0268-22-4100,36.4018575,138.2490725,Google Maps,,833
202045,長野県,岡谷市,おかやし,394-8510,長野県岡谷市幸町8-1,0266-23-4811,36.0665973,138.0493455,Google Maps,,834
202053,長野県,飯田市,いいだし,395-8501,長野県飯田市大久保町2534,0265-22-4511,35.5142964,137.8214994,Google Maps,,835
202061,長野県,諏訪市,すわし,392-8511,長野県諏訪市高島1-22-30,0266-52-4141,36.0390494,138.1141354,Google Maps,,836
202070,長野県,須坂市,すざかし,382-8511,長野県須坂市大字須坂1528-1,026-245-1400,36.6510675,138.3072918,Google Maps,,837
202088,長野県,小諸市,こもろし,384-8501,長野県小諸市相生町3-3-3,0267-22-1700,36.3271809,138.4254262,Google Maps,,838
202096,長野県,伊那市,いなし,396-8617,長野県伊那市下新田3050,0265-78-4111,35.8274635,137.9540629,Google Maps,,839
202100,長野県,駒ヶ根市,こまがねし,399-4192,長野県駒ヶ根市赤須町20-1,0265-83-2111,35.7288259,137.9338023,Google Maps,,840
202118,長野県,中野市,なかのし,383-8614,長野県中野市三好町1-3-19,0269-22-2111,36.7414551,138.3693632,Google Maps,,841
202126,長野県,大町市,おおまちし,398-8601,長野県大町市大町3887,0261-22-0420,36.5032412,137.850589,Google Maps,,842
202134,長野県,飯山市,いいやまし,389-2292,長野県飯山市大字飯山1110-1,0269-62-3111,36.8517718,138.3654702,Google Maps,,843
202142,長野県,茅野市,ちのし,391-8501,長野県茅野市塚原2-6-1,0266-72-2101,35.9960051,138.1590642,Google Maps,,844
202151,長野県,塩尻市,しおじりし,399-0786,長野県塩尻市大門7番町3-3,0263-52-0280,36.1161276,137.9544043,Google Maps,,845
202177,長野県,佐久市,さくし,385-8501,長野県佐久市中込3056,0267-62-2111,36.2487882,138.4767633,Google Maps,,846
202185,長野県,千曲市,ちくまし,387-8511,長野県千曲市杭瀬下2丁目1番地,026-273-1111,36.5307028,138.1148948,Google Maps,,847
202193,長野県,東御市,とうみし,389-0592,長野県東御市県281-2,0268-62-1111,36.3594527,138.3303487,Google Maps,,848
202207,長野県,安曇野市,あづみのし,399-8281,長野県安曇野市豊科6000,0263-71-2000,36.3039808,137.9059002,Google Maps,,849
203033,長野県,小海町,こうみまち,384-1192,長野県南佐久郡小海町大字豊里57-1,0267-92-2525,36.0951678,138.4834581,Google Maps,,850
203041,長野県,川上村,かわかみむら,384-1405,長野県南佐久郡川上村大字大深山525,0267-97-2121,35.9750938,138.5784902,Google Maps,,851
203050,長野県,南牧村,みなみまきむら,384-1302,長野県南佐久郡南牧村大字海ノ口1051,0267-96-2211,35.9449182,138.4540326,Google Maps,,852
203068,長野県,南相木村,みなみあいきむら,384-1211,長野県南佐久郡南相木村3525-1,0267-78-2121,36.0360336,138.5470723,Google Maps,,853
203076,長野県,北相木村,きたあいきむら,384-1201,長野県南佐久郡北相木村2744,0267-77-2111,36.0592256,138.5511628,Google Maps,,854
203092,長野県,佐久穂町,さくほまち,384-0697,長野県南佐久郡佐久穂町大字高野町569,0267-86-2525,36.161003,138.4834025,Google Maps,,855
203211,長野県,軽井沢町,かるいざわまち,389-0192,長野県北佐久郡軽井沢町大字長倉2381-1,0267-45-8111,36.3485883,138.5970744,Google Maps,,856
203238,長野県,御代田町,みよたまち,389-0292,長野県北佐久郡御代田町大字馬瀬口1794-6,0267-32-3111,36.3227593,138.506668,Google Maps,,857
203246,長野県,立科町,たてしなまち,384-2305,長野県北佐久郡立科町大字芦田2532,0267-56-2311,36.2720745,138.3160593,Google Maps,,858
203491,長野県,青木村,あおきむら,386-1601,長野県小県郡青木村大字田沢111,0268-49-0111,36.3702018,138.128595,Google Maps,,859
203505,長野県,長和町,ながわまち,386-0603,長野県小県郡長和町古町4247-1,0268-68-3111,36.2696476,138.2578164,Google Maps,,860
203611,長野県,下諏訪町,しもすわまち,393-8501,長野県諏訪郡下諏訪町4613-8,0266-27-1111,36.0695678,138.0801295,Google Maps,,861
203629,長野県,富士見町,ふじみまち,399-0292,長野県諏訪郡富士見町落合10777,0266-62-2250,35.9143304,138.2405251,Google Maps,,862
203637,長野県,原村,はらむら,391-0192,長野県諏訪郡原村6549-1,0266-79-2111,35.9644513,138.2174935,Google Maps,,863
203823,長野県,辰野町,たつのまち,399-0493,長野県上伊那郡辰野町中央1,0266-41-1111,35.9824308,137.9875997,Google Maps,,864
203831,長野県,箕輪町,みのわまち,399-4695,長野県上伊那郡箕輪町大字中箕輪10298,0265-79-3111,35.9150595,137.98192,Google Maps,,865
203840,長野県,飯島町,いいじままち,399-3797,長野県上伊那郡飯島町飯島2537,0265-86-3111,35.6767458,137.9193812,Google Maps,,866
203858,長野県,南箕輪村,みなみみのわむら,399-4592,長野県上伊那郡南箕輪村4825-1,0265-72-2104,35.8729101,137.9750145,Google Maps,,867
203866,長野県,中川村,なかがわむら,399-3892,長野県上伊那郡中川村大草4045-1,0265-88-3001,35.6345124,137.9460189,Google Maps,,868
203882,長野県,宮田村,みやだむら,399-4392,長野県上伊那郡宮田村98,0265-85-3181,35.7631889,137.9417042,Google Maps,,869
204021,長野県,松川町,まつかわまち,399-3303,長野県下伊那郡松川町元大島3823,0265-36-3111,35.5972257,137.909711,Google Maps,,870
204030,長野県,高森町,たかもりまち,399-3193,長野県下伊那郡高森町下市田2183-1,0265-35-3111,35.55149,137.8785505,Google Maps,,871
204048,長野県,阿南町,あなんちょう,399-1511,長野県下伊那郡阿南町東條58-1,0260-22-2141,35.3238485,137.8160579,Google Maps,,872
204072,長野県,阿智村,あちむら,395-0303,長野県下伊那郡阿智村駒場483,0265-43-2220,35.4438222,137.7475368,Google Maps,,873
204099,長野県,平谷村,ひらやむら,395-0601,長野県下伊那郡平谷村354,0265-48-2211,35.3232905,137.6302506,Google Maps,,874
204102,長野県,根羽村,ねばむら,395-0701,長野県下伊那郡根羽村2131-1,0265-49-2111,35.2554936,137.5820416,Google Maps,,875
204111,長野県,下條村,しもじょうむら,399-2101,長野県下伊那郡下條村睦沢8801-1,0260-27-2311,35.3974084,137.7860783,Google Maps,,876
204129,長野県,売木村,うるぎむら,399-1689,長野県下伊那郡売木村968-1,0260-28-2311,35.271067,137.7112747,Google Maps,,877
204137,長野県,天龍村,てんりゅうむら,399-1201,長野県下伊那郡天龍村平岡878,0260-32-2001,35.2762278,137.8540764,Google Maps,,878
204145,長野県,泰阜村,やすおかむら,399-1895,長野県下伊那郡泰阜村3236-1,0260-26-2111,35.3674199,137.8379115,Google Maps,,879
204153,長野県,喬木村,たかぎむら,395-1107,長野県下伊那郡喬木村6664,0265-33-2001,35.5137849,137.8739109,Google Maps,,880
204161,長野県,豊丘村,とよおかむら,399-3295,長野県下伊那郡豊丘村大字神稲3120,0265-35-3311,35.5517675,137.895711,Google Maps,,881
204170,長野県,大鹿村,おおしかむら,399-3502,長野県下伊那郡大鹿村大字大河原354,0265-39-2001,35.5781999,138.034012,Google Maps,,882
204226,長野県,上松町,あげまつまち,399-5603,長野県木曽郡上松町駅前通り2-13,0264-52-2001,35.7840368,137.6941788,Google Maps,,883
204234,長野県,南木曽町,なぎそまち,399-5301,長野県木曽郡南木曽町大字読書3668-1,0264-57-2001,35.6036821,137.6088954,Google Maps,,884
204251,長野県,木祖村,きそむら,399-6201,長野県木曽郡木祖村薮原1191-1,0264-36-2001,35.9353339,137.7831762,Google Maps,,885
204293,長野県,王滝村,おうたきむら,397-0201,長野県木曽郡王滝村3623,0264-48-2001,35.809316,137.5508923,Google Maps,,886
204307,長野県,大桑村,おおくわむら,399-5503,長野県木曽郡大桑村大字長野880-1,0264-55-3080,35.6892934,137.6716483,Google Maps,,887
204323,長野県,木曽町,きそまち,397-8588,長野県木曽郡木曽町福島2326-6,0264-22-3000,35.8419684,137.6912688,Google Maps,,888
204463,長野県,麻績村,おみむら,399-7701,長野県東筑摩郡麻績村麻3837,0263-67-3001,36.455997,138.0450917,Google Maps,,889
204480,長野県,生坂村,いくさかむら,399-7201,長野県東筑摩郡生坂村5493-2,0263-69-3111,36.42517,137.9274909,Google Maps,,890
204501,長野県,山形村,やまがたむら,390-1392,長野県東筑摩郡山形村2030-1,0263-98-3111,36.168559,137.8756796,Google Maps,,891
204510,長野県,朝日村,あさひむら,390-1188,長野県東筑摩郡朝日村大字古見1555-1,0263-99-2001,36.1293377,137.8671929,Google Maps,,892
204528,長野県,筑北村,ちくほくむら,399-7501,長野県東筑摩郡筑北村西条4195,0263-66-2111,36.402579,138.0120169,Google Maps,,893
204811,長野県,池田町,いけだまち,399-8696,長野県北安曇郡池田町大字池田3203-6,0261-62-3131,36.4212677,137.8744702,Google Maps,,894
204820,長野県,松川村,まつかわむら,399-8501,長野県北安曇郡松川村76-5,0261-62-3111,36.4252401,137.8575251,Google Maps,,895
204854,長野県,白馬村,はくばむら,399-9393,長野県北安曇郡白馬村大字北城7025,0261-72-5000,36.6981403,137.8619004,Google Maps,,896
204862,長野県,小谷村,おたりむら,399-9494,長野県北安曇郡小谷村大字中小谷丙131,0261-82-2001,36.7790231,137.9080647,Google Maps,,897
205214,長野県,坂城町,さかきまち,389-0692,長野県埴科郡坂城町大字坂城10050,0268-82-3111,36.4617925,138.1800615,Google Maps,,898
205419,長野県,小布施町,おぶせまち,381-0297,長野県上高井郡小布施町大字小布施1491-2,026-247-3111,36.6981069,138.3130495,Google Maps,,899
205435,長野県,高山村,たかやまむら,382-8510,長野県上高井郡高山村大字高井4972,026-245-1100,36.6798332,138.363683,Google Maps,,900
205613,長野県,山ノ内町,やまのうちまち,381-0498,長野県下高井郡山ノ内町大字平穏3352-1,0269-33-3111,36.7446098,138.4128954,Google Maps,,901
205621,長野県,木島平村,きじまだいらむら,389-2392,長野県下高井郡木島平村大字往郷914-6,0269-82-3111,36.8579512,138.4067537,Google Maps,,902
205630,長野県,野沢温泉村,のざわおんせんむら,389-2592,長野県下高井郡野沢温泉村大字豊郷9817,0269-85-3111,36.9226554,138.4404434,Google Maps,,903
205834,長野県,信濃町,しなのまち,389-1392,長野県上水内郡信濃町大字柏原428-2,026-255-3111,36.8074353,138.1954472,Google Maps,,904
205885,長野県,小川村,おがわむら,381-3302,長野県上水内郡小川村大字高府8800-8,026-269-2323,36.6172489,137.9746841,Google Maps,,905
205907,長野県,飯綱町,いいづなまち,389-1293,長野県上水内郡飯綱町大字牟礼2795-1,026-253-2511,36.754613,138.2355609,Google Maps,,906
206024,長野県,栄村,さかえむら,389-2792,長野県下水内郡栄村大字北信3433,0269-87-3111,36.9874794,138.5772673,Google Maps,,907
212016,岐阜県,岐阜市,ぎふし,500-8701,岐阜県岐阜市司町40番地1,058-265-4141,35.4261881,136.7596815,Google Maps,,908
212024,岐阜県,大垣市,おおがきし,503-8601,岐阜県大垣市丸の内2-29,0584-81-4111,35.3598921,136.6129984,Google Maps,,909
212032,岐阜県,高山市,たかやまし,506-8555,岐阜県高山市花岡町2-18,0577-32-3333,36.1461065,137.2522083,Google Maps,,910
212041,岐阜県,多治見市,たじみし,507-8703,岐阜県多治見市日ノ出町2-15,0572-22-1111,35.3328114,137.1320248,Google Maps,,911
212059,岐阜県,関市,せきし,501-3894,岐阜県関市若草通3-1,0575-22-3131,35.4956285,136.9184569,Google Maps,,912
212067,岐阜県,中津川市,なかつがわし,508-8501,岐阜県中津川市かやの木町2-1,0573-66-1111,35.4874233,137.5005651,Google Maps,,913
212075,岐阜県,美濃市,みのし,501-3792,岐阜県美濃市1350,0575-33-1122,35.5293805,136.9081114,Google Maps,,914
212083,岐阜県,瑞浪市,みずなみし,509-6195,岐阜県瑞浪市上平町1-1,0572-68-2111,35.3613854,137.2544587,Google Maps,,915
212091,岐阜県,羽島市,はしまし,501-6292,岐阜県羽島市竹鼻町55,058-392-1111,35.3196665,136.7026948,Google Maps,,916
212105,岐阜県,恵那市,えなし,509-7292,岐阜県恵那市長島町正家1-1-1,0573-26-2111,35.4493159,137.4128274,Google Maps,,917
212113,岐阜県,美濃加茂市,みのかもし,505-8606,岐阜県美濃加茂市太田町3431-1,0574-25-2111,35.4402245,137.0156815,Google Maps,,918
212121,岐阜県,土岐市,ときし,509-5192,岐阜県土岐市土岐津町土岐口2101,0572-54-1111,35.3525206,137.1833092,Google Maps,,919
212130,岐阜県,各務原市,かかみがはらし,504-8555,岐阜県各務原市那加桜町1-69,058-383-1111,35.3988032,136.8492518,Google Maps,,920
212148,岐阜県,可児市,かにし,509-0292,岐阜県可児市広見1-1,0574-62-1111,35.4261735,137.0616036,Google Maps,,921
212156,岐阜県,山県市,やまがたし,501-2192,岐阜県山県市高木1000-1,0581-22-2111,35.5061624,136.7813341,Google Maps,,922
212164,岐阜県,瑞穂市,みずほし,501-0293,岐阜県瑞穂市別府1288,058-327-4111,35.3917519,136.690617,Google Maps,,923
212172,岐阜県,飛騨市,ひだし,509-4292,岐阜県飛騨市古川町本町2-22,0577-73-2111,36.238145,137.1862625,Google Maps,,924
212181,岐阜県,本巣市,もとすし,501-0491,岐阜県本巣市早野255,058-323-1155,35.4553967,136.6659982,Google Maps,,925
212199,岐阜県,郡上市,ぐじょうし,501-4297,岐阜県郡上市八幡町島谷228,0575-67-1121,35.7486071,136.9641929,Google Maps,,926
212202,岐阜県,下呂市,げろし,509-2295,岐阜県下呂市森960,0576-24-2222,35.8058861,137.2441587,Google Maps,,927
212211,岐阜県,海津市,かいづし,503-0695,岐阜県海津市海津町高須515,0584-53-1111,35.2205985,136.6367781,Google Maps,,928
213021,岐阜県,岐南町,ぎなんちょう,501-6197,岐阜県羽島郡岐南町八剣7-107,058-247-1331,35.3897466,136.7830808,Google Maps,,929
213039,岐阜県,笠松町,かさまつちょう,501-6181,岐阜県羽島郡笠松町司町1,058-388-1111,35.3672082,136.7631528,Google Maps,,930
213411,岐阜県,養老町,ようろうちょう,503-1392,岐阜県養老郡養老町高田798,0584-32-1100,35.3084159,136.5614106,Google Maps,,931
213616,岐阜県,垂井町,たるいちょう,503-2193,岐阜県不破郡垂井町宮代2957-11,0584-22-1151,35.366251,136.5380781,Google Maps,,932
213624,岐阜県,関ケ原町,せきがはらちょう,503-1592,岐阜県不破郡関ケ原町大字関ケ原894-58,0584-43-1111,35.3655882,136.4669691,Google Maps,,933
213811,岐阜県,神戸町,ごうどちょう,503-2392,岐阜県安八郡神戸町大字神戸1111,0584-27-3111,35.4173504,136.6086727,Google Maps,,934
213829,岐阜県,輪之内町,わのうちちょう,503-0292,岐阜県安八郡輪之内町四郷2530-1,0584-69-3111,35.2848543,136.6382174,Google Maps,,935
213837,岐阜県,安八町,あんぱちちょう,503-0198,岐阜県安八郡安八町氷取161,0584-64-3111,35.3354128,136.6654175,Google Maps,,936
214019,岐阜県,揖斐川町,いびがわちょう,501-0692,岐阜県揖斐郡揖斐川町三輪133,0585-22-2111,35.4822915,136.5851846,Google Maps,,937
214035,岐阜県,大野町,おおのちょう,501-0592,岐阜県揖斐郡大野町大字大野80,0585-34-1111,35.4706945,136.6275902,Google Maps,,938
214043,岐阜県,池田町,いけだちょう,503-2492,岐阜県揖斐郡池田町六之井1468-1,0585-45-3111,35.4423184,136.5729068,Google Maps,,939
214213,岐阜県,北方町,きたがたちょう,501-0492,岐阜県本巣郡北方町長谷川1-1,058-323-1111,35.4356992,136.6838843,Google Maps,,940
215015,岐阜県,坂祝町,さかほぎちょう,505-8501,岐阜県加茂郡坂祝町取組46-18,0574-26-7111,35.4267737,136.9854827,Google Maps,,941
215023,岐阜県,富加町,とみかちょう,501-3392,岐阜県加茂郡富加町滝田1511,0574-54-2111,35.4847801,136.9796592,Google Maps,,942
215031,岐阜県,川辺町,かわべちょう,509-0393,岐阜県加茂郡川辺町中川辺1518-4,0574-53-2511,35.4864391,137.0712602,Google Maps,,943
215040,岐阜県,七宗町,ひちそうちょう,509-0492,岐阜県加茂郡七宗町上麻生2442-3,0574-48-1111,35.5438419,137.1200226,Google Maps,,944
215058,岐阜県,八百津町,やおつちょう,505-0392,岐阜県加茂郡八百津町八百津3903-2,0574-43-2111,35.4759843,137.1415237,Google Maps,,945
215066,岐阜県,白川町,しらかわちょう,509-1192,岐阜県加茂郡白川町河岐715,0574-72-1311,35.5818348,137.1879166,Google Maps,,946
215074,岐阜県,東白川村,ひがししらかわむら,509-1392,岐阜県加茂郡東白川村神土548,0574-78-3111,35.6424142,137.3235743,Google Maps,,947
215210,岐阜県,御嵩町,みたけちょう,505-0192,岐阜県可児郡御嵩町御嵩1239-1,0574-67-2111,35.4342136,137.1309502,Google Maps,,948
216046,岐阜県,白川村,しらかわむら,501-5692,岐阜県大野郡白川村鳩谷517,05769-6-1311,36.2709255,136.898562,Google Maps,,949
221007,静岡県,静岡市,しずおかし,420-8602,静岡県静岡市葵区追手町5-1,054-254-2111,34.975022,138.3837751,Google Maps,,950
221309,静岡県,浜松市,はままつし,430-8652,静岡県浜松市中央区元城町103-2,053-457-2111,34.7108213,137.7262316,Google Maps,,951
222038,静岡県,沼津市,ぬまづし,410-8601,静岡県沼津市御幸町16-1,055-931-2500,35.0956328,138.8635012,Google Maps,,952
222054,静岡県,熱海市,あたみし,413-8550,静岡県熱海市中央町1-1,0557-86-6000,35.0964636,139.0709733,Google Maps,,953
222062,静岡県,三島市,みしまし,411-8666,静岡県三島市北田町4-47,055-975-3111,35.1184325,138.9185823,Google Maps,,954
222071,静岡県,富士宮市,ふじのみやし,418-8601,静岡県富士宮市弓沢町150,0544-22-1111,35.222102,138.6216588,Google Maps,,955
222089,静岡県,伊東市,いとうし,414-8555,静岡県伊東市大原二丁目1-1,0557-36-0111,34.9655823,139.1019889,Google Maps,,956
222097,静岡県,島田市,しまだし,427-8501,静岡県島田市中央町1-1,0547-37-5111,34.8361194,138.1770709,Google Maps,,957
222101,静岡県,富士市,ふじし,417-8601,静岡県富士市永田町1-100,0545-51-0123,35.1621934,138.6756448,Google Maps,,958
222119,静岡県,磐田市,いわたし,438-8650,静岡県磐田市国府台3-1,0538-37-2111,34.7178931,137.8515584,Google Maps,,959
222127,静岡県,焼津市,やいづし,425-8502,静岡県焼津市本町2-16-32,054-626-1111,34.867177,138.3233482,Google Maps,,960
222135,静岡県,掛川市,かけがわし,436-8650,静岡県掛川市長谷一丁目1番地の1,0537-21-1111,34.7685116,137.9984737,Google Maps,,961
222143,静岡県,藤枝市,ふじえだし,426-8722,静岡県藤枝市岡出山1-11-1,054-643-3111,34.8672061,138.2569822,Google Maps,,962
222151,静岡県,御殿場市,ごてんばし,412-8601,静岡県御殿場市萩原483,0550-83-1212,35.3088374,138.9340737,Google Maps,,963
222160,静岡県,袋井市,ふくろいし,437-8666,静岡県袋井市新屋1-1-1,0538-43-2111,34.7501691,137.9245908,Google Maps,,964
222194,静岡県,下田市,しもだし,415-8501,静岡県下田市東本郷1-5-18,0558-22-2211,34.6795476,138.9452334,Google Maps,,965
222208,静岡県,裾野市,すそのし,410-1192,静岡県裾野市佐野1059,055-992-1111,35.1739515,138.9067944,Google Maps,,966
222216,静岡県,湖西市,こさいし,431-0492,静岡県湖西市吉美3268,053-576-1111,34.7184684,137.5316085,Google Maps,,967
222224,静岡県,伊豆市,いずし,410-2413,静岡県伊豆市小立野38-2,0558-72-1111,34.9749324,138.9466323,Google Maps,,968
222232,静岡県,御前崎市,おまえざきし,437-1692,静岡県御前崎市池新田5585,0537-85-1111,34.6375744,138.1272226,Google Maps,,969
222241,静岡県,菊川市,きくがわし,439-8650,静岡県菊川市堀之内61,0537-35-2111,34.7583573,138.0843898,Google Maps,,970
222259,静岡県,伊豆の国市,いずのくにし,410-2292,静岡県伊豆の国市長岡340-1,055-948-1411,35.0277074,138.928715,Google Maps,,971
222267,静岡県,牧之原市,まきのはらし,421-0495,静岡県牧之原市静波447-1,0548-23-0001,34.739653,138.2243102,Google Maps,,972
223018,静岡県,東伊豆町,ひがしいずちょう,413-0411,静岡県賀茂郡東伊豆町稲取3354,0557-95-1100,34.7727805,139.0412725,Google Maps,,973
223026,静岡県,河津町,かわづちょう,413-0595,静岡県賀茂郡河津町田中212-2,0558-34-1111,34.7572639,138.9874762,Google Maps,,974
223042,静岡県,南伊豆町,みなみいずちょう,415-0392,静岡県賀茂郡南伊豆町下賀茂315-1,0558-62-1111,34.6511984,138.858466,Google Maps,,975
223051,静岡県,松崎町,まつざきちょう,410-3696,静岡県賀茂郡松崎町宮内301-1,0558-42-1111,34.7527274,138.778761,Google Maps,,976
223069,静岡県,西伊豆町,にしいずちょう,410-3514,静岡県賀茂郡西伊豆町仁科401-1,0558-52-1111,34.771636,138.775287,Google Maps,,977
223255,静岡県,函南町,かんなみちょう,419-0192,静岡県田方郡函南町平井717-13,055-978-2250,35.0889127,138.9532186,Google Maps,,978
223417,静岡県,清水町,しみずちょう,411-8650,静岡県駿東郡清水町堂庭210-1,055-973-1111,35.0990322,138.9027347,Google Maps,,979
223425,静岡県,長泉町,ながいずみちょう,411-8668,静岡県駿東郡長泉町中土狩828,055-989-5500,35.137615,138.8969676,Google Maps,,980
223441,静岡県,小山町,おやまちょう,410-1395,静岡県駿東郡小山町藤曲57-2,0550-76-1111,35.3601135,138.9873055,Google Maps,,981
224243,静岡県,吉田町,よしだちょう,421-0395,静岡県榛原郡吉田町住吉87,0548-33-1111,34.7708716,138.2519844,Google Maps,,982
224294,静岡県,川根本町,かわねほんちょう,428-0313,静岡県榛原郡川根本町上長尾627,0547-56-1111,35.0468439,138.0817096,Google Maps,,983
224618,静岡県,森町,もりまち,437-0293,静岡県周智郡森町森2101-1,0538-85-2111,34.8355781,137.9269607,Google Maps,,984
231002,愛知県,名古屋市,なごやし,460-8508,愛知県名古屋市中区三の丸3-1-1,052-961-1111,35.1819104,136.9057794,Google Maps,,985
232017,愛知県,豊橋市,とよはしし,440-8501,愛知県豊橋市今橋町1,0532-51-2111,34.7692439,137.391511,Google Maps,,986
232025,愛知県,岡崎市,おかざきし,444-8601,愛知県岡崎市十王町2-9,0564-23-6000,34.9546083,137.1729666,Google Maps,,987
232033,愛知県,一宮市,いちのみやし,491-8501,愛知県一宮市本町2-5-6,0586-28-8100,35.3039598,136.8029842,Google Maps,,988
232041,愛知県,瀬戸市,せとし,489-8701,愛知県瀬戸市追分町64-1,0561-82-7111,35.2240043,137.0840474,Google Maps,,989
232050,愛知県,半田市,はんだし,475-8666,愛知県半田市東洋町2-1,0569-21-3111,34.8916317,136.937939,Google Maps,,990
232068,愛知県,春日井市,かすがいし,486-8686,愛知県春日井市鳥居松町5-44,0568-81-5111,35.2479746,136.9728155,Google Maps,,991
232076,愛知県,豊川市,とよかわし,442-8601,愛知県豊川市諏訪1-1,0533-89-2111,34.8264865,137.3750633,Google Maps,,992
232084,愛知県,津島市,つしまし,496-8686,愛知県津島市立込町2-21,0567-24-1111,35.1769981,136.7412495,Google Maps,,993
232092,愛知県,碧南市,へきなんし,447-8601,愛知県碧南市松本町28,0566-41-3311,34.8848342,136.9934687,Google Maps,,994
232106,愛知県,刈谷市,かりやし,448-8501,愛知県刈谷市東陽町1-1,0566-23-1111,34.9892533,137.0022944,Google Maps,,995
232114,愛知県,豊田市,とよたし,471-8501,愛知県豊田市西町3-60,0565-31-1212,35.0825508,137.1560669,Google Maps,,996
232122,愛知県,安城市,あんじょうし,446-8501,愛知県安城市桜町18-23,0566-76-1111,34.959005,137.0805855,Google Maps,,997
232131,愛知県,西尾市,にしおし,445-8501,愛知県西尾市寄住町下田22,0563-56-2111,34.8625689,137.0617353,Google Maps,,998
232149,愛知県,蒲郡市,がまごおりし,443-8601,愛知県蒲郡市旭町17-1,0533-66-1111,34.8264089,137.21958,Google Maps,,999
232157,愛知県,犬山市,いぬやまし,484-8501,愛知県犬山市大字犬山字東畑36,0568-61-1800,35.3785232,136.9445411,Google Maps,,1000
232165,愛知県,常滑市,とこなめし,479-8610,愛知県常滑市飛香台3-3-5,0569-35-5111,34.8960307,136.8544061,Google Maps,,1001
232173,愛知県,江南市,こうなんし,483-8701,愛知県江南市赤童子町大堀90,0587-54-1111,35.332093,136.8707622,Google Maps,,1002
232190,愛知県,小牧市,こまきし,485-8650,愛知県小牧市堀の内3-1,0568-72-2101,35.2902758,136.9110998,Google Maps,,1003
232203,愛知県,稲沢市,いなざわし,492-8269,愛知県稲沢市稲府町1,0587-32-1111,35.2482443,136.7803512,Google Maps,,1004
232211,愛知県,新城市,しんしろし,441-1392,愛知県新城市字東入船115,0536-23-1111,34.8990098,137.4978599,Google Maps,,1005
232220,愛知県,東海市,とうかいし,476-8601,愛知県東海市中央町1-1,0562-33-1111,35.023199,136.9021554,Google Maps,,1006
232238,愛知県,大府市,おおぶし,474-8701,愛知県大府市中央町5-70,0562-47-2111,35.0117765,136.9639266,Google Maps,,1007
232246,愛知県,知多市,ちたし,478-8601,愛知県知多市緑町1,0562-33-3151,34.9965984,136.8646138,Google Maps,,1008
232254,愛知県,知立市,ちりゅうし,472-8666,愛知県知立市広見3-1,0566-83-1111,35.0012793,137.0507486,Google Maps,,1009
232262,愛知県,尾張旭市,おわりあさひし,488-8666,愛知県尾張旭市東大道町原田2600-1,0561-53-2111,35.2168,137.0351756,Google Maps,,1010
232271,愛知県,高浜市,たかはまし,444-1398,愛知県高浜市青木町4-1-2,0566-52-1111,34.9276005,136.9872923,Google Maps,,1011
232289,愛知県,岩倉市,いわくらし,482-8686,愛知県岩倉市栄町1-66,0587-66-1111,35.2794384,136.871426,Google Maps,,1012
232297,愛知県,豊明市,とよあけし,470-1195,愛知県豊明市新田町子持松1-1,0562-92-1111,35.0538194,137.0131401,Google Maps,,1013
232301,愛知県,日進市,にっしんし,470-0192,愛知県日進市蟹甲町池下268,0561-73-7111,35.1320032,137.0394391,Google Maps,,1014
232319,愛知県,田原市,たはらし,441-3492,愛知県田原市田原町南番場30-1,0531-22-1111,34.6689106,137.2641387,Google Maps,,1015
232327,愛知県,愛西市,あいさいし,496-8555,愛知県愛西市稲葉町米野308,0567-26-8111,35.1530514,136.7281316,Google Maps,,1016
232335,愛知県,清須市,きよすし,452-8569,愛知県清須市須ケ口1238,052-400-2911,35.1999761,136.8531243,Google Maps,,1017
232343,愛知県,北名古屋市,きたなごやし,481-8531,愛知県北名古屋市西之保清水田15,0568-22-1111,35.2456613,136.8659771,Google Maps,,1018
232351,愛知県,弥富市,やとみし,498-8501,愛知県弥富市前ケ須町南本田335,0567-65-1111,35.1099712,136.7247218,Google Maps,,1019
232360,愛知県,みよし市,みよしし,470-0295,愛知県みよし市三好町小坂50,0561-32-2111,35.0894289,137.074932,Google Maps,,1020
232378,愛知県,あま市,あまし,497-8602,愛知県あま市七宝町沖之島深秤1,052-444-1001,35.190522,136.8047036,Google Maps,,1021
232386,愛知県,長久手市,ながくてし,480-1196,愛知県長久手市岩作城の内60番地1,0561-63-1111,35.1841172,137.0485903,Google Maps,,1022
233021,愛知県,東郷町,とうごうちょう,470-0198,愛知県愛知郡東郷町大字春木字羽根穴1,0561-38-3111,35.0966017,137.0524483,Google Maps,,1023
233421,愛知県,豊山町,とよやまちょう,480-0292,愛知県西春日井郡豊山町大字豊場字新栄260,0568-28-0001,35.2505046,136.91218,Google Maps,,1024
233617,愛知県,大口町,おおぐちちょう,480-0144,愛知県丹羽郡大口町下小口七丁目155,0587-95-1111,35.3325348,136.9078535,Google Maps,,1025
233625,愛知県,扶桑町,ふそうちょう,480-0102,愛知県丹羽郡扶桑町大字高雄字天道330,0587-93-1111,35.359225,136.9128556,Google Maps,,1026
234249,愛知県,大治町,おおはるちょう,490-1192,愛知県海部郡大治町大字馬島字大門西1-1,052-444-2711,35.175095,136.8200623,Google Maps,,1027
234257,愛知県,蟹江町,かにえちょう,497-8601,愛知県海部郡蟹江町学戸3-1,0567-95-1111,35.1323092,136.7867681,Google Maps,,1028
234273,愛知県,飛島村,とびしまむら,490-1436,愛知県海部郡飛島村竹之郷3-1,0567-52-1231,35.0787392,136.7911705,Google Maps,,1029
234419,愛知県,阿久比町,あぐいちょう,470-2292,愛知県知多郡阿久比町大字卯坂字殿越50,0569-48-1111,34.9332806,136.9151462,Google Maps,,1030
234427,愛知県,東浦町,ひがしうらちょう,470-2192,愛知県知多郡東浦町大字緒川字政所20,0562-83-3111,34.9770694,136.9656039,Google Maps,,1031
234451,愛知県,南知多町,みなみちたちょう,470-3495,愛知県知多郡南知多町大字豊浜字貝ヶ坪18,0569-65-0711,34.7150851,136.9295058,Google Maps,,1032
234460,愛知県,美浜町,みはまちょう,470-2492,愛知県知多郡美浜町大字河和字北田面106,0569-82-1111,34.7790589,136.9080105,Google Maps,,1033
234478,愛知県,武豊町,たけとよちょう,470-2392,愛知県知多郡武豊町字長尾山2,0569-72-1111,34.8511142,136.9147445,Google Maps,,1034
235016,愛知県,幸田町,こうたちょう,444-0192,愛知県額田郡幸田町大字菱池字元林1-1,0564-62-1111,34.8644535,137.1655644,Google Maps,,1035
235610,愛知県,設楽町,したらちょう,441-2301,愛知県北設楽郡設楽町田口字辻前14,0536-62-0511,35.0969235,137.571288,Google Maps,,1036
235628,愛知県,東栄町,とうえいちょう,449-0292,愛知県北設楽郡東栄町大字本郷字上前畑25,0536-76-0501,35.0768889,137.6980497,Google Maps,,1037
235636,愛知県,豊根村,とよねむら,449-0403,愛知県北設楽郡豊根村下黒川字蕨平2,0536-85-1311,35.1463439,137.7202711,Google Maps,,1038
242012,三重県,津市,つし,514-8611,三重県津市西丸之内23-1,059-229-3105,34.7186564,136.5055079,Google Maps,,1039
242021,三重県,四日市市,よっかいちし,510-8601,三重県四日市市諏訪町1-5,059-354-8104,34.9648725,136.6243171,Google Maps,,1040
242039,三重県,伊勢市,いせし,516-8601,三重県伊勢市岩渕1-7-29,0596-21-5520,34.4874098,136.7097609,Google Maps,,1041
242047,三重県,松阪市,まつさかし,515-8515,三重県松阪市殿町1340-1,0598-53-4312,34.5779693,136.5276276,Google Maps,,1042
242055,三重県,桑名市,くわなし,511-8601,三重県桑名市中央町2-37,0594-24-1136,35.0624716,136.6839932,Google Maps,,1043
242071,三重県,鈴鹿市,すずかし,513-8701,三重県鈴鹿市神戸1-18-18,059-382-1100,34.8817458,136.5842244,Google Maps,,1044
242080,三重県,名張市,なばりし,518-0492,三重県名張市鴻之台1番町1番地,0595-63-7402,34.6275829,136.108369,Google Maps,,1045
242098,三重県,尾鷲市,おわせし,519-3696,三重県尾鷲市中央町10-43,0597-23-8132,34.0707739,136.1910148,Google Maps,,1046
242101,三重県,亀山市,かめやまし,519-0195,三重県亀山市本丸町577,0595-82-1111,34.855528,136.4516318,Google Maps,,1047
242110,三重県,鳥羽市,とばし,517-0011,三重県鳥羽市鳥羽三丁目1番1号,0599-25-1112,34.481349,136.8434517,Google Maps,,1048
242128,三重県,熊野市,くまのし,519-4392,三重県熊野市井戸町796,0597-89-4111,33.8885197,136.1002268,Google Maps,,1049
242144,三重県,いなべ市,いなべし,511-0498,三重県いなべ市北勢町阿下喜31,0594-86-7745,35.1583895,136.5167885,Google Maps,,1050
242152,三重県,志摩市,しまし,517-0592,三重県志摩市阿児町鵜方3098-22,0599-44-0001,34.3281603,136.8296982,Google Maps,,1051
242161,三重県,伊賀市,いがし,518-8501,三重県伊賀市四十九町3184,0595-22-9611,34.7496701,136.1423159,Google Maps,,1052
243035,三重県,木曽岬町,きそさきちょう,498-8503,三重県桑名郡木曽岬町大字西対海地251,0567-68-6100,35.0758237,136.7309146,Google Maps,,1053
243248,三重県,東員町,とういんちょう,511-0295,三重県員弁郡東員町大字山田1600,0594-86-2800,35.0740154,136.5853917,Google Maps,,1054
243418,三重県,菰野町,こものちょう,510-1292,三重県三重郡菰野町大字潤田1250,059-391-1111,35.0192175,136.5071747,Google Maps,,1055
243434,三重県,朝日町,あさひちょう,510-8522,三重県三重郡朝日町大字小向893,059-377-5651,35.0342642,136.6644435,Google Maps,,1056
243442,三重県,川越町,かわごえちょう,510-8588,三重県三重郡川越町大字豊田一色280,059-366-7113,35.0229404,136.673923,Google Maps,,1057
244414,三重県,多気町,たきちょう,519-2181,三重県多気郡多気町相可1600,0598-38-1111,34.4961912,136.5461587,Google Maps,,1058
244422,三重県,明和町,めいわちょう,515-0332,三重県多気郡明和町大字馬之上945,0596-52-7111,34.5475818,136.6232012,Google Maps,,1059
244431,三重県,大台町,おおだいちょう,519-2404,三重県多気郡大台町佐原750,0598-82-3781,34.3933026,136.4081342,Google Maps,,1060
244619,三重県,玉城町,たまきちょう,519-0495,三重県度会郡玉城町田丸114-2,0596-58-8200,34.4902591,136.6308751,Google Maps,,1061
244708,三重県,度会町,わたらいちょう,516-2195,三重県度会郡度会町棚橋1215-1,0596-62-1111,34.4388093,136.6224967,Google Maps,,1062
244716,三重県,大紀町,たいきちょう,519-2703,三重県度会郡大紀町滝原1610-1,0598-86-2212,34.3580089,136.4157689,Google Maps,,1063
244724,三重県,南伊勢町,みなみいせちょう,516-0194,三重県度会郡南伊勢町五ヶ所浦3057,0599-66-1111,34.3520675,136.703703,Google Maps,,1064
245437,三重県,紀北町,きほくちょう,519-3292,三重県北牟婁郡紀北町東長島769番地1,0597-46-3111,34.211535,136.3373305,Google Maps,,1065
245615,三重県,御浜町,みはまちょう,519-5292,三重県南牟婁郡御浜町大字阿田和6120-1,05979-3-0505,33.8143673,136.048801,Google Maps,,1066
245623,三重県,紀宝町,きほうちょう,519-5701,三重県南牟婁郡紀宝町鵜殿324,0735-33-0333,33.7340151,136.0094748,Google Maps,,1067
252018,滋賀県,大津市,おおつし,520-8575,滋賀県大津市御陵町3-1,077-523-1234,35.0187476,135.8545961,Google Maps,,1068
252026,滋賀県,彦根市,ひこねし,522-8501,滋賀県彦根市元町4-2,0749-22-1411,35.2746344,136.25978,Google Maps,,1069
252034,滋賀県,長浜市,ながはまし,526-8501,滋賀県長浜市八幡東町632,0749-62-4111,35.3807371,136.2784907,Google Maps,,1070
252042,滋賀県,近江八幡市,おうみはちまんし,523-8501,滋賀県近江八幡市桜宮町236,0748-33-3111,35.128332,136.097973,Google Maps,,1071
252069,滋賀県,草津市,くさつし,525-8588,滋賀県草津市草津3-13-30,077-563-1234,35.0130659,135.9597729,Google Maps,,1072
252077,滋賀県,守山市,もりやまし,524-8585,滋賀県守山市吉身2-5-22,077-583-2525,35.0588512,135.9941773,Google Maps,,1073
252085,滋賀県,栗東市,りっとうし,520-3088,滋賀県栗東市安養寺1-13-33,077-553-1234,35.0183938,136.0006769,Google Maps,,1074
252093,滋賀県,甲賀市,こうかし,528-8502,滋賀県甲賀市水口町水口6053,0748-65-0650,34.9661595,136.166343,Google Maps,,1075
252107,滋賀県,野洲市,やすし,520-2395,滋賀県野洲市小篠原2100-1,077-587-1121,35.0674609,136.0259019,Google Maps,,1076
252115,滋賀県,湖南市,こなんし,520-3288,滋賀県湖南市中央1-1,0748-72-1290,35.0035061,136.083981,Google Maps,,1077
252123,滋賀県,高島市,たかしまし,520-1592,滋賀県高島市新旭町北畑565,0740-25-8000,35.3530595,136.0356868,Google Maps,,1078
252131,滋賀県,東近江市,ひがしおうみし,527-8527,滋賀県東近江市八日市緑町10-5,0748-24-1234,35.112631,136.2075653,Google Maps,,1079
252140,滋賀県,米原市,まいばらし,521-8501,滋賀県米原市米原1016,0749-53-5100,35.3149882,136.2915858,Google Maps,,1080
253839,滋賀県,日野町,ひのちょう,529-1698,滋賀県蒲生郡日野町河原1-1,0748-52-1211,35.0180928,136.2454036,Google Maps,,1081
253847,滋賀県,竜王町,りゅうおうちょう,520-2592,滋賀県蒲生郡竜王町大字小口3,0748-58-3700,35.0608003,136.1245252,Google Maps,,1082
254258,滋賀県,愛荘町,あいしょうちょう,529-1380,滋賀県愛知郡愛荘町愛知川72,0749-42-4111,35.1687973,136.2123105,Google Maps,,1083
254410,滋賀県,豊郷町,とよさとちょう,529-1169,滋賀県犬上郡豊郷町石畑375,0749-35-8111,35.200441,136.2299858,Google Maps,,1084
254428,滋賀県,甲良町,こうらちょう,522-0244,滋賀県犬上郡甲良町大字在士353-1,0749-38-3311,35.2042325,136.2613335,Google Maps,,1085
254436,滋賀県,多賀町,たがちょう,522-0341,滋賀県犬上郡多賀町大字多賀324,0749-48-8111,35.2220494,136.2921905,Google Maps,,1086
261009,京都府,京都市,きょうとし,604-8571,京都府京都市中京区寺町通御池上る上本能寺前町488,075-222-3111,35.0116189,135.7680976,Google Maps,,1087
262013,京都府,福知山市,ふくちやまし,620-8501,京都府福知山市字内記13-1,0773-22-6111,35.2967082,135.126424,Google Maps,,1088
262021,京都府,舞鶴市,まいづるし,625-8555,京都府舞鶴市字北吸1044,0773-62-2300,35.4749667,135.3859288,Google Maps,,1089
262030,京都府,綾部市,あやべし,623-8501,京都府綾部市若竹町8-1,0773-42-3280,35.2988412,135.2589628,Google Maps,,1090
262048,京都府,宇治市,うじし,611-8501,京都府宇治市宇治琵琶33,0774-22-3141,34.8848308,135.7991681,Google Maps,,1091
262056,京都府,宮津市,みやづし,626-8501,京都府宮津市字柳繩手345-1,0772-22-2121,35.535626,135.1956327,Google Maps,,1092
262064,京都府,亀岡市,かめおかし,621-8501,京都府亀岡市安町野々神8,0771-22-3131,35.013472,135.573475,Google Maps,,1093
262072,京都府,城陽市,じょうようし,610-0195,京都府城陽市寺田東ノ口16・17,0774-52-1111,34.8529155,135.7800464,Google Maps,,1094
262081,京都府,向日市,むこうし,617-8665,京都府向日市寺戸町中野20,075-931-1111,34.9483787,135.6983708,Google Maps,,1095
262099,京都府,長岡京市,ながおかきょうし,617-8501,京都府長岡京市開田1-1-1,075-951-2121,34.9266921,135.6956043,Google Maps,,1096
262102,京都府,八幡市,やわたし,614-8501,京都府八幡市八幡園内75,075-983-1111,34.875535,135.7076181,Google Maps,,1097
262111,京都府,京田辺市,きょうたなべし,610-0393,京都府京田辺市田辺80,0774-63-1122,34.8144413,135.7677086,Google Maps,,1098
262129,京都府,京丹後市,きょうたんごし,627-8567,京都府京丹後市峰山町杉谷889,0772-69-0001,35.6241757,135.0610094,Google Maps,,1099
262137,京都府,南丹市,なんたんし,622-8651,京都府南丹市園部町小桜町47,0771-68-0001,35.1074098,135.4702254,Google Maps,,1100
262145,京都府,木津川市,きづがわし,619-0286,京都府木津川市木津南垣外110-9,0774-72-0501,34.7371159,135.8200621,Google Maps,,1101
263036,京都府,大山崎町,おおやまざきちょう,618-8501,京都府乙訓郡大山崎町字円明寺小字夏目3,075-956-2101,34.9029586,135.6885762,Google Maps,,1102
263222,京都府,久御山町,くみやまちょう,613-8585,京都府久世郡久御山町島田ミスノ38,075-631-6111,34.8810886,135.7322976,Google Maps,,1103
263435,京都府,井手町,いでちょう,610-0302,京都府綴喜郡井手町大字井手小字東高月8,0774-82-2001,34.8005581,135.8146496,Google Maps,,1104
263443,京都府,宇治田原町,うじたわらちょう,610-0289,京都府綴喜郡宇治田原町大字立川小字坂口18-1,0774-88-2250,34.8448694,135.8680983,Google Maps,,1105
263648,京都府,笠置町,かさぎちょう,619-1303,京都府相楽郡笠置町大字笠置小字西通90-1,0743-95-2301,34.7604368,135.9393402,Google Maps,,1106
263656,京都府,和束町,わづかちょう,619-1295,京都府相楽郡和束町大字釜塚小字生水14-2,0774-78-3001,34.7957355,135.9050382,Google Maps,,1107
263664,京都府,精華町,せいかちょう,619-0285,京都府相楽郡精華町南稲八妻北尻70,0774-94-2004,34.761852,135.7855305,Google Maps,,1108
263672,京都府,南山城村,みなみやましろむら,619-1411,京都府相楽郡南山城村北大河原小字久保14-1,0743-93-0101,34.7727752,135.9936631,Google Maps,,1109
264075,京都府,京丹波町,きょうたんばちょう,622-0292,京都府船井郡京丹波町蒲生蒲生野487-1,0771-82-0200,35.1699816,135.4194821,Google Maps,,1110
264636,京都府,伊根町,いねちょう,626-0493,京都府与謝郡伊根町字日出651,0772-32-0501,35.6752417,135.272851,Google Maps,,1111
264652,京都府,与謝野町,よさのちょう,629-2292,京都府与謝郡与謝野町字岩滝1798-1,0772-43-9000,35.565364,135.1529093,Google Maps,,1112
271004,大阪府,大阪市,おおさかし,530-8201,大阪府大阪市北区中之島1-3-20,06-6208-8181,34.6941586,135.5018048,Google Maps,,1113
271403,大阪府,堺市,さかいし,590-0078,大阪府堺市堺区南瓦町3-1,072-233-1101,34.5735081,135.4830157,Google Maps,,1114
272027,大阪府,岸和田市,きしわだし,596-8510,大阪府岸和田市岸城町7-1,072-423-2121,34.4607091,135.3702712,Google Maps,,1115
272035,大阪府,豊中市,とよなかし,561-8501,大阪府豊中市中桜塚3-1-1,06-6858-2525,34.7813664,135.4708032,Google Maps,,1116
272043,大阪府,池田市,いけだし,563-8666,大阪府池田市城南1-1-1,072-752-1111,34.8217106,135.4285132,Google Maps,,1117
272051,大阪府,吹田市,すいたし,564-8550,大阪府吹田市泉町1-3-40,06-6384-1231,34.7593892,135.5168727,Google Maps,,1118
272060,大阪府,泉大津市,いずみおおつし,595-8686,大阪府泉大津市東雲町9-12,0725-33-1131,34.5044385,135.4105749,Google Maps,,1119
272078,大阪府,高槻市,たかつきし,569-0067,大阪府高槻市桃園町2-1,072-674-7111,34.8458712,135.6173363,Google Maps,,1120
272086,大阪府,貝塚市,かいづかし,597-8585,大阪府貝塚市畠中1-17-1,072-423-2151,34.4376741,135.3584406,Google Maps,,1121
272094,大阪府,守口市,もりぐちし,570-8666,大阪府守口市京阪本通2-5-5,06-6992-1221,34.7383772,135.5634203,Google Maps,,1122
272108,大阪府,枚方市,ひらかたし,573-8666,大阪府枚方市大垣内町2-1-20,072-841-1221,34.814705,135.6512918,Google Maps,,1123
272116,大阪府,茨木市,いばらきし,567-8505,大阪府茨木市駅前3-8-13,072-622-8121,34.8163744,135.56859,Google Maps,,1124
272124,大阪府,八尾市,やおし,581-0003,大阪府八尾市本町1-1-1,072-991-3881,34.6268704,135.6008425,Google Maps,,1125
272132,大阪府,泉佐野市,いずみさのし,598-8550,大阪府泉佐野市市場東1-1-1,072-463-1212,34.4068525,135.3273335,Google Maps,,1126
272141,大阪府,富田林市,とんだばやしし,584-8511,大阪府富田林市常盤町1-1,0721-25-1000,34.4998354,135.5973052,Google Maps,,1127
272159,大阪府,寝屋川市,ねやがわし,572-8555,大阪府寝屋川市本町1-1,072-824-1181,34.7661159,135.6276931,Google Maps,,1128
272167,大阪府,河内長野市,かわちながのし,586-8501,大阪府河内長野市原町1-1-1,0721-53-1111,34.4583935,135.5637187,Google Maps,,1129
272175,大阪府,松原市,まつばらし,580-8501,大阪府松原市阿保1-1-1,072-334-1550,34.5779377,135.5516213,Google Maps,,1130
272183,大阪府,大東市,だいとうし,574-8555,大阪府大東市谷川1-1-1,072-872-2181,34.7119988,135.6234103,Google Maps,,1131
272191,大阪府,和泉市,いずみし,594-8501,大阪府和泉市府中町2-7-5,0725-41-1551,34.4837465,135.4234539,Google Maps,,1132
272205,大阪府,箕面市,みのおし,562-0003,大阪府箕面市西小路4-6-1,072-723-2121,34.8266319,135.4700381,Google Maps,,1133
272213,大阪府,柏原市,かしわらし,582-8555,大阪府柏原市安堂町1-55,072-972-1501,34.5793176,135.6286809,Google Maps,,1134
272221,大阪府,羽曳野市,はびきのし,583-8585,大阪府羽曳野市誉田4-1-1,072-958-1111,34.5581392,135.606179,Google Maps,,1135
272230,大阪府,門真市,かどまし,571-8585,大阪府門真市中町1-1,06-6902-1231,34.7395694,135.586851,Google Maps,,1136
272248,大阪府,摂津市,せっつし,566-8555,大阪府摂津市三島1-1-1,06-6383-1111,34.7771044,135.5621948,Google Maps,,1137
272256,大阪府,高石市,たかいしし,592-8585,大阪府高石市加茂4-1-1,072-265-1001,34.5205821,135.442611,Google Maps,,1138
272264,大阪府,藤井寺市,ふじいでらし,583-8583,大阪府藤井寺市岡1-1-1,072-939-1111,34.574141,135.5974482,Google Maps,,1139
272272,大阪府,東大阪市,ひがしおおさかし,577-8521,大阪府東大阪市荒本北1-1-1,06-4309-3000,34.6792679,135.6009322,Google Maps,,1140
272281,大阪府,泉南市,せんなんし,590-0592,大阪府泉南市樽井1-1-1,072-483-0001,34.3665174,135.2738575,Google Maps,,1141
272299,大阪府,四條畷市,しじょうなわてし,575-8501,大阪府四條畷市中野本町1-1,072-877-2121,34.7400715,135.6395906,Google Maps,,1142
272302,大阪府,交野市,かたのし,576-8501,大阪府交野市私部1-1-1,072-892-0121,34.7879147,135.6800035,Google Maps,,1143
272311,大阪府,大阪狭山市,おおさかさやまし,589-8501,大阪府大阪狭山市狭山1-2384-1,072-366-0011,34.5037106,135.5556395,Google Maps,,1144
272329,大阪府,阪南市,はんなんし,599-0292,大阪府阪南市尾崎町35-1,072-471-5678,34.3596161,135.239698,Google Maps,,1145
273015,大阪府,島本町,しまもとちょう,618-8570,大阪府三島郡島本町桜井2-1-1,075-961-5151,34.8838199,135.6630151,Google Maps,,1146
273210,大阪府,豊能町,とよのちょう,563-0292,大阪府豊能郡豊能町余野414-1,072-739-0001,34.9188975,135.4942244,Google Maps,,1147
273228,大阪府,能勢町,のせちょう,563-0392,大阪府豊能郡能勢町宿野28,072-734-0001,34.9725197,135.4142824,Google Maps,,1148
273414,大阪府,忠岡町,ただおかちょう,595-0805,大阪府泉北郡忠岡町忠岡東1-34-1,0725-22-1122,34.4867905,135.4013127,Google Maps,,1149
273619,大阪府,熊取町,くまとりちょう,590-0495,大阪府泉南郡熊取町野田1-1-1,072-452-1001,34.4013703,135.3558648,Google Maps,,1150
273627,大阪府,田尻町,たじりちょう,598-8588,大阪府泉南郡田尻町大字嘉祥寺375-1,072-466-1000,34.3937754,135.2911861,Google Maps,,1151
273660,大阪府,岬町,みさきちょう,599-0392,大阪府泉南郡岬町深日2000-1,072-492-2775,34.3166763,135.1417711,Google Maps,,1152
273813,大阪府,太子町,たいしちょう,583-8580,大阪府南河内郡太子町大字山田88,0721-98-0300,34.5186748,135.6476504,Google Maps,,1153
273821,大阪府,河南町,かなんちょう,585-8585,大阪府南河内郡河南町大字白木1359-6,0721-93-2500,34.4916438,135.6296131,Google Maps,,1154
273830,大阪府,千早赤阪村,ちはやあかさかむら,585-8501,大阪府南河内郡千早赤阪村大字水分180,0721-72-0081,34.4646026,135.6226535,Google Maps,,1155
281000,兵庫県,神戸市,こうべし,650-8570,兵庫県神戸市中央区加納町6-5-1,078-331-8181,34.690027,135.1955948,Google Maps,,1156
282014,兵庫県,姫路市,ひめじし,670-8501,兵庫県姫路市安田4-1,079-221-2111,34.8173249,134.6854518,Google Maps,,1157
282022,兵庫県,尼崎市,あまがさきし,660-8501,兵庫県尼崎市東七松町1-23-1,06-6375-5639,34.7335314,135.4059911,Google Maps,,1158
282031,兵庫県,明石市,あかしし,673-8686,兵庫県明石市中崎1-5-1,078-912-1111,34.643136,134.9973043,Google Maps,,1159
282049,兵庫県,西宮市,にしのみやし,662-8567,兵庫県西宮市六湛寺町10-3,0798-35-3151,34.7376606,135.3417898,Google Maps,,1160
282057,兵庫県,洲本市,すもとし,656-8686,兵庫県洲本市本町3-4-10,0799-22-3321,34.3428925,134.8952576,Google Maps,,1161
282065,兵庫県,芦屋市,あしやし,659-8501,兵庫県芦屋市精道町7-6,0797-31-2121,34.7270203,135.3040928,Google Maps,,1162
282073,兵庫県,伊丹市,いたみし,664-8503,兵庫県伊丹市千僧1-1,072-783-1234,34.7845732,135.4003576,Google Maps,,1163
282081,兵庫県,相生市,あいおいし,678-8585,兵庫県相生市旭1-1-3,0791-23-7111,34.8036595,134.4680961,Google Maps,,1164
282090,兵庫県,豊岡市,とよおかし,668-8666,兵庫県豊岡市中央町2-4,0796-23-1111,35.5442675,134.8201761,Google Maps,,1165
282103,兵庫県,加古川市,かこがわし,675-8501,兵庫県加古川市加古川町北在家2000,079-421-2000,34.7569116,134.841211,Google Maps,,1166
282120,兵庫県,赤穂市,あこうし,678-0292,兵庫県赤穂市加里屋81,0791-43-3201,34.7549568,134.3902829,Google Maps,,1167
282138,兵庫県,西脇市,にしわきし,677-8511,兵庫県西脇市下戸田128番地の１,0795-22-3111,34.9829089,134.9795165,Google Maps,,1168
282146,兵庫県,宝塚市,たからづかし,665-8665,兵庫県宝塚市東洋町1-1,0797-71-1141,34.8000039,135.3603086,Google Maps,,1169
282154,兵庫県,三木市,みきし,673-0492,兵庫県三木市上の丸町10番30号,0794-82-2000,34.7968848,134.9903092,Google Maps,,1170
282162,兵庫県,高砂市,たかさごし,676-8501,兵庫県高砂市荒井町千鳥1-1-1,079-442-2101,34.7659449,134.7913205,Google Maps,,1171
282171,兵庫県,川西市,かわにしし,666-8501,兵庫県川西市中央町12-1,072-740-1111,34.8298782,135.4169434,Google Maps,,1172
282189,兵庫県,小野市,おのし,675-1380,兵庫県小野市中島町531,0794-63-1000,34.8578983,134.9398136,Google Maps,,1173
282197,兵庫県,三田市,さんだし,669-1595,兵庫県三田市三輪2-1-1,079-563-1111,34.8899778,135.2254628,Google Maps,,1174
282201,兵庫県,加西市,かさいし,675-2395,兵庫県加西市北条町横尾1000,0790-42-1110,34.9278868,134.8426914,Google Maps,,1175
282219,兵庫県,丹波篠山市,たんばささやまし,669-2397,兵庫県丹波篠山市北新町41,079-552-1111,35.0756576,135.2184382,Google Maps,,1176
282227,兵庫県,養父市,やぶし,667-8651,兵庫県養父市八鹿町八鹿1675,079-662-3161,35.4042622,134.7677012,Google Maps,,1177
282235,兵庫県,丹波市,たんばし,669-3692,兵庫県丹波市氷上町成松字甲賀1,0795-82-1001,35.17474,135.0314843,Google Maps,,1178
282243,兵庫県,南あわじ市,みなみあわじし,656-0492,兵庫県南あわじ市市善光寺22番地1,0799-43-5001,34.2944983,134.779683,Google Maps,,1179
282251,兵庫県,朝来市,あさごし,669-5292,兵庫県朝来市和田山町東谷213-1,079-672-3301,35.339299,134.8525873,Google Maps,,1180
282260,兵庫県,淡路市,あわじし,656-2292,兵庫県淡路市生穂新島8,0799-64-0001,34.4400463,134.9152656,Google Maps,,1181
282278,兵庫県,宍粟市,しそうし,671-2593,兵庫県宍粟市山崎町中広瀬133番地6,0790-63-3000,35.0044172,134.5495314,Google Maps,,1182
282286,兵庫県,加東市,かとうし,673-1493,兵庫県加東市社50,0795-42-3301,34.9186586,134.9734001,Google Maps,,1183
282294,兵庫県,たつの市,たつのし,679-4192,兵庫県たつの市龍野町富永1005-1,0791-64-3131,34.8580845,134.5452559,Google Maps,,1184
283011,兵庫県,猪名川町,いながわちょう,666-0292,兵庫県川辺郡猪名川町上野字北畑11-1,072-766-0001,34.8956167,135.3759301,Google Maps,,1185
283657,兵庫県,多可町,たかちょう,679-1192,兵庫県多可郡多可町中区中村町123,0795-32-2380,35.050328,134.9234745,Google Maps,,1186
283819,兵庫県,稲美町,いなみちょう,675-1115,兵庫県加古郡稲美町国岡1-1,079-492-1212,34.7490214,134.9134063,Google Maps,,1187
283827,兵庫県,播磨町,はりまちょう,675-0182,兵庫県加古郡播磨町東本荘1-5-30,079-435-0355,34.7153524,134.8680584,Google Maps,,1188
284424,兵庫県,市川町,いちかわちょう,679-2392,兵庫県神崎郡市川町西川辺165-3,0790-26-1010,34.9899747,134.7635024,Google Maps,,1189
284432,兵庫県,福崎町,ふくさきちょう,679-2280,兵庫県神崎郡福崎町南田原3116-1,0790-22-0560,34.9501002,134.7600823,Google Maps,,1190
284467,兵庫県,神河町,かみかわちょう,679-3116,兵庫県神崎郡神河町寺前64,0790-34-0001,35.0639792,134.7395195,Google Maps,,1191
284645,兵庫県,太子町,たいしちょう,671-1592,兵庫県揖保郡太子町鵤280-1,079-277-1010,34.8331836,134.5722229,Google Maps,,1192
284815,兵庫県,上郡町,かみごおりちょう,678-1292,兵庫県赤穂郡上郡町大持278,0791-52-1111,34.8738765,134.3554825,Google Maps,,1193
285013,兵庫県,佐用町,さようちょう,679-5380,兵庫県佐用郡佐用町佐用2611-1,0790-82-2521,35.0041715,134.3555032,Google Maps,,1194
285854,兵庫県,香美町,かみちょう,669-6592,兵庫県美方郡香美町香住区香住870-1,0796-36-1111,35.6320576,134.6292207,Google Maps,,1195
285862,兵庫県,新温泉町,しんおんせんちょう,669-6792,兵庫県美方郡新温泉町浜坂2673-1,0796-82-3111,35.6235065,134.4489008,Google Maps,,1196
292010,奈良県,奈良市,ならし,630-8580,奈良県奈良市二条大路南一丁目1-1,0742-34-1111,34.685112,135.805424,Google Maps,,1197
292028,奈良県,大和高田市,やまとたかだし,635-8511,奈良県大和高田市大字大中98番地4,0745-22-1101,34.5159285,135.737497,Google Maps,,1198
292036,奈良県,大和郡山市,やまとこおりやまし,639-1198,奈良県大和郡山市北郡山町248-4,0743-53-1151,34.6493551,135.7825914,Google Maps,,1199
292044,奈良県,天理市,てんりし,632-8555,奈良県天理市川原城町605,0743-63-1001,34.5966505,135.8373421,Google Maps,,1200
292052,奈良県,橿原市,かしはらし,634-8586,奈良県橿原市八木町1-1-18,0744-22-4001,34.510027,135.7922994,Google Maps,,1201
292061,奈良県,桜井市,さくらいし,633-8585,奈良県桜井市大字粟殿432-1,0744-42-9111,34.5186143,135.8432259,Google Maps,,1202
292079,奈良県,五條市,ごじょうし,637-8501,奈良県奈良県五條市岡口1丁目3番1号,0747-22-4001,34.3560809,135.6957291,Google Maps,,1203
292087,奈良県,御所市,ごせし,639-2298,奈良県御所市1-3,0745-62-3001,34.4633292,135.7401751,Google Maps,,1204
292095,奈良県,生駒市,いこまし,630-0288,奈良県生駒市東新町8-38,0743-74-1111,34.6919464,135.7005936,Google Maps,,1205
292109,奈良県,香芝市,かしばし,639-0292,奈良県香芝市本町1397,0745-76-2001,34.5411231,135.6985973,Google Maps,,1206
292117,奈良県,葛城市,かつらぎし,639-2195,奈良県葛城市柿本166,0745-69-3001,34.489159,135.7264309,Google Maps,,1207
292125,奈良県,宇陀市,うだし,633-0292,奈良県宇陀市榛原下井足17-3,0745-82-8000,34.5279181,135.9523451,Google Maps,,1208
293229,奈良県,山添村,やまぞえむら,630-2344,奈良県山辺郡山添村大字大西151,0743-85-0041,34.6811255,136.043973,Google Maps,,1209
293423,奈良県,平群町,へぐりちょう,636-8585,奈良県生駒郡平群町吉新1-1-1,0745-45-1001,34.6290188,135.7004605,Google Maps,,1210
293431,奈良県,三郷町,さんごうちょう,636-8535,奈良県生駒郡三郷町勢野西1-1-1,0745-73-2101,34.6000807,135.6955204,Google Maps,,1211
293440,奈良県,斑鳩町,いかるがちょう,636-0198,奈良県生駒郡斑鳩町法隆寺西3-7-12,0745-74-1001,34.6088304,135.7305856,Google Maps,,1212
293458,奈良県,安堵町,あんどちょう,639-1095,奈良県生駒郡安堵町大字東安堵958,0743-57-1511,34.6064573,135.7567847,Google Maps,,1213
293610,奈良県,川西町,かわにしちょう,636-0202,奈良県磯城郡川西町大字結崎28-1,0745-44-2211,34.5844269,135.7740641,Google Maps,,1214
293628,奈良県,三宅町,みやけちょう,636-0213,奈良県磯城郡三宅町大字伴堂689,0745-44-2001,34.5737114,135.7728054,Google Maps,,1215
293636,奈良県,田原本町,たわらもとちょう,636-0392,奈良県磯城郡田原本町890-1,0744-32-2901,34.5566607,135.7950037,Google Maps,,1216
293857,奈良県,曽爾村,そにむら,633-1212,奈良県宇陀郡曽爾村大字今井495-1,0745-94-2101,34.510664,136.124475,Google Maps,,1217
293865,奈良県,御杖村,みつえむら,633-1302,奈良県宇陀郡御杖村大字菅野368,0745-95-2001,34.4874751,136.1675406,Google Maps,,1218
294012,奈良県,高取町,たかとりちょう,635-0154,奈良県高市郡高取町大字観覚寺990-1,0744-52-3334,34.449507,135.7931202,Google Maps,,1219
294021,奈良県,明日香村,あすかむら,634-0142,奈良県高市郡明日香村大字橘21,0744-54-2001,34.4705404,135.8126125,Google Maps,,1220
294241,奈良県,上牧町,かんまきちょう,639-0293,奈良県北葛城郡上牧町大字上牧3350,0745-76-1001,34.5627533,135.7166477,Google Maps,,1221
294250,奈良県,王寺町,おうじちょう,636-8511,奈良県北葛城郡王寺町王寺2-1-23,0745-73-2001,34.5947232,135.7065663,Google Maps,,1222
294268,奈良県,広陵町,こうりょうちょう,635-8515,奈良県北葛城郡広陵町大字南郷583-1,0745-55-1001,34.5428055,135.7508728,Google Maps,,1223
294276,奈良県,河合町,かわいちょう,636-8501,奈良県北葛城郡河合町池部1-1-1,0745-57-0200,34.5781508,135.7370157,Google Maps,,1224
294411,奈良県,吉野町,よしのちょう,639-3192,奈良県吉野郡吉野町大字上市80-1,0746-32-3081,34.3959657,135.8575706,Google Maps,,1225
294420,奈良県,大淀町,おおよどちょう,638-8501,奈良県吉野郡大淀町大字桧垣本2090,0747-52-5501,34.3899043,135.7889094,Google Maps,,1226
294438,奈良県,下市町,しもいちちょう,638-8510,奈良県吉野郡下市町大字下市1960,0747-52-0001,34.3609069,135.7919058,Google Maps,,1227
294446,奈良県,黒滝村,くろたきむら,638-0292,奈良県吉野郡黒滝村大字寺戸77,0747-62-2031,34.3092689,135.8522275,Google Maps,,1228
294462,奈良県,天川村,てんかわむら,638-0392,奈良県吉野郡天川村大字沢谷60,0747-63-0321,34.2416037,135.8557712,Google Maps,,1229
294471,奈良県,野迫川村,のせがわむら,648-0392,奈良県吉野郡野迫川村大字北股84,0747-37-2101,34.1660264,135.6326906,Google Maps,,1230
294497,奈良県,十津川村,とつかわむら,637-1333,奈良県吉野郡十津川村大字小原225-1,0746-62-0001,33.9884466,135.7924661,Google Maps,,1231
294501,奈良県,下北山村,しもきたやまむら,639-3803,奈良県吉野郡下北山村大字寺垣内983,07468-6-0001,34.0050242,135.9551541,Google Maps,,1232
294519,奈良県,上北山村,かみきたやまむら,639-3701,奈良県吉野郡上北山村大字河合330,07468-2-0001,34.134284,136.0001977,Google Maps,,1233
294527,奈良県,川上村,かわかみむら,639-3594,奈良県吉野郡川上村大字迫1335-7,0746-52-0111,34.3380324,135.9544268,Google Maps,,1234
294535,奈良県,東吉野村,ひがしよしのむら,633-2492,奈良県吉野郡東吉野村大字小川99,0746-42-0441,34.4034468,135.9685345,Google Maps,,1235
302015,和歌山県,和歌山市,わかやまし,640-8511,和歌山県和歌山市七番丁23,073-432-0001,34.2303289,135.1707842,Google Maps,,1236
302023,和歌山県,海南市,かいなんし,642-8501,和歌山県海南市南赤坂11,073-482-4111,34.1596784,135.2395881,Google Maps,,1237
302031,和歌山県,橋本市,はしもとし,648-8585,和歌山県橋本市東家1-1-1,0736-33-1111,34.3146995,135.6053602,Google Maps,,1238
302040,和歌山県,有田市,ありだし,649-0392,和歌山県有田市箕島50,0737-83-1111,34.0831066,135.127674,Google Maps,,1239
302058,和歌山県,御坊市,ごぼうし,644-8686,和歌山県御坊市薗350,0738-22-4111,33.8914223,135.1525156,Google Maps,,1240
302066,和歌山県,田辺市,たなべし,646-8545,和歌山県田辺市東山1-5-1,0739-22-5300,33.7291143,135.3889197,Google Maps,,1241
302074,和歌山県,新宮市,しんぐうし,647-8555,和歌山県新宮市春日1-1,0735-23-3333,33.7245335,135.992343,Google Maps,,1242
302082,和歌山県,紀の川市,きのかわし,649-6492,和歌山県紀の川市西大井338,0736-77-2511,34.2694964,135.3626662,Google Maps,,1243
302091,和歌山県,岩出市,いわでし,649-6292,和歌山県岩出市西野209,0736-62-2141,34.2566396,135.3117045,Google Maps,,1244
303046,和歌山県,紀美野町,きみのちょう,640-1192,和歌山県海草郡紀美野町動木287,073-489-2430,34.1672314,135.3075038,Google Maps,,1245
303411,和歌山県,かつらぎ町,かつらぎちょう,649-7192,和歌山県伊都郡かつらぎ町大字丁ノ町2160,0736-22-0300,34.2964186,135.5037423,Google Maps,,1246
303437,和歌山県,九度山町,くどやまちょう,648-0198,和歌山県伊都郡九度山町大字九度山1190,0736-54-2019,34.2873379,135.5620671,Google Maps,,1247
303445,和歌山県,高野町,こうやちょう,648-0281,和歌山県伊都郡高野町大字高野山636,0736-56-3000,34.2162922,135.586373,Google Maps,,1248
303615,和歌山県,湯浅町,ゆあさちょう,643-0002,和歌山県有田郡湯浅町大字青木668-1,0737-63-2525,34.0293935,135.1904736,Google Maps,,1249
303623,和歌山県,広川町,ひろがわちょう,643-0071,和歌山県有田郡広川町大字広1500,0737-63-1122,34.0303744,135.1731111,Google Maps,,1250
303666,和歌山県,有田川町,ありだがわちょう,643-0021,和歌山県有田郡有田川町下津野2018-4,0737-52-2111,34.0575015,135.2160857,Google Maps,,1251
303810,和歌山県,美浜町,みはまちょう,644-0044,和歌山県日高郡美浜町大字和田1138-278,0738-22-4123,33.8938175,135.1332558,Google Maps,,1252
303828,和歌山県,日高町,ひだかちょう,649-1213,和歌山県日高郡日高町大字高家626,0738-63-2051,33.9257045,135.1410763,Google Maps,,1253
303836,和歌山県,由良町,ゆらちょう,649-1111,和歌山県日高郡由良町大字里1220-1,0738-65-0200,33.9613325,135.1242223,Google Maps,,1254
303909,和歌山県,印南町,いなみちょう,649-1534,和歌山県日高郡印南町大字印南2570,0738-42-0120,33.8195701,135.2226352,Google Maps,,1255
303917,和歌山県,みなべ町,みなべちょう,645-0002,和歌山県日高郡みなべ町芝742,0739-72-2015,33.7722819,135.321512,Google Maps,,1256
303925,和歌山県,日高川町,ひだかがわちょう,649-1324,和歌山県日高郡日高川町大字土生160,0738-22-1700,33.9121443,135.1853733,Google Maps,,1257
304018,和歌山県,白浜町,しらはまちょう,649-2211,和歌山県西牟婁郡白浜町1600,0739-43-5555,33.6781397,135.3481896,Google Maps,,1258
304042,和歌山県,上富田町,かみとんだちょう,649-2192,和歌山県西牟婁郡上富田町朝来763,0739-47-0550,33.696277,135.428847,Google Maps,,1259
304069,和歌山県,すさみ町,すさみちょう,649-2621,和歌山県西牟婁郡すさみ町周参見4089,0739-55-2004,33.5501392,135.4966392,Google Maps,,1260
304212,和歌山県,那智勝浦町,なちかつうらちょう,649-5392,和歌山県東牟婁郡那智勝浦町大字築地7-1-1,0735-52-0555,33.6260393,135.9410044,Google Maps,,1261
304221,和歌山県,太地町,たいじちょう,649-5171,和歌山県東牟婁郡太地町大字太地3767-1,0735-59-2335,33.5940456,135.9439816,Google Maps,,1262
304247,和歌山県,古座川町,こざがわちょう,649-4104,和歌山県東牟婁郡古座川町大字高池673-2,0735-72-0180,33.5318637,135.8149057,Google Maps,,1263
304271,和歌山県,北山村,きたやまむら,647-1603,和歌山県東牟婁郡北山村大字大沼42,0735-49-2331,33.9320809,135.9691134,Google Maps,,1264
304280,和歌山県,串本町,くしもとちょう,649-3592,和歌山県東牟婁郡串本町サンゴ台690番地5,0735-62-0555,33.4858005,135.786985,Google Maps,,1265
312011,鳥取県,鳥取市,とっとりし,680-8571,鳥取県鳥取市幸町71番地,0857-22-8111,35.4944645,134.2193699,Google Maps,,1266
312029,鳥取県,米子市,よなごし,683-8686,鳥取県米子市加茂町1-1,0859-22-7111,35.4280373,133.3308823,Google Maps,,1267
312037,鳥取県,倉吉市,くらよしし,682-8611,鳥取県倉吉市葵町722,0858-22-8111,35.4301667,133.8254391,Google Maps,,1268
312045,鳥取県,境港市,さかいみなとし,684-8501,鳥取県境港市上道町3000,0859-44-2111,35.5395819,133.2311859,Google Maps,,1269
313025,鳥取県,岩美町,いわみちょう,681-8501,鳥取県岩美郡岩美町大字浦富675-1,0857-73-1411,35.575872,134.3321188,Google Maps,,1270
313254,鳥取県,若桜町,わかさちょう,680-0792,鳥取県八頭郡若桜町大字若桜801-5,0858-82-2211,35.3401929,134.4009497,Google Maps,,1271
313289,鳥取県,智頭町,ちづちょう,689-1402,鳥取県八頭郡智頭町大字智頭2072-1,0858-75-4111,35.2650099,134.2266323,Google Maps,,1272
313297,鳥取県,八頭町,やずちょう,680-0493,鳥取県八頭郡八頭町郡家493,0858-76-0201,35.4091914,134.2505489,Google Maps,,1273
313645,鳥取県,三朝町,みささちょう,682-0195,鳥取県東伯郡三朝町大字大瀬999-2,0858-43-1111,35.4082047,133.8613038,Google Maps,,1274
313700,鳥取県,湯梨浜町,ゆりはまちょう,682-0723,鳥取県東伯郡湯梨浜町大字久留19-1,0858-35-3111,35.4899423,133.8645983,Google Maps,,1275
313718,鳥取県,琴浦町,ことうらちょう,689-2392,鳥取県東伯郡琴浦町大字徳万591-2,0858-52-2111,35.4950239,133.69274,Google Maps,,1276
313726,鳥取県,北栄町,ほくえいちょう,689-2292,鳥取県東伯郡北栄町由良宿423-1,0858-37-3111,35.4901326,133.7582838,Google Maps,,1277
313840,鳥取県,日吉津村,ひえづそん,689-3553,鳥取県西伯郡日吉津村大字日吉津872-15,0859-27-0211,35.4401704,133.3807628,Google Maps,,1278
313866,鳥取県,大山町,だいせんちょう,689-3211,鳥取県西伯郡大山町御来屋328,0859-54-3111,35.5107839,133.4958738,Google Maps,,1279
313891,鳥取県,南部町,なんぶちょう,683-0351,鳥取県西伯郡南部町法勝寺377-1,0859-66-3112,35.3403106,133.3268308,Google Maps,,1280
313904,鳥取県,伯耆町,ほうきちょう,689-4133,鳥取県西伯郡伯耆町吉長37-3,0859-68-3111,35.385227,133.4073928,Google Maps,,1281
314013,鳥取県,日南町,にちなんちょう,689-5292,鳥取県日野郡日南町霞800,0859-82-1111,35.1631432,133.3064787,Google Maps,,1282
314021,鳥取県,日野町,ひのちょう,689-4503,鳥取県日野郡日野町根雨101,0859-72-0331,35.2406819,133.442825,Google Maps,,1283
314030,鳥取県,江府町,こうふちょう,689-4401,鳥取県日野郡江府町大字江尾1717番地1,0859-75-2211,35.2764251,133.4789337,Google Maps,,1284
322016,島根県,松江市,まつえし,690-8540,島根県松江市末次町86,0852-55-5555,35.4683035,133.050025,Google Maps,,1285
322024,島根県,浜田市,はまだし,697-8501,島根県浜田市殿町1,0855-22-2612,34.8992234,132.0798931,Google Maps,,1286
322032,島根県,出雲市,いずもし,693-8530,島根県出雲市今市町70,0853-21-2211,35.3670009,132.754624,Google Maps,,1287
322041,島根県,益田市,ますだし,698-8650,島根県益田市常盤町1-1,0856-31-0100,34.6748595,131.8428587,Google Maps,,1288
322059,島根県,大田市,おおだし,694-0064,島根県大田市大田町大田ロ1111,0854-82-1600,35.1845351,132.5055454,Google Maps,,1289
322067,島根県,安来市,やすぎし,692-8686,島根県安来市安来町878-2,0854-23-3000,35.4309223,133.251116,Google Maps,,1290
322075,島根県,江津市,ごうつし,695-8501,島根県江津市江津町1016-4,0855-52-2501,35.0147234,132.2157819,Google Maps,,1291
322091,島根県,雲南市,うんなんし,699-1392,島根県雲南市木次町里方521-1,0854-40-1000,35.3076557,132.9003989,Google Maps,,1292
323438,島根県,奥出雲町,おくいずもちょう,699-1511,島根県仁多郡奥出雲町三成358-1,0854-54-1221,35.1971599,133.002736,Google Maps,,1293
323861,島根県,飯南町,いいなんちょう,690-3513,島根県飯石郡飯南町下赤名880,0854-76-2211,34.9985367,132.7132155,Google Maps,,1294
324418,島根県,川本町,かわもとまち,696-8501,島根県邑智郡川本町大字川本271-3,0855-72-0631,34.9951992,132.4958703,Google Maps,,1295
324485,島根県,美郷町,みさとちょう,699-4692,島根県邑智郡美郷町粕渕168,0855-75-1211,35.0766983,132.5907988,Google Maps,,1296
324493,島根県,邑南町,おおなんちょう,696-0192,島根県邑智郡邑南町矢上6000,0855-95-1111,34.8939691,132.4382702,Google Maps,,1297
325015,島根県,津和野町,つわのちょう,699-5292,島根県鹿足郡津和野町枕瀬218-18,0856-74-0021,34.5419547,131.8353723,Google Maps,,1298
325058,島根県,吉賀町,よしかちょう,699-5513,島根県鹿足郡吉賀町六日市750,0856-77-1111,34.3533108,131.9337156,Google Maps,,1299
325252,島根県,海士町,あまちょう,684-0403,島根県隠岐郡海士町大字海士1490,08514-2-0111,36.0967927,133.0957294,Google Maps,,1300
325261,島根県,西ノ島町,にしのしまちょう,684-0211,島根県隠岐郡西ノ島町大字浦郷534,08514-6-0101,36.0932902,132.9943824,Google Maps,,1301
325279,島根県,知夫村,ちぶむら,684-0102,島根県隠岐郡知夫村1065,08514-8-2211,36.0139223,133.0395309,Google Maps,,1302
325287,島根県,隠岐の島町,おきのしまちょう,685-8585,島根県隠岐郡隠岐の島町下西78番地2,08512-2-2111,36.2134161,133.311735,Google Maps,,1303
331007,岡山県,岡山市,おかやまし,700-8544,岡山県岡山市北区大供1-1-1,086-803-1000,34.6552586,133.9197731,Google Maps,,1304
332020,岡山県,倉敷市,くらしきし,710-8565,岡山県倉敷市西中新田640,086-426-3030,34.5844112,133.7732495,Google Maps,,1305
332038,岡山県,津山市,つやまし,708-8501,岡山県津山市山北520,0868-32-2052,35.0693582,134.0044016,Google Maps,,1306
332046,岡山県,玉野市,たまのし,706-8510,岡山県玉野市宇野1-27-1,0863-32-5588,34.4920085,133.945977,Google Maps,,1307
332054,岡山県,笠岡市,かさおかし,714-8601,岡山県笠岡市中央町1-1,0865-69-2121,34.5069064,133.5078578,Google Maps,,1308
332071,岡山県,井原市,いばらし,715-8601,岡山県井原市井原町311-1,0866-62-9500,34.5977183,133.4636525,Google Maps,,1309
332089,岡山県,総社市,そうじゃし,719-1192,岡山県総社市中央1-1-1,0866-92-8200,34.6728102,133.7463529,Google Maps,,1310
332097,岡山県,高梁市,たかはしし,716-8501,岡山県高梁市松原通2043,0866-21-0200,34.7914799,133.6163335,Google Maps,,1311
332101,岡山県,新見市,にいみし,718-8501,岡山県新見市新見310-3,0867-72-6111,34.9770175,133.4703247,Google Maps,,1312
332119,岡山県,備前市,びぜんし,705-8602,岡山県備前市東片上126,0869-64-3301,34.7452034,134.1888055,Google Maps,,1313
332127,岡山県,瀬戸内市,せとうちし,701-4292,岡山県瀬戸内市邑久町尾張300-1,0869-22-1111,34.6648709,134.0928467,Google Maps,,1314
332135,岡山県,赤磐市,あかいわし,709-0898,岡山県赤磐市下市344,086-955-1111,34.7553576,134.0187621,Google Maps,,1315
332143,岡山県,真庭市,まにわし,719-3292,岡山県真庭市久世2927-2,0867-42-1111,35.0761095,133.7520943,Google Maps,,1316
332151,岡山県,美作市,みまさかし,707-8501,岡山県美作市栄町38-2,0868-72-1111,35.0085954,134.1486266,Google Maps,,1317
332160,岡山県,浅口市,あさくちし,719-0295,岡山県浅口市鴨方町六条院中3050,0865-44-7000,34.5274207,133.5849967,Google Maps,,1318
333468,岡山県,和気町,わけちょう,709-0495,岡山県和気郡和気町尺所555,0869-93-1121,34.8497294,134.0979231,Google Maps,,1319
334235,岡山県,早島町,はやしまちょう,701-0303,岡山県都窪郡早島町大字前潟360-1,086-482-0611,34.600799,133.8283382,Google Maps,,1320
334456,岡山県,里庄町,さとしょうちょう,719-0398,岡山県浅口郡里庄町大字里見1107-2,0865-64-3111,34.5137825,133.5568678,Google Maps,,1321
334618,岡山県,矢掛町,やかげちょう,714-1297,岡山県小田郡矢掛町矢掛3018,0866-82-1010,34.6275864,133.5870942,Google Maps,,1322
335860,岡山県,新庄村,しんじょうそん,717-0201,岡山県真庭郡新庄村2008-1,0867-56-2626,35.1794843,133.5677721,Google Maps,,1323
336068,岡山県,鏡野町,かがみのちょう,708-0392,岡山県苫田郡鏡野町竹田660,0868-54-2111,35.0918318,133.9328836,Google Maps,,1324
336220,岡山県,勝央町,しょうおうちょう,709-4316,岡山県勝田郡勝央町勝間田201,0868-38-3111,35.0418606,134.1160065,Google Maps,,1325
336238,岡山県,奈義町,なぎちょう,708-1392,岡山県勝田郡奈義町豊沢306-1,0868-36-4111,35.1229813,134.1774276,Google Maps,,1326
336432,岡山県,西粟倉村,にしあわくらそん,707-0503,岡山県英田郡西粟倉村大字影石33-1,0868-79-2111,35.1717899,134.3357179,Google Maps,,1327
336637,岡山県,久米南町,くめなんちょう,709-3614,岡山県久米郡久米南町下弓削502-1,086-728-2111,34.9288923,133.9607941,Google Maps,,1328
336661,岡山県,美咲町,みさきちょう,709-3717,岡山県久米郡美咲町原田1735,0868-66-1111,34.9979396,133.9582548,Google Maps,,1329
336815,岡山県,吉備中央町,きびちゅうおうちょう,716-1192,岡山県加賀郡吉備中央町豊野1-2,0866-54-1313,34.8623865,133.6937835,Google Maps,,1330
341002,広島県,広島市,ひろしまし,730-8586,広島県広島市中区国泰寺町1-6-34,082-245-2111,34.385234,132.455196,Google Maps,,1331
342025,広島県,呉市,くれし,737-8501,広島県呉市中央4-1-6,0823-25-3100,34.2487909,132.5652373,Google Maps,,1332
342033,広島県,竹原市,たけはらし,725-8666,広島県竹原市中央5-1-35,0846-22-7719,34.3417775,132.9070923,Google Maps,,1333
342041,広島県,三原市,みはらし,723-8601,広島県三原市港町3-5-1,0848-64-2111,34.3977688,133.0779829,Google Maps,,1334
342050,広島県,尾道市,おのみちし,722-8501,広島県尾道市久保1-15-1,0848-38-9111,34.4096526,133.2055455,Google Maps,,1335
342076,広島県,福山市,ふくやまし,720-8501,広島県福山市東桜町3-5,084-921-2111,34.4601179,133.3881276,Google Maps,,1336
342084,広島県,府中市,ふちゅうし,726-8601,広島県府中市府川町315,0847-43-7111,34.5684426,133.2363604,Google Maps,,1337
342092,広島県,三次市,みよしし,728-8501,広島県三次市十日市中2-8-1,0824-62-6111,34.8055817,132.8517462,Google Maps,,1338
342106,広島県,庄原市,しょうばらし,727-8501,広島県庄原市中本町1-10-1,0824-73-1111,34.8571061,133.0171554,Google Maps,,1339
342114,広島県,大竹市,おおたけし,739-0692,広島県大竹市小方1-11-1,0827-59-2111,34.2296795,132.2121938,Google Maps,,1340
342122,広島県,東広島市,ひがしひろしまし,739-8601,広島県東広島市西条栄町8-29,082-422-2111,34.4264187,132.7431187,Google Maps,,1341
342131,広島県,廿日市市,はつかいちし,738-8501,広島県廿日市市下平良1-11-1,0829-20-0001,34.3487383,132.3313023,Google Maps,,1342
342149,広島県,安芸高田市,あきたかたし,731-0592,広島県安芸高田市吉田町吉田791,0826-42-2111,34.6660658,132.7040466,Google Maps,,1343
342157,広島県,江田島市,えたじまし,737-2297,広島県江田島市大柿町大原505,0823-43-1111,34.1749568,132.4622132,Google Maps,,1344
343021,広島県,府中町,ふちゅうちょう,735-8686,広島県安芸郡府中町大通3-5-1,082-286-3111,34.3924372,132.504517,Google Maps,,1345
343048,広島県,海田町,かいたちょう,736-8601,広島県安芸郡海田南昭和町14-17,082-822-2121,34.3664242,132.5362707,Google Maps,,1346
343072,広島県,熊野町,くまのちょう,731-4292,広島県安芸郡熊野町中溝1-1-1,082-820-5600,34.3357673,132.5847218,Google Maps,,1347
343099,広島県,坂町,さかちょう,731-4393,広島県安芸郡坂町平成ヶ浜1-1-1,082-820-1500,34.3409909,132.5132405,Google Maps,,1348
343684,広島県,安芸太田町,あきおおたちょう,731-3810,広島県山県郡安芸太田町戸河内784-1,0826-28-2111,34.576487,132.2275601,Google Maps,,1349
343692,広島県,北広島町,きたひろしまちょう,731-1595,広島県山県郡北広島町有田1234,050-5812-2111,34.6746165,132.5383989,Google Maps,,1350
344311,広島県,大崎上島町,おおさきかみじまちょう,725-0231,広島県豊田郡大崎上島町東野6625-1,0846-65-3111,34.2695607,132.9150171,Google Maps,,1351
344621,広島県,世羅町,せらちょう,722-1192,広島県世羅郡世羅町西上原123-1,0847-22-1111,34.5870231,133.0569957,Google Maps,,1352
345458,広島県,神石高原町,じんせきこうげんちょう,720-1522,広島県神石郡神石高原町小畠1701,0847-89-3330,34.7036549,133.2514641,Google Maps,,1353
352012,山口県,下関市,しものせきし,750-8521,山口県下関市南部町1-1,083-231-1111,33.9577795,130.941225,Google Maps,,1354
352021,山口県,宇部市,うべし,755-8601,山口県宇部市常盤町1-7-1,0836-31-4111,33.9518698,131.2474675,Google Maps,,1355
352039,山口県,山口市,やまぐちし,753-8650,山口県山口市亀山町2-1,083-922-4111,34.1778062,131.4730452,Google Maps,,1356
352047,山口県,萩市,はぎし,758-8555,山口県萩市江向510,0838-25-3131,34.40828,131.398721,Google Maps,,1357
352063,山口県,防府市,ほうふし,747-8501,山口県防府市寿町7-1,0835-23-2111,34.0512852,131.5625493,Google Maps,,1358
352071,山口県,下松市,くだまつし,744-8585,山口県下松市大手町3-3-3,0833-45-1700,34.014481,131.8698303,Google Maps,,1359
352080,山口県,岩国市,いわくにし,740-8585,山口県岩国市今津町1-14-51,0827-29-5000,34.1667312,132.2187209,Google Maps,,1360
352101,山口県,光市,ひかりし,743-8501,山口県光市中央6-1-1,0833-72-1401,33.9619393,131.9420465,Google Maps,,1361
352110,山口県,長門市,ながとし,759-4192,山口県長門市東深川1339-2,0837-22-2111,34.3709655,131.182223,Google Maps,,1362
352128,山口県,柳井市,やないし,742-8714,山口県柳井市南町1-10-2,0820-22-2111,33.9638018,132.1015328,Google Maps,,1363
352136,山口県,美祢市,みねし,759-2292,山口県美祢市大嶺町東分326-1,0837-52-1110,34.1666215,131.2057107,Google Maps,,1364
352152,山口県,周南市,しゅうなんし,745-8655,山口県周南市岐山通1-1,0834-22-8211,34.0552405,131.8063506,Google Maps,,1365
352161,山口県,山陽小野田市,さんようおのだし,756-8601,山口県山陽小野田市日の出1-1-1,0836-82-1111,34.0032293,131.1813357,Google Maps,,1366
353051,山口県,周防大島町,すおうおおしまちょう,742-2192,山口県大島郡周防大島町大字小松126-2,0820-74-1000,33.9276966,132.1953062,Google Maps,,1367
353213,山口県,和木町,わきちょう,740-8501,山口県玖珂郡和木町和木1-1-1,0827-52-2135,34.2023947,132.2201881,Google Maps,,1368
353418,山口県,上関町,かみのせきちょう,742-1402,山口県熊毛郡上関町大字長島448,0820-62-0311,33.8309176,132.1101351,Google Maps,,1369
353434,山口県,田布施町,たぶせちょう,742-1592,山口県熊毛郡田布施町大字下田布施3440-1,0820-52-2111,33.9546753,132.0414523,Google Maps,,1370
353442,山口県,平生町,ひらおちょう,742-1195,山口県熊毛郡平生町大字平生町210-1,0820-56-7111,33.9377315,132.0729715,Google Maps,,1371
355020,山口県,阿武町,あぶちょう,759-3622,山口県阿武郡阿武町大字奈古2636,08388-2-3110,34.5032256,131.4714187,Google Maps,,1372
362018,徳島県,徳島市,とくしまし,770-8571,徳島県徳島市幸町2-5,088-621-5111,34.0698172,134.5547937,Google Maps,,1373
362026,徳島県,鳴門市,なるとし,772-8501,徳島県鳴門市撫養町南浜字東浜170,088-684-1111,34.1730148,134.6090048,Google Maps,,1374
362034,徳島県,小松島市,こまつしまし,773-8501,徳島県小松島市横須町1-1,0885-32-2111,34.0049215,134.5903896,Google Maps,,1375
362042,徳島県,阿南市,あなんし,774-8501,徳島県阿南市富岡町トノ町12-3,0884-22-1111,33.92193,134.659508,Google Maps,,1376
362051,徳島県,吉野川市,よしのがわし,776-8611,徳島県吉野川市鴨島町鴨島115-1,0883-22-2222,34.0664544,134.3590443,Google Maps,,1377
362069,徳島県,阿波市,あわし,771-1695,徳島県阿波市市場町切幡字古田201-1,0883-36-8700,34.102085,134.2974069,Google Maps,,1378
362077,徳島県,美馬市,みまし,777-8577,徳島県美馬市穴吹町穴吹字九反地5,0883-52-1212,34.0533792,134.1697389,Google Maps,,1379
362085,徳島県,三好市,みよしし,778-8501,徳島県三好市池田町シンマチ1500-2,0883-72-7600,34.0260775,133.8071739,Google Maps,,1380
363014,徳島県,勝浦町,かつうらちょう,771-4395,徳島県勝浦郡勝浦町大字久国字久保田3,0885-42-2511,33.9316673,134.5117213,Google Maps,,1381
363022,徳島県,上勝町,かみかつちょう,771-4501,徳島県勝浦郡上勝町大字福原字下横峯3-1,0885-46-0111,33.8891162,134.4020111,Google Maps,,1382
363219,徳島県,佐那河内村,さなごうちそん,771-4195,徳島県名東郡佐那河内村下字西ノハナ31番地,088-679-2111,33.9938124,134.4577685,Google Maps,,1383
363413,徳島県,石井町,いしいちょう,779-3295,徳島県名西郡石井町高川原字高川原121-1,088-674-1111,34.0742736,134.4406738,Google Maps,,1384
363421,徳島県,神山町,かみやまちょう,771-3395,徳島県名西郡神山町神領字本野間100,088-676-1111,33.9672054,134.35061,Google Maps,,1385
363685,徳島県,那賀町,なかちょう,771-5295,徳島県那賀郡那賀町和食郷字南川104-1,0884-62-1121,33.8574889,134.4967176,Google Maps,,1386
363839,徳島県,牟岐町,むぎちょう,775-8570,徳島県海部郡牟岐町大字中村字本村7-4,0884-72-1111,33.6682563,134.4207036,Google Maps,,1387
363871,徳島県,美波町,みなみちょう,779-2395,徳島県海部郡美波町奥河内字本村18-1,0884-77-1111,33.7345829,134.5357991,Google Maps,,1388
363880,徳島県,海陽町,かいようちょう,775-0295,徳島県海部郡海陽町大里字上中須128,0884-73-1234,33.6020516,134.3519955,Google Maps,,1389
364011,徳島県,松茂町,まつしげちょう,771-0295,徳島県板野郡松茂町広島字東裏30,088-699-2111,34.1339425,134.5801291,Google Maps,,1390
364029,徳島県,北島町,きたじまちょう,771-0285,徳島県板野郡北島町中村字上地23-1,088-698-9801,34.1255758,134.546979,Google Maps,,1391
364037,徳島県,藍住町,あいずみちょう,771-1292,徳島県板野郡藍住町奥野字矢上前52-1,088-637-3111,34.1265374,134.4950604,Google Maps,,1392
364045,徳島県,板野町,いたのちょう,779-0192,徳島県板野郡板野町吹田字町南22-2,088-672-5980,34.14438,134.4626055,Google Maps,,1393
364053,徳島県,上板町,かみいたちょう,771-1392,徳島県板野郡上板町七條字経塚42,088-694-3111,34.1216493,134.4056172,Google Maps,,1394
364681,徳島県,つるぎ町,つるぎちょう,779-4195,徳島県美馬郡つるぎ町貞光字東浦1-3,0883-62-3111,34.0372725,134.0641202,Google Maps,,1395
364894,徳島県,東みよし町,ひがしみよしちょう,779-4795,徳島県三好郡東みよし町加茂3360,0883-82-6303,34.0368502,133.9368981,Google Maps,,1396
372013,香川県,高松市,たかまつし,760-8571,香川県高松市番町1-8-15,087-839-2011,34.3427204,134.0470242,Google Maps,,1397
372021,香川県,丸亀市,まるがめし,763-8501,香川県丸亀市大手町二丁目4番21号,0877-23-2111,34.2899034,133.7987214,Google Maps,,1398
372030,香川県,坂出市,さかいでし,762-8601,香川県坂出市室町2-3-5,0877-46-3111,34.3163507,133.8608853,Google Maps,,1399
372048,香川県,善通寺市,ぜんつうじし,765-8503,香川県善通寺市文京町2-1-1,0877-62-2121,34.227446,133.7873131,Google Maps,,1400
372056,香川県,観音寺市,かんおんじし,768-8601,香川県観音寺市坂本町一丁目1-1,0875-23-3900,34.1272261,133.6613689,Google Maps,,1401
372064,香川県,さぬき市,さぬきし,769-2195,香川県さぬき市志度5385-8,087-894-1111,34.3251989,134.1720081,Google Maps,,1402
372072,香川県,東かがわ市,ひがしかがわし,769-2792,香川県東かがわ市湊1847-1,0879-26-1214,34.2436939,134.3588654,Google Maps,,1403
372081,香川県,三豊市,みとよし,767-8585,香川県三豊市高瀬町下勝間2373-1,0875-73-3000,34.1823792,133.7146133,Google Maps,,1404
373222,香川県,土庄町,とのしょうちょう,761-4192,香川県小豆郡土庄町淵崎甲1400-2,0879-62-7000,34.4864004,134.1883069,Google Maps,,1405
373249,香川県,小豆島町,しょうどしまちょう,761-4492,香川県小豆郡小豆島町片城甲44番地95,0879-82-7000,34.4795557,134.3081834,Google Maps,,1406
373419,香川県,三木町,みきちょう,761-0692,香川県木田郡三木町大字氷上310,087-891-3300,34.2684824,134.1347543,Google Maps,,1407
373648,香川県,直島町,なおしまちょう,761-3110,香川県香川郡直島町1122-1,087-892-2222,34.4599166,133.9952438,Google Maps,,1408
373869,香川県,宇多津町,うたづちょう,769-0292,香川県綾歌郡宇多津町1881,0877-49-0511,34.3113524,133.825692,Google Maps,,1409
373877,香川県,綾川町,あやがわちょう,761-2392,香川県綾歌郡綾川町滝宮299,087-876-1111,34.2492823,133.9231831,Google Maps,,1410
374032,香川県,琴平町,ことひらちょう,766-8502,香川県仲多度郡琴平町榎井817-10,0877-75-6700,34.1889398,133.8184457,Google Maps,,1411
374041,香川県,多度津町,たどつちょう,764-8501,香川県仲多度郡多度津町栄町三丁目3番95号,0877-33-1110,34.2729552,133.7586749,Google Maps,,1412
374067,香川県,まんのう町,まんのうちょう,766-0022,香川県仲多度郡まんのう町吉野下430,0877-73-0100,34.1923129,133.8414328,Google Maps,,1413
382019,愛媛県,松山市,まつやまし,790-8571,愛媛県松山市二番町4-7-2,089-948-6688,33.8392451,132.7655459,Google Maps,,1414
382027,愛媛県,今治市,いまばりし,794-8511,愛媛県今治市別宮町1-4-1,0898-32-5200,34.0663659,132.9975793,Google Maps,,1415
382035,愛媛県,宇和島市,うわじまし,798-8601,愛媛県宇和島市曙町1,0895-24-1111,33.2234957,132.5604658,Google Maps,,1416
382043,愛媛県,八幡浜市,やわたはまし,796-8501,愛媛県八幡浜市北浜1-1-1,0894-22-3111,33.4628935,132.4233856,Google Maps,,1417
382051,愛媛県,新居浜市,にいはまし,792-8585,愛媛県新居浜市一宮町1-5-1,0897-65-1234,33.9597797,133.2822602,Google Maps,,1418
382060,愛媛県,西条市,さいじょうし,793-8601,愛媛県西条市明屋敷164,0897-56-5151,33.9198497,133.1811484,Google Maps,,1419
382078,愛媛県,大洲市,おおずし,795-8601,愛媛県大洲市大洲690-1,0893-24-2111,33.5056339,132.5449104,Google Maps,,1420
382108,愛媛県,伊予市,いよし,799-3193,愛媛県伊予市米湊820,089-982-1111,33.757901,132.7034396,Google Maps,,1421
382132,愛媛県,四国中央市,しこくちゅうおうし,799-0497,愛媛県四国中央市三島宮川4-6-55,0896-28-6000,33.9807358,133.5492115,Google Maps,,1422
382141,愛媛県,西予市,せいよし,797-8501,愛媛県西予市宇和町卯之町3-434-1,0894-62-1111,33.3631545,132.5107417,Google Maps,,1423
382159,愛媛県,東温市,とうおんし,791-0292,愛媛県東温市見奈良530-1,089-964-2001,33.7910423,132.8723909,Google Maps,,1424
383562,愛媛県,上島町,かみじまちょう,794-2592,愛媛県越智郡上島町弓削下弓削210,0897-77-2500,34.2575144,133.204485,Google Maps,,1425
383864,愛媛県,久万高原町,くまこうげんちょう,791-1201,愛媛県上浮穴郡久万高原町久万212,0892-21-1111,33.655617,132.9016614,Google Maps,,1426
384011,愛媛県,松前町,まさきちょう,791-3192,愛媛県伊予郡松前町大字筒井631,089-985-2111,33.7873829,132.7115007,Google Maps,,1427
384020,愛媛県,砥部町,とべちょう,791-2195,愛媛県伊予郡砥部町宮内1392,089-962-2323,33.7491679,132.7922399,Google Maps,,1428
384224,愛媛県,内子町,うちこちょう,795-0392,愛媛県喜多郡内子町平岡甲168,0893-44-2111,33.5329494,132.6581142,Google Maps,,1429
384429,愛媛県,伊方町,いかたちょう,796-0301,愛媛県西宇和郡伊方町湊浦1993-1,0894-38-0211,33.4886146,132.3541071,Google Maps,,1430
384844,愛媛県,松野町,まつのちょう,798-2192,愛媛県北宇和郡松野町大字松丸343,0895-42-1111,33.2272558,132.7108438,Google Maps,,1431
384887,愛媛県,鬼北町,きほくちょう,798-1395,愛媛県北宇和郡鬼北町大字近永800-1,0895-45-1111,33.2561125,132.6844642,Google Maps,,1432
385069,愛媛県,愛南町,あいなんちょう,798-4196,愛媛県南宇和郡愛南町城辺甲2420,0895-72-1211,32.9624972,132.5834414,Google Maps,,1433
392014,高知県,高知市,こうちし,780-8571,高知県高知市本町5-1-45,088-822-8111,33.5587374,133.5310985,Google Maps,,1434
392022,高知県,室戸市,むろとし,781-7185,高知県室戸市浮津25-1,0887-22-1111,33.2899824,134.152186,Google Maps,,1435
392031,高知県,安芸市,あきし,784-8501,高知県安芸市土居82-1,0887-34-1111,33.5163448,133.905828,Google Maps,,1436
392049,高知県,南国市,なんこくし,783-8501,高知県南国市大そね甲2301,088-863-2111,33.5756653,133.641454,Google Maps,,1437
392057,高知県,土佐市,とさし,781-1192,高知県土佐市高岡町甲2017-1,088-852-1111,33.495808,133.4250877,Google Maps,,1438
392065,高知県,須崎市,すさきし,785-8601,高知県須崎市山手町1-7,0889-42-2311,33.4007681,133.2829383,Google Maps,,1439
392081,高知県,宿毛市,すくもし,788-8686,高知県宿毛市希望ヶ丘１番地,0880-62-1111,32.9339651,132.7020266,Google Maps,,1440
392090,高知県,土佐清水市,とさしみずし,787-0392,高知県土佐清水市天神町11-2,0880-82-1111,32.7814071,132.9549157,Google Maps,,1441
392103,高知県,四万十市,しまんとし,787-8501,高知県四万十市中村大橋通4-10,0880-34-1111,32.9919616,132.9338172,Google Maps,,1442
392111,高知県,香南市,こうなんし,781-5292,高知県香南市野市町西野2706,0887-56-0511,33.5644197,133.7005824,Google Maps,,1443
392120,高知県,香美市,かみし,782-8501,高知県香美市土佐山田町宝町1-2-1,0887-53-3111,33.6037123,133.6860554,Google Maps,,1444
393011,高知県,東洋町,とうようちょう,781-7414,高知県安芸郡東洋町大字生見758-3,0887-29-3111,33.5279655,134.2800638,Google Maps,,1445
393029,高知県,奈半利町,なはりちょう,781-6402,高知県安芸郡奈半利町乙1659-1,0887-38-4011,33.4241644,134.0210616,Google Maps,,1446
393037,高知県,田野町,たのちょう,781-6410,高知県安芸郡田野町1828-5,0887-38-2811,33.4279337,134.0081071,Google Maps,,1447
393045,高知県,安田町,やすだちょう,781-6421,高知県安芸郡安田町大字安田1850,0887-38-6711,33.4390335,133.9810609,Google Maps,,1448
393053,高知県,北川村,きたがわむら,781-6441,高知県安芸郡北川村野友甲1530,0887-32-1212,33.4478578,134.0421061,Google Maps,,1449
393061,高知県,馬路村,うまじむら,781-6201,高知県安芸郡馬路村馬路443,0887-44-2111,33.5554484,134.0484039,Google Maps,,1450
393070,高知県,芸西村,げいせいむら,781-5792,高知県安芸郡芸西村和食甲1262,0887-33-2111,33.5270666,133.8091166,Google Maps,,1451
393410,高知県,本山町,もとやまちょう,781-3692,高知県長岡郡本山町本山636,0887-76-2115,33.759706,133.5867107,Google Maps,,1452
393444,高知県,大豊町,おおとよちょう,789-0392,高知県長岡郡大豊町津家1626,0887-72-0450,33.768569,133.6429696,Google Maps,,1453
393631,高知県,土佐町,とさちょう,781-3492,高知県土佐郡土佐町土居194,0887-82-0480,33.7370194,133.5317896,Google Maps,,1454
393649,高知県,大川村,おおかわむら,781-3703,高知県土佐郡大川村小松27-1,0887-84-2211,33.7839813,133.4666136,Google Maps,,1455
393860,高知県,いの町,いのちょう,781-2192,高知県吾川郡いの町1700-1,088-893-1111,33.5482713,133.4271148,Google Maps,,1456
393878,高知県,仁淀川町,によどがわちょう,781-1592,高知県吾川郡仁淀川町大崎200,0889-35-0111,33.5755728,133.1702132,Google Maps,,1457
394017,高知県,中土佐町,なかとさちょう,789-1301,高知県高岡郡中土佐町久礼6663-1,0889-52-2211,33.3293901,133.2248983,Google Maps,,1458
394025,高知県,佐川町,さかわちょう,789-1292,高知県高岡郡佐川町甲1650-2,0889-22-7700,33.5013443,133.2866138,Google Maps,,1459
394033,高知県,越知町,おちちょう,781-1301,高知県高岡郡越知町越知甲1970,0889-26-1111,33.5328356,133.2521885,Google Maps,,1460
394050,高知県,梼原町,ゆすはらちょう,785-0695,高知県高岡郡梼原町梼原1444-1,0889-65-1111,33.3922569,132.9270076,Google Maps,,1461
394106,高知県,日高村,ひだかむら,781-2194,高知県高岡郡日高村本郷61-1,0889-24-5111,33.5351316,133.3733587,Google Maps,,1462
394114,高知県,津野町,つのちょう,785-0201,高知県高岡郡津野町永野471-1,0889-55-2311,33.4466737,133.1993866,Google Maps,,1463
394122,高知県,四万十町,しまんとちょう,786-8501,高知県高岡郡四万十町琴平町16-17,0880-22-3111,33.2116702,133.1370721,Google Maps,,1464
394246,高知県,大月町,おおつきちょう,788-0302,高知県幡多郡大月町弘見2230,0880-73-1181,32.8414575,132.7070481,Google Maps,,1465
394271,高知県,三原村,みはらむら,787-0892,高知県幡多郡三原村来栖野346,0880-46-2111,32.9059562,132.847738,Google Maps,,1466
394289,高知県,黒潮町,くろしおちょう,789-1992,高知県幡多郡黒潮町入野5893,0880-43-2111,33.024963,133.0041915,Google Maps,,1467
401005,福岡県,北九州市,きたきゅうしゅうし,803-8501,福岡県北九州市小倉北区城内1-1,093-582-2525,33.8834052,130.8748075,Google Maps,,1468
401307,福岡県,福岡市,ふくおかし,810-8620,福岡県福岡市中央区天神1-8-1,092-711-4111,33.5901024,130.401431,Google Maps,,1469
402028,福岡県,大牟田市,おおむたし,836-8666,福岡県大牟田市有明町2-3,0944-41-2222,33.0311223,130.4462216,Google Maps,,1470
402036,福岡県,久留米市,くるめし,830-8520,福岡県久留米市城南町15-3,0942-30-9000,33.3192883,130.5083817,Google Maps,,1471
402044,福岡県,直方市,のおがたし,822-8501,福岡県直方市殿町7-1,0949-25-2000,33.7440642,130.7296084,Google Maps,,1472
402052,福岡県,飯塚市,いいづかし,820-8501,福岡県飯塚市新立岩5-5,0948-22-5500,33.6464686,130.691175,Google Maps,,1473
402061,福岡県,田川市,たがわし,825-8501,福岡県田川市中央町1-1,0947-44-2000,33.638766,130.8061767,Google Maps,,1474
402079,福岡県,柳川市,やながわし,832-8601,福岡県柳川市本町87-1,0944-73-8111,33.1630817,130.40582,Google Maps,,1475
402109,福岡県,八女市,やめし,834-8585,福岡県八女市本町647,0943-23-1111,33.2114368,130.557347,Google Maps,,1476
402117,福岡県,筑後市,ちくごし,833-8601,福岡県筑後市大字山ノ井898,0942-53-4111,33.2127023,130.5023851,Google Maps,,1477
402125,福岡県,大川市,おおかわし,831-8601,福岡県大川市大字酒見256-1,0944-87-2101,33.206594,130.3839436,Google Maps,,1478
402133,福岡県,行橋市,ゆくはしし,824-8601,福岡県行橋市中央1-1-1,0930-25-1111,33.7288128,130.9829991,Google Maps,,1479
402141,福岡県,豊前市,ぶぜんし,828-8501,福岡県豊前市大字吉木955,0979-82-1111,33.6119581,131.131375,Google Maps,,1480
402150,福岡県,中間市,なかまし,809-8501,福岡県中間市中間1-1-1,093-244-1111,33.816473,130.7090442,Google Maps,,1481
402168,福岡県,小郡市,おごおりし,838-0198,福岡県小郡市小郡255-1,0942-72-2111,33.396489,130.5555046,Google Maps,,1482
402176,福岡県,筑紫野市,ちくしのし,818-8686,福岡県筑紫野市石崎1-1-1,092-923-1111,33.487576,130.5258715,Google Maps,,1483
402184,福岡県,春日市,かすがし,816-8501,福岡県春日市原町3-1-5,092-584-1111,33.5325883,130.4705044,Google Maps,,1484
402192,福岡県,大野城市,おおのじょうし,816-8510,福岡県大野城市曙町2-2-1,092-501-2211,33.5360121,130.4785414,Google Maps,,1485
402206,福岡県,宗像市,むなかたし,811-3492,福岡県宗像市東郷1-1-1,0940-36-1121,33.8055509,130.5406394,Google Maps,,1486
402214,福岡県,太宰府市,だざいふし,818-0198,福岡県太宰府市観世音寺1-1-1,092-921-2121,33.5128204,130.523748,Google Maps,,1487
402231,福岡県,古賀市,こがし,811-3192,福岡県古賀市駅東1-1-1,092-942-1111,33.7287717,130.4700165,Google Maps,,1488
402249,福岡県,福津市,ふくつし,811-3293,福岡県福津市中央1-1-1,0940-42-1111,33.7667818,130.4916617,Google Maps,,1489
402257,福岡県,うきは市,うきはし,839-1393,福岡県うきは市吉井町新治316,0943-75-3111,33.3474646,130.7549885,Google Maps,,1490
402265,福岡県,宮若市,みやわかし,823-0011,福岡県宮若市宮田29-1,0949-32-0510,33.7225667,130.6674426,Google Maps,,1491
402273,福岡県,嘉麻市,かまし,820-0292,福岡県嘉麻市岩崎1180-1,0948-42-7414,33.5984928,130.7189815,Google Maps,,1492
402281,福岡県,朝倉市,あさくらし,838-8601,福岡県朝倉市菩提寺412-2,0946-22-1111,33.4233994,130.6655638,Google Maps,,1493
402290,福岡県,みやま市,みやまし,835-8601,福岡県みやま市瀬高町小川5,0944-63-6111,33.1523054,130.4743523,Google Maps,,1494
402303,福岡県,糸島市,いとしまし,819-1192,福岡県糸島市前原西一丁目1番1号,092-323-1111,33.5574334,130.1955642,Google Maps,,1495
402311,福岡県,那珂川市,なかがわし,811-1292,福岡県那珂川市西隈1-1-1,092-953-2211,33.4996212,130.4221783,Google Maps,,1496
403415,福岡県,宇美町,うみまち,811-2192,福岡県糟屋郡宇美町宇美5-1-1,092-932-1111,33.5676968,130.5110783,Google Maps,,1497
403423,福岡県,篠栗町,ささぐりまち,811-2492,福岡県糟屋郡篠栗町中央1-1-1,092-947-1111,33.6239628,130.526262,Google Maps,,1498
403431,福岡県,志免町,しめまち,811-2292,福岡県糟屋郡志免町志免中央1-1-1,092-935-1001,33.5915701,130.4802611,Google Maps,,1499
403440,福岡県,須恵町,すえまち,811-2193,福岡県糟屋郡須恵町大字須恵771,092-932-1151,33.5872705,130.5072514,Google Maps,,1500
403458,福岡県,新宮町,しんぐうまち,811-0192,福岡県糟屋郡新宮町緑ヶ浜1-1-1,092-962-0231,33.7155738,130.4466482,Google Maps,,1501
403482,福岡県,久山町,ひさやままち,811-2592,福岡県糟屋郡久山町大字久原3632,092-976-1111,33.6467524,130.4998978,Google Maps,,1502
403491,福岡県,粕屋町,かすやまち,811-2392,福岡県糟屋郡粕屋町駕与丁一丁目1-1,092-938-2311,33.6108168,130.4805527,Google Maps,,1503
403814,福岡県,芦屋町,あしやまち,807-0198,福岡県遠賀郡芦屋町幸町2-20,093-223-0881,33.8939444,130.663742,Google Maps,,1504
403822,福岡県,水巻町,みずまきまち,807-8501,福岡県遠賀郡水巻町頃末北1-1-1,093-201-4321,33.8545994,130.694643,Google Maps,,1505
403831,福岡県,岡垣町,おかがきまち,811-4233,福岡県遠賀郡岡垣町野間1-1-1,093-282-1211,33.8535811,130.6118747,Google Maps,,1506
403849,福岡県,遠賀町,おんがちょう,811-4392,福岡県遠賀郡遠賀町大字今古賀513,093-293-1234,33.8491528,130.6689731,Google Maps,,1507
404012,福岡県,小竹町,こたけまち,820-1192,福岡県鞍手郡小竹町大字勝野3167-1,09496-2-1212,33.6967679,130.7078237,Google Maps,,1508
404021,福岡県,鞍手町,くらてまち,807-1392,福岡県鞍手郡鞍手町大字中山3705,0949-42-2111,33.7921142,130.6740779,Google Maps,,1509
404217,福岡県,桂川町,けいせんまち,820-0696,福岡県嘉穂郡桂川町大字土居424-1,0948-65-1100,33.5789177,130.6780993,Google Maps,,1510
404471,福岡県,筑前町,ちくぜんまち,838-0298,福岡県朝倉郡筑前町篠隈373,0946-42-3111,33.4572241,130.595617,Google Maps,,1511
404489,福岡県,東峰村,とうほうむら,838-1792,福岡県朝倉郡東峰村大字宝珠山6425,0946-72-2311,33.3972397,130.8696902,Google Maps,,1512
405035,福岡県,大刀洗町,たちあらいまち,830-1298,福岡県三井郡大刀洗町大字冨多819,0942-77-0101,33.3724893,130.6218271,Google Maps,,1513
405221,福岡県,大木町,おおきまち,830-0416,福岡県三潴郡大木町大字八町牟田255-1,0944-32-1013,33.2105166,130.4403575,Google Maps,,1514
405442,福岡県,広川町,ひろかわまち,834-0115,福岡県八女郡広川町大字新代1804-1,0943-32-1111,33.2417278,130.5511574,Google Maps,,1515
406015,福岡県,香春町,かわらまち,822-1492,福岡県田川郡香春町大字高野994,0947-32-2511,33.6680352,130.8474413,Google Maps,,1516
406023,福岡県,添田町,そえだまち,824-0691,福岡県田川郡添田町大字添田2151,0947-82-1231,33.5721233,130.854275,Google Maps,,1517
406040,福岡県,糸田町,いとだまち,822-1392,福岡県田川郡糸田町1975-1,0947-26-1231,33.6527454,130.7790436,Google Maps,,1518
406058,福岡県,川崎町,かわさきまち,827-8501,福岡県田川郡川崎町大字田原789-2,0947-72-3000,33.5999472,130.814987,Google Maps,,1519
406082,福岡県,大任町,おおとうまち,824-0512,福岡県田川郡大任町大字大行事3067,0947-63-3000,33.6121896,130.8538276,Google Maps,,1520
406091,福岡県,赤村,あかむら,824-0432,福岡県田川郡赤村大字内田1188,0947-62-3000,33.6167468,130.8708603,Google Maps,,1521
406104,福岡県,福智町,ふくちまち,822-1292,福岡県田川郡福智町金田937-2,0947-22-0555,33.6832488,130.7800973,Google Maps,,1522
406210,福岡県,苅田町,かんだまち,800-0392,福岡県京都郡苅田町富久町1-19-1,093-434-1111,33.7762085,130.9799419,Google Maps,,1523
406252,福岡県,みやこ町,みやこまち,824-0892,福岡県京都郡みやこ町勝山上田960,0930-32-2511,33.6992738,130.9203136,Google Maps,,1524
406422,福岡県,吉富町,よしとみまち,871-8585,福岡県築上郡吉富町大字広津226-1,0979-24-1122,33.6026605,131.1759577,Google Maps,,1525
406465,福岡県,上毛町,こうげまち,871-0992,福岡県築上郡上毛町大字垂水1321-1,0979-72-3111,33.5784627,131.164114,Google Maps,,1526
406473,福岡県,築上町,ちくじょうまち,829-0392,福岡県築上郡築上町大字椎田891-2,0930-56-0300,33.656151,131.0560596,Google Maps,,1527
412015,佐賀県,佐賀市,さがし,840-8501,佐賀県佐賀市栄町1-1,0952-24-3151,33.2635046,130.3007257,Google Maps,,1528
412023,佐賀県,唐津市,からつし,847-8511,佐賀県唐津市西城内1-1,0955-72-9111,33.4501461,129.9678387,Google Maps,,1529
412031,佐賀県,鳥栖市,とすし,841-8511,佐賀県鳥栖市宿町1118,0942-85-3500,33.3783369,130.5061054,Google Maps,,1530
412040,佐賀県,多久市,たくし,846-8501,佐賀県多久市北多久町大字小侍7-1,0952-75-2111,33.2885598,130.1100513,Google Maps,,1531
412058,佐賀県,伊万里市,いまりし,848-8501,佐賀県伊万里市立花町1355-1,0955-23-2111,33.2646642,129.8806221,Google Maps,,1532
412066,佐賀県,武雄市,たけおし,843-8639,佐賀県武雄市武雄町大字昭和12-10,0954-23-9111,33.1947448,130.021466,Google Maps,,1533
412074,佐賀県,鹿島市,かしまし,849-1312,佐賀県鹿島市大字納富分2643-1,0954-63-2111,33.103833,130.0986434,Google Maps,,1534
412082,佐賀県,小城市,おぎし,845-8511,佐賀県小城市三日月町長神田2312-2,0952-37-6111,33.2736741,130.2168862,Google Maps,,1535
412091,佐賀県,嬉野市,うれしのし,849-1492,佐賀県嬉野市塩田町大字馬場下甲1769,0954-66-3111,33.127744,130.04246,Google Maps,,1536
412104,佐賀県,神埼市,かんざきし,842-8601,佐賀県神埼市神埼町鶴3542-1,0952-52-1111,33.3119169,130.371442,Google Maps,,1537
413275,佐賀県,吉野ヶ里町,よしのがりちょう,842-8501,佐賀県神埼郡吉野ヶ里町吉田321-2,0952-53-1111,33.3212214,130.3987997,Google Maps,,1538
413411,佐賀県,基山町,きやまちょう,841-0204,佐賀県三養基郡基山町大字宮浦666,0942-92-2011,33.4270723,130.5242327,Google Maps,,1539
413453,佐賀県,上峰町,かみみねちょう,849-0123,佐賀県三養基郡上峰町大字坊所383-1,0952-52-2181,33.3196232,130.4261876,Google Maps,,1540
413461,佐賀県,みやき町,みやきちょう,849-0113,佐賀県三養基郡みやき町大字東尾737-5,0942-89-1651,33.3246635,130.454404,Google Maps,,1541
413879,佐賀県,玄海町,げんかいちょう,847-1421,佐賀県東松浦郡玄海町大字諸浦348,0955-52-2111,33.4720904,129.875269,Google Maps,,1542
414018,佐賀県,有田町,ありたちょう,849-4192,佐賀県西松浦郡有田町立部乙2202,0955-46-2111,33.2106507,129.8490169,Google Maps,,1543
414239,佐賀県,大町町,おおまちちょう,849-2101,佐賀県杵島郡大町町大字大町5017,0952-82-3111,33.2137728,130.1162208,Google Maps,,1544
414247,佐賀県,江北町,こうほくまち,849-0592,佐賀県杵島郡江北町大字山口1651-1,0952-86-2111,33.2207296,130.1575378,Google Maps,,1545
414255,佐賀県,白石町,しろいしちょう,849-1192,佐賀県杵島郡白石町大字福田1247-1,0952-84-2111,33.1810747,130.1435138,Google Maps,,1546
414417,佐賀県,太良町,たらちょう,849-1698,佐賀県藤津郡太良町大字多良1番地6,0954-67-0311,33.0202429,130.1802676,Google Maps,,1547
422011,長崎県,長崎市,ながさきし,850-8685,長崎県長崎市魚の町4番1号,095-822-8888,32.7493911,129.8799292,Google Maps,,1548
422029,長崎県,佐世保市,させぼし,857-8585,長崎県佐世保市八幡町1-10,0956-24-1111,33.1799098,129.7150752,Google Maps,,1549
422037,長崎県,島原市,しまばらし,855-8555,長崎県島原市上の町537,0957-63-1111,32.7880684,130.3701486,Google Maps,,1550
422045,長崎県,諫早市,いさはやし,854-8601,長崎県諫早市東小路町7-1,0957-22-1500,32.8434616,130.0531369,Google Maps,,1551
422053,長崎県,大村市,おおむらし,856-8686,長崎県大村市玖島1-25,0957-53-4111,32.9000351,129.9573923,Google Maps,,1552
422070,長崎県,平戸市,ひらどし,859-5192,長崎県平戸市岩の上町1508-3,0950-22-4111,33.3680567,129.5536541,Google Maps,,1553
422088,長崎県,松浦市,まつうらし,859-4598,長崎県松浦市志佐町里免365,0956-72-1111,33.3410178,129.7090612,Google Maps,,1554
422096,長崎県,対馬市,つしまし,817-8510,長崎県対馬市厳原町国分1441,0920-53-6111,34.2026352,129.2874971,Google Maps,,1555
422100,長崎県,壱岐市,いきし,811-5192,長崎県壱岐市郷ノ浦町本村触562,0920-48-1111,33.749954,129.6913376,Google Maps,,1556
422118,長崎県,五島市,ごとうし,853-8501,長崎県五島市福江町1-1,0959-72-6111,32.6955067,128.8408912,Google Maps,,1557
422126,長崎県,西海市,さいかいし,857-2392,長崎県西海市大瀬戸町瀬戸樫浦郷2222,0959-37-0011,32.9330305,129.6429656,Google Maps,,1558
422134,長崎県,雲仙市,うんぜんし,859-1107,長崎県雲仙市吾妻町牛口名714,0957-38-3111,32.8352096,130.1875018,Google Maps,,1559
422142,長崎県,南島原市,みなみしまばらし,859-2211,長崎県南島原市西有家町里坊96-2,0957-73-6600,32.6597617,130.2979733,Google Maps,,1560
423076,長崎県,長与町,ながよちょう,851-2185,長崎県西彼杵郡長与町嬉里郷659-1,095-883-1111,32.8252364,129.8751889,Google Maps,,1561
423084,長崎県,時津町,とぎつちょう,851-2198,長崎県西彼杵郡時津町浦郷274-1,095-882-2211,32.8288589,129.8485421,Google Maps,,1562
423211,長崎県,東彼杵町,ひがしそのぎちょう,859-3808,長崎県東彼杵郡東彼杵町蔵本郷1850-6,0957-46-1111,33.0370103,129.9171516,Google Maps,,1563
423220,長崎県,川棚町,かわたなちょう,859-3692,長崎県東彼杵郡川棚町中組郷1518-1,0956-82-3131,33.072674,129.861576,Google Maps,,1564
423238,長崎県,波佐見町,はさみちょう,859-3791,長崎県東彼杵郡波佐見町宿郷660,0956-85-2111,33.1382115,129.8954041,Google Maps,,1565
423831,長崎県,小値賀町,おぢかちょう,857-4701,長崎県北松浦郡小値賀町笛吹郷2376-1,0959-56-3111,33.1910128,129.0588551,Google Maps,,1566
423912,長崎県,佐々町,さざちょう,857-0392,長崎県北松浦郡佐々町本田原免168-2,0956-62-2101,33.2384189,129.6503532,Google Maps,,1567
424111,長崎県,新上五島町,しんかみごとうちょう,857-4495,長崎県南松浦郡新上五島町青方郷1585-1,0959-53-1111,32.9845153,129.0733867,Google Maps,,1568
431001,熊本県,熊本市,くまもとし,860-8601,熊本県熊本市中央区手取本町1-1,096-328-2111,32.8030777,130.7078741,Google Maps,,1569
432024,熊本県,八代市,やつしろし,866-8601,熊本県八代市松江城町1-25,0965-33-4111,32.5056978,130.6016052,Google Maps,,1570
432032,熊本県,人吉市,ひとよしし,868-8601,熊本県人吉市西間下町字永溝7番地1,0966-22-2111,32.2005783,130.7551337,Google Maps,,1571
432041,熊本県,荒尾市,あらおし,864-8686,熊本県荒尾市宮内出目390,0968-63-1111,32.9870838,130.4334864,Google Maps,,1572
432059,熊本県,水俣市,みなまたし,867-8555,熊本県水俣市陣内1-1-1,0966-63-1111,32.2119147,130.4086861,Google Maps,,1573
432067,熊本県,玉名市,たまなし,865-8501,熊本県玉名市岩崎163,0968-75-1111,32.927599,130.5599725,Google Maps,,1574
432083,熊本県,山鹿市,やまがし,861-0592,熊本県山鹿市山鹿987-3,0968-43-1117,33.0174986,130.6912162,Google Maps,,1575
432105,熊本県,菊池市,きくちし,861-1392,熊本県菊池市隈府888,0968-25-7111,32.9796382,130.8131286,Google Maps,,1576
432113,熊本県,宇土市,うとし,869-0492,熊本県宇土市浦田町51,0964-22-1111,32.6872686,130.6584544,Google Maps,,1577
432121,熊本県,上天草市,かみあまくさし,869-3692,熊本県上天草市大矢野町上1514,0964-56-1111,32.5873896,130.4307818,Google Maps,,1578
432130,熊本県,宇城市,うきし,869-0592,熊本県宇城市松橋町大野85,0964-32-1111,32.6464677,130.6833669,Google Maps,,1579
432148,熊本県,阿蘇市,あそし,869-2695,熊本県阿蘇市一の宮町宮地504-1,0967-22-3111,32.9523834,131.1211776,Google Maps,,1580
432156,熊本県,天草市,あまくさし,863-8631,熊本県天草市東浜町8-1,0969-23-1111,32.4585094,130.1933995,Google Maps,,1581
432164,熊本県,合志市,こうしし,861-1195,熊本県合志市竹迫2140,096-248-1111,32.8862023,130.7898698,Google Maps,,1582
433489,熊本県,美里町,みさとまち,861-4492,熊本県下益城郡美里町馬場1100,0964-46-2111,32.639597,130.788755,Google Maps,,1583
433641,熊本県,玉東町,ぎょくとうまち,869-0303,熊本県玉名郡玉東町木葉759,0968-85-3111,32.9188884,130.6285599,Google Maps,,1584
433675,熊本県,南関町,なんかんまち,861-0898,熊本県玉名郡南関町関町64番地,0968-53-1111,33.0597455,130.5439381,Google Maps,,1585
433683,熊本県,長洲町,ながすまち,869-0198,熊本県玉名郡長洲町大字長洲2766,0968-78-3111,32.9297487,130.4527071,Google Maps,,1586
433691,熊本県,和水町,なごみまち,865-0192,熊本県玉名郡和水町江田3886,0968-86-3111,32.978098,130.6058396,Google Maps,,1587
434035,熊本県,大津町,おおづまち,869-1292,熊本県菊池郡大津町大字大津1233,096-293-3111,32.8783714,130.8685468,Google Maps,,1588
434043,熊本県,菊陽町,きくようまち,869-1192,熊本県菊池郡菊陽町大字久保田2800,096-232-2111,32.8629145,130.8285735,Google Maps,,1589
434230,熊本県,南小国町,みなみおぐにまち,869-2492,熊本県阿蘇郡南小国町大字赤馬場143,0967-42-1111,33.0985623,131.0706223,Google Maps,,1590
434248,熊本県,小国町,おぐにまち,869-2592,熊本県阿蘇郡小国町大字宮原1567-1,0967-46-2111,33.1216063,131.0681673,Google Maps,,1591
434256,熊本県,産山村,うぶやまむら,869-2703,熊本県阿蘇郡産山村山鹿488-3,0967-25-2211,32.9957189,131.2163389,Google Maps,,1592
434281,熊本県,高森町,たかもりまち,869-1602,熊本県阿蘇郡高森町大字高森2168,0967-62-1111,32.8273581,131.1218474,Google Maps,,1593
434329,熊本県,西原村,にしはらむら,861-2492,熊本県阿蘇郡西原村大字小森3259,096-279-3111,32.8346137,130.9024689,Google Maps,,1594
434337,熊本県,南阿蘇村,みなみあそむら,869-1404,熊本県阿蘇郡南阿蘇村大字河陽1705-1,0967-67-1111,32.845074,131.0170762,Google Maps,,1595
434418,熊本県,御船町,みふねまち,861-3296,熊本県上益城郡御船町大字御船995-1,096-282-1111,32.7145916,130.8018973,Google Maps,,1596
434426,熊本県,嘉島町,かしままち,861-3192,熊本県上益城郡嘉島町上島530,096-237-1111,32.7401811,130.7572099,Google Maps,,1597
434434,熊本県,益城町,ましきまち,861-2295,熊本県上益城郡益城町大字宮園702,096-286-3111,32.791446,130.8165499,Google Maps,,1598
434442,熊本県,甲佐町,こうさまち,861-4696,熊本県上益城郡甲佐町豊内719-4,096-234-1111,32.6512302,130.8114711,Google Maps,,1599
434477,熊本県,山都町,やまとちょう,861-3592,熊本県上益城郡山都町浜町6,0967-72-1111,32.6854384,130.990371,Google Maps,,1600
434680,熊本県,氷川町,ひかわちょう,869-4814,熊本県八代郡氷川町島地642,0965-52-7111,32.5824133,130.6737633,Google Maps,,1601
434825,熊本県,芦北町,あしきたまち,869-5498,熊本県葦北郡芦北町大字芦北2015,0966-82-2511,32.299224,130.4931174,Google Maps,,1602
434841,熊本県,津奈木町,つなぎまち,869-5692,熊本県葦北郡津奈木町大字小津奈木2123,0966-78-3111,32.2339831,130.4400857,Google Maps,,1603
435015,熊本県,錦町,にしきまち,868-0302,熊本県球磨郡錦町大字一武1587,0966-38-1111,32.2021442,130.8415927,Google Maps,,1604
435058,熊本県,多良木町,たらぎまち,868-0595,熊本県球磨郡多良木町大字多良木1648,0966-42-6111,32.264022,130.9358757,Google Maps,,1605
435066,熊本県,湯前町,ゆのまえまち,868-0621,熊本県球磨郡湯前町1989-1,0966-43-4111,32.276183,130.9808998,Google Maps,,1606
435074,熊本県,水上村,みずかみむら,868-0795,熊本県球磨郡水上村大字岩野90,0966-44-0311,32.3143241,131.0093452,Google Maps,,1607
435104,熊本県,相良村,さがらむら,868-8501,熊本県球磨郡相良村大字深水2500-1,0966-35-0211,32.2357651,130.7978839,Google Maps,,1608
435112,熊本県,五木村,いつきむら,868-0201,熊本県球磨郡五木村甲2672-7,0966-37-2211,32.3977448,130.8249168,Google Maps,,1609
435121,熊本県,山江村,やまえむら,868-8502,熊本県球磨郡山江村大字山田甲1356-1,0966-23-3111,32.2468348,130.7667095,Google Maps,,1610
435139,熊本県,球磨村,くまむら,869-6401,熊本県球磨郡球磨村大字渡丙1730,0966-32-1111,32.2521456,130.6509048,Google Maps,,1611
435147,熊本県,あさぎり町,あさぎりちょう,868-0408,熊本県球磨郡あさぎり町免田東1199,0966-45-1111,32.2344289,130.8993693,Google Maps,,1612
435317,熊本県,苓北町,れいほくまち,863-2503,熊本県天草郡苓北町志岐660,0969-35-1111,32.5134146,130.0547391,Google Maps,,1613
442011,大分県,大分市,おおいたし,870-8504,大分県大分市荷揚町2-31,097-534-6111,33.2395409,131.6092125,Google Maps,,1614
442020,大分県,別府市,べっぷし,874-8511,大分県別府市上野口町1-15,0977-21-1111,33.2846401,131.4913397,Google Maps,,1615
442038,大分県,中津市,なかつし,871-8501,大分県中津市豊田町14-3,0979-22-1111,33.5983448,131.1882189,Google Maps,,1616
442046,大分県,日田市,ひたし,877-8601,大分県日田市田島2-6-1,0973-23-3111,33.3211831,130.9414109,Google Maps,,1617
442054,大分県,佐伯市,さいきし,876-8585,大分県佐伯市中村南町1-1,0972-22-3111,32.9597844,131.9000303,Google Maps,,1618
442062,大分県,臼杵市,うすきし,875-8501,大分県臼杵市大字臼杵72-1,0972-63-1111,33.1261432,131.8052297,Google Maps,,1619
442071,大分県,津久見市,つくみし,879-2435,大分県津久見市宮本町20-15,0972-82-4111,33.0721723,131.8609408,Google Maps,,1620
442089,大分県,竹田市,たけたし,878-8555,大分県竹田市大字会々1650,0974-63-1111,32.9738869,131.3983626,Google Maps,,1621
442097,大分県,豊後高田市,ぶんごたかだし,879-0692,大分県豊後高田市是永町39-3,0978-22-3100,33.5564101,131.4469108,Google Maps,,1622
442101,大分県,杵築市,きつきし,873-0001,大分県杵築市大字杵築377-1,0978-62-3131,33.4170696,131.6160731,Google Maps,,1623
442119,大分県,宇佐市,うさし,879-0492,大分県宇佐市大字上田1030-1,0978-32-1111,33.5323531,131.3497783,Google Maps,,1624
442127,大分県,豊後大野市,ぶんごおおのし,879-7198,大分県豊後大野市三重町市場1200,0974-22-1001,32.9780764,131.5850719,Google Maps,,1625
442135,大分県,由布市,ゆふし,879-5498,大分県由布市庄内町柿原302,097-582-1111,33.1800109,131.4267423,Google Maps,,1626
442143,大分県,国東市,くにさきし,873-0503,大分県国東市国東町鶴川149,0978-72-1111,33.5633052,131.732228,Google Maps,,1627
443221,大分県,姫島村,ひめしまむら,872-1501,大分県東国東郡姫島村1630-1,0978-87-2281,33.7244961,131.6453198,Google Maps,,1628
443417,大分県,日出町,ひじまち,879-1592,大分県速見郡日出町2974-1,0977-73-3111,33.3727294,131.5341783,Google Maps,,1629
444618,大分県,九重町,ここのえまち,879-4895,大分県玖珠郡九重町大字後野上8-1,0973-76-2111,33.2285295,131.1889409,Google Maps,,1630
444626,大分県,玖珠町,くすまち,879-4492,大分県玖珠郡玖珠町大字帆足268-5,0973-72-1111,33.2831254,131.1516918,Google Maps,,1631
452017,宮崎県,宮崎市,みやざきし,880-8505,宮崎県宮崎市橘通西1-1-1,0985-25-2111,31.9079206,131.4197603,Google Maps,,1632
452025,宮崎県,都城市,みやこのじょうし,885-8555,宮崎県都城市姫城町6街区21号,0986-23-2111,31.7196621,131.0616108,Google Maps,,1633
452033,宮崎県,延岡市,のべおかし,882-8686,宮崎県延岡市東本小路2-1,0982-34-2111,32.5821418,131.6650727,Google Maps,,1634
452041,宮崎県,日南市,にちなんし,887-8585,宮崎県日南市中央通1-1-1,0987-31-1100,31.6020213,131.3799051,Google Maps,,1635
452050,宮崎県,小林市,こばやしし,886-8501,宮崎県小林市細野300,0984-23-1111,31.9968431,130.9727786,Google Maps,,1636
452068,宮崎県,日向市,ひゅうがし,883-8555,宮崎県日向市本町10-5,0982-52-2111,32.4218417,131.6237707,Google Maps,,1637
452076,宮崎県,串間市,くしまし,888-8555,宮崎県串間市大字西方5550,0987-72-1111,31.4646371,131.2285205,Google Maps,,1638
452084,宮崎県,西都市,さいとし,881-8501,宮崎県西都市聖陵町2-1,0983-43-1111,32.1086169,131.4013282,Google Maps,,1639
452092,宮崎県,えびの市,えびのし,889-4292,宮崎県えびの市大字栗下1292,0984-35-1111,32.0453845,130.8109143,Google Maps,,1640
453412,宮崎県,三股町,みまたちょう,889-1995,宮崎県北諸県郡三股町五本松1-1,0986-52-1111,31.7306454,131.1249579,Google Maps,,1641
453617,宮崎県,高原町,たかはるちょう,889-4492,宮崎県西諸県郡高原町大字西麓899,0984-42-2111,31.9283779,131.0079346,Google Maps,,1642
453820,宮崎県,国富町,くにとみちょう,880-1192,宮崎県東諸県郡国富町大字本庄4800,0985-75-3111,31.9904559,131.3228607,Google Maps,,1643
453838,宮崎県,綾町,あやちょう,880-1392,宮崎県東諸県郡綾町大字南俣515,0985-77-1111,31.9990743,131.2529125,Google Maps,,1644
454010,宮崎県,高鍋町,たかなべちょう,884-8655,宮崎県児湯郡高鍋町大字上江8437,0983-26-2001,32.1280192,131.5033571,Google Maps,,1645
454028,宮崎県,新富町,しんとみちょう,889-1493,宮崎県児湯郡新富町大字上富田7491,0983-33-6002,32.068974,131.4879802,Google Maps,,1646
454036,宮崎県,西米良村,にしめらそん,881-1411,宮崎県児湯郡西米良村大字村所15,0983-36-1111,32.2263324,131.1544328,Google Maps,,1647
454044,宮崎県,木城町,きじょうちょう,884-0101,宮崎県児湯郡木城町大字高城1227-1,0983-32-4725,32.1638863,131.4734647,Google Maps,,1648
454052,宮崎県,川南町,かわみなみちょう,889-1301,宮崎県児湯郡川南町大字川南13680-1,0983-27-8001,32.1789035,131.5521505,Google Maps,,1649
454061,宮崎県,都農町,つのちょう,889-1201,宮崎県児湯郡都農町大字川北4874-2,0983-25-5710,32.2539601,131.5365459,Google Maps,,1650
454214,宮崎県,門川町,かどがわちょう,889-0696,宮崎県東臼杵郡門川町平城東1番1号,0982-63-1140,32.4713232,131.6460543,Google Maps,,1651
454290,宮崎県,諸塚村,もろつかそん,883-1392,宮崎県東臼杵郡諸塚村大字家代2683,0982-65-1112,32.512292,131.3303437,Google Maps,,1652
454303,宮崎県,椎葉村,しいばそん,883-1601,宮崎県東臼杵郡椎葉村大字下福良1762-1,0982-67-3111,32.4672946,131.1587373,Google Maps,,1653
454311,宮崎県,美郷町,みさとちょう,883-1101,宮崎県東臼杵郡美郷町西郷田代1,0982-66-3601,32.4402253,131.4228814,Google Maps,,1654
454419,宮崎県,高千穂町,たかちほちょう,882-1192,宮崎県西臼杵郡高千穂町大字三田井13,0982-73-1200,32.7116921,131.3077717,Google Maps,,1655
454427,宮崎県,日之影町,ひのかげちょう,882-0401,宮崎県西臼杵郡日之影町大字七折9079番地,0982-87-3800,32.6597715,131.3804281,Google Maps,,1656
454435,宮崎県,五ヶ瀬町,ごかせちょう,882-1295,宮崎県西臼杵郡五ヶ瀬町大字三ヶ所1670,0982-82-1700,32.6829631,131.1960657,Google Maps,,1657
462012,鹿児島県,鹿児島市,かごしまし,892-8677,鹿児島県鹿児島市山下町11-1,099-224-1111,31.5971526,130.5570106,Google Maps,,1658
462039,鹿児島県,鹿屋市,かのやし,893-8501,鹿児島県鹿屋市共栄町20-1,0994-43-2111,31.378242,130.8522826,Google Maps,,1659
462047,鹿児島県,枕崎市,まくらざきし,898-8501,鹿児島県枕崎市千代田町27,0993-72-1111,31.2730884,130.2970147,Google Maps,,1660
462063,鹿児島県,阿久根市,あくねし,899-1696,鹿児島県阿久根市鶴見町200,0996-73-1211,32.014126,130.1923274,Google Maps,,1661
462080,鹿児島県,出水市,いずみし,899-0292,鹿児島県出水市緑町1-3,0996-63-2111,32.0901844,130.3531368,Google Maps,,1662
462101,鹿児島県,指宿市,いぶすきし,891-0497,鹿児島県指宿市十町2424,0993-22-2111,31.2529279,130.6319844,Google Maps,,1663
462136,鹿児島県,西之表市,にしのおもてし,891-3193,鹿児島県西之表市西之表7612,0997-22-1111,30.7328102,130.9975621,Google Maps,,1664
462144,鹿児島県,垂水市,たるみずし,891-2192,鹿児島県垂水市上町114,0994-32-1111,31.4928412,130.7009507,Google Maps,,1665
462152,鹿児島県,薩摩川内市,さつませんだいし,895-8650,鹿児島県薩摩川内市神田町3-22,0996-23-5111,31.8133812,130.3040297,Google Maps,,1666
462161,鹿児島県,日置市,ひおきし,899-2592,鹿児島県日置市伊集院町郡1-100,099-273-2111,31.6344973,130.4032794,Google Maps,,1667
462179,鹿児島県,曽於市,そおし,899-8692,鹿児島県曽於市末吉町二之方1980,0986-76-1111,31.6534636,131.0192551,Google Maps,,1668
462187,鹿児島県,霧島市,きりしまし,899-4394,鹿児島県霧島市国分中央3-45-1,0995-45-5111,31.7407538,130.763524,Google Maps,,1669
462195,鹿児島県,いちき串木野市,いちきくしきのし,896-8601,鹿児島県いちき串木野市昭和通133-1,0996-32-3111,31.7144364,130.2711205,Google Maps,,1670
462209,鹿児島県,南さつま市,みなみさつまし,897-8501,鹿児島県南さつま市加世田川畑2648,0993-53-2111,31.4164354,130.3226608,Google Maps,,1671
462217,鹿児島県,志布志市,しぶしし,899-7192,鹿児島県志布志市志布志町志布志2-1-1,099-472-1111,31.4775204,131.0998343,Google Maps,,1672
462225,鹿児島県,奄美市,あまみし,894-8555,鹿児島県奄美市名瀬幸町25-8,0997-52-1111,28.3772439,129.4937535,Google Maps,,1673
462233,鹿児島県,南九州市,みなみきゅうしゅうし,897-0392,鹿児島県南九州市知覧町郡6204,0993-83-2511,31.3782508,130.4417074,Google Maps,,1674
462241,鹿児島県,伊佐市,いさし,895-2511,鹿児島県伊佐市大口里1888,0995-23-1311,32.0569193,130.6131423,Google Maps,,1675
462250,鹿児島県,姶良市,あいらし,899-5492,鹿児島県姶良市宮島町25,0995-66-3111,31.7278888,130.6272499,Google Maps,,1676
463035,鹿児島県,三島村,みしまむら,892-0821,鹿児島県鹿児島市名山町12-18,099-222-3141,31.5945225,130.5607431,Google Maps,,1677
463043,鹿児島県,十島村,としまむら,892-0822,鹿児島県鹿児島市泉町14-15,099-222-2101,31.5931879,130.5605809,Google Maps,,1678
463922,鹿児島県,さつま町,さつまちょう,895-1803,鹿児島県薩摩郡さつま町宮之城屋地1565-2,0996-53-1111,31.906211,130.4557906,Google Maps,,1679
464040,鹿児島県,長島町,ながしまちょう,899-1498,鹿児島県出水郡長島町鷹巣1875-1,0996-86-1111,32.1993904,130.1767847,Google Maps,,1680
464520,鹿児島県,湧水町,ゆうすいちょう,899-6292,鹿児島県姶良郡湧水町木場222,0995-74-3111,31.951648,130.7209351,Google Maps,,1681
464686,鹿児島県,大崎町,おおさきちょう,899-7305,鹿児島県曽於郡大崎町仮宿1029,099-476-1111,31.4377434,130.9977096,Google Maps,,1682
464821,鹿児島県,東串良町,ひがしくしらちょう,893-1693,鹿児島県肝属郡東串良町川西1543,0994-63-3131,31.3855948,130.9734365,Google Maps,,1683
464902,鹿児島県,錦江町,きんこうちょう,893-2392,鹿児島県肝属郡錦江町城元963,0994-22-0511,31.2437554,130.7878372,Google Maps,,1684
464911,鹿児島県,南大隅町,みなみおおすみちょう,893-2501,鹿児島県肝属郡南大隅町根占川北226,0994-24-3111,31.2172882,130.7681716,Google Maps,,1685
464929,鹿児島県,肝付町,きもつきちょう,893-1207,鹿児島県肝属郡肝付町新富98,0994-65-2511,31.3443667,130.9452317,Google Maps,,1686
465011,鹿児島県,中種子町,なかたねちょう,891-3692,鹿児島県熊毛郡中種子町野間5186,0997-27-1111,30.5330023,130.9586806,Google Maps,,1687
465020,鹿児島県,南種子町,みなみたねちょう,891-3792,鹿児島県熊毛郡南種子町中之上2793-1,0997-26-1111,30.4138062,130.9010562,Google Maps,,1688
465054,鹿児島県,屋久島町,やくしまちょう,891-4207,鹿児島県熊毛郡屋久島町小瀬田849-20,0997-43-5900,30.3900116,130.6505363,Google Maps,,1689
465232,鹿児島県,大和村,やまとそん,894-3192,鹿児島県大島郡大和村大和浜100,0997-57-2111,28.3579373,129.3951198,Google Maps,,1690
465241,鹿児島県,宇検村,うけんそん,894-3392,鹿児島県大島郡宇検村湯湾915,0997-67-2211,28.2808273,129.2971478,Google Maps,,1691
465259,鹿児島県,瀬戸内町,せとうちちょう,894-1592,鹿児島県大島郡瀬戸内町古仁屋船津23,0997-72-1111,28.1463574,129.3148713,Google Maps,,1692
465275,鹿児島県,龍郷町,たつごうちょう,894-0192,鹿児島県大島郡龍郷町浦110,0997-62-3111,28.4132236,129.5890553,Google Maps,,1693
465291,鹿児島県,喜界町,きかいちょう,891-6292,鹿児島県大島郡喜界町大字湾1746,0997-65-1111,28.3168367,129.9398509,Google Maps,,1694
465305,鹿児島県,徳之島町,とくのしまちょう,891-7192,鹿児島県大島郡徳之島町亀津7203,0997-82-1111,27.7261433,129.0186057,Google Maps,,1695
465313,鹿児島県,天城町,あまぎちょう,891-7692,鹿児島県大島郡天城町平土野2691-1,0997-85-3111,27.8117589,128.8976176,Google Maps,,1696
465321,鹿児島県,伊仙町,いせんちょう,891-8293,鹿児島県大島郡伊仙町大字伊仙1842,0997-86-3111,27.6732016,128.9375083,Google Maps,,1697
465330,鹿児島県,和泊町,わどまりちょう,891-9192,鹿児島県大島郡和泊町和泊10,0997-92-1111,27.3920902,128.6550049,Google Maps,,1698
465348,鹿児島県,知名町,ちなちょう,891-9295,鹿児島県大島郡知名町大字知名1100,0997-93-3111,27.3385207,128.5738337,Google Maps,,1699
465356,鹿児島県,与論町,よろんちょう,891-9301,鹿児島県大島郡与論町茶花1418-1,0997-97-3111,27.044946,128.4215773,Google Maps,,1700
472018,沖縄県,那覇市,なはし,900-8585,沖縄県那覇市泉崎1-1-1,098-867-0111,26.2123439,127.6791642,Google Maps,,1701
472051,沖縄県,宜野湾市,ぎのわんし,901-2710,沖縄県宜野湾市野嵩1-1-1,098-893-4411,26.2815344,127.7785368,Google Maps,,1702
472077,沖縄県,石垣市,いしがきし,907-8501,沖縄県石垣市美崎町14,0980-82-9911,24.3406454,124.1555852,Google Maps,,1703
472085,沖縄県,浦添市,うらそえし,901-2501,沖縄県浦添市安波茶1-1-1,098-876-1234,26.2460191,127.7226373,Google Maps,,1704
472093,沖縄県,名護市,なごし,905-8540,沖縄県名護市港1-1-1,0980-53-1212,26.5915802,127.9774038,Google Maps,,1705
472107,沖縄県,糸満市,いとまんし,901-0392,沖縄県糸満市潮崎町1-1,098-840-8111,26.1234579,127.6656031,Google Maps,,1706
472115,沖縄県,沖縄市,おきなわし,904-8501,沖縄県沖縄市仲宗根町26-1,098-939-1212,26.3343452,127.8056998,Google Maps,,1707
472123,沖縄県,豊見城市,とみぐすくし,901-0292,沖縄県豊見城市宜保1-1-1,098-850-0024,26.1771576,127.6812345,Google Maps,,1708
472131,沖縄県,うるま市,うるまし,904-2292,沖縄県うるま市みどり町1-1-1,098-974-3111,26.3791543,127.8574552,Google Maps,,1709
472140,沖縄県,宮古島市,みやこじまし,906-8501,沖縄県宮古島市平良字西里1140,0980-72-3751,24.8027828,125.2829179,Google Maps,,1710
472158,沖縄県,南城市,なんじょうし,901-1495,沖縄県南城市佐敷字新里1870,098-917-5309,26.1714851,127.7729606,Google Maps,,1711
473014,沖縄県,国頭村,くにがみそん,905-1495,沖縄県国頭郡国頭村字辺土名121,0980-41-2101,26.7456748,128.1779382,Google Maps,,1712
473022,沖縄県,大宜味村,おおぎみそん,905-1392,沖縄県国頭郡大宜味村字大兼久157,0980-44-3001,26.7017856,128.1197996,Google Maps,,1713
473031,沖縄県,東村,ひがしそん,905-1292,沖縄県国頭郡東村字平良804,0980-43-2201,26.6329573,128.1560445,Google Maps,,1714
473065,沖縄県,今帰仁村,なきじんそん,905-0492,沖縄県国頭郡今帰仁村字仲宗根219,0980-56-2101,26.6824893,127.9727572,Google Maps,,1715
473081,沖縄県,本部町,もとぶちょう,905-0292,沖縄県国頭郡本部町字東5,0980-47-2101,26.6580678,127.8981937,Google Maps,,1716
473111,沖縄県,恩納村,おんなそん,904-0492,沖縄県国頭郡恩納村字恩納2451,098-966-1200,26.497399,127.8535413,Google Maps,,1717
473138,沖縄県,宜野座村,ぎのざそん,904-1392,沖縄県国頭郡宜野座村字宜野座296,098-968-5111,26.4816213,127.9755896,Google Maps,,1718
473146,沖縄県,金武町,きんちょう,904-1292,沖縄県国頭郡金武町字金武1,098-968-2111,26.4559295,127.925892,Google Maps,,1719
473154,沖縄県,伊江村,いえそん,905-0592,沖縄県国頭郡伊江村字東江前38,0980-49-2001,26.7135624,127.807076,Google Maps,,1720
473243,沖縄県,読谷村,よみたんそん,904-0392,沖縄県中頭郡読谷村字座喜味2901,098-982-9200,26.3961362,127.7452771,Google Maps,,1721
473251,沖縄県,嘉手納町,かでなちょう,904-0293,沖縄県中頭郡嘉手納町字嘉手納588,098-956-1111,26.3615232,127.7552309,Google Maps,,1722
473260,沖縄県,北谷町,ちゃたんちょう,904-0192,沖縄県中頭郡北谷町桑江1-1-1,098-936-1234,26.3200828,127.7638743,Google Maps,,1723
473278,沖縄県,北中城村,きたなかぐすくそん,901-2392,沖縄県中頭郡北中城村字喜舎場426-2,098-935-2233,26.3008322,127.7931921,Google Maps,,1724
473286,沖縄県,中城村,なかぐすくそん,901-2493,沖縄県中頭郡中城村字当間585番地1,098-895-2131,26.2620817,127.7895658,Google Maps,,1725
473294,沖縄県,西原町,にしはらちょう,903-0220,沖縄県中頭郡西原町字与那城140-1,098-945-5011,26.222806,127.7588104,Google Maps,,1726
473481,沖縄県,与那原町,よなばるちょう,901-1392,沖縄県島尻郡与那原町字上与那原16,098-945-2201,26.1995777,127.7547863,Google Maps,,1727
473502,沖縄県,南風原町,はえばるちょう,901-1195,沖縄県島尻郡南風原町字兼城686,098-889-4415,26.1911249,127.7285212,Google Maps,,1728
473537,沖縄県,渡嘉敷村,とかしきそん,901-3592,沖縄県島尻郡渡嘉敷村字渡嘉敷183,098-987-2321,26.1973984,127.364316,Google Maps,,1729
473545,沖縄県,座間味村,ざまみそん,901-3496,沖縄県島尻郡座間味村座間味109,098-987-2311,26.2288714,127.3031791,Google Maps,,1730
473553,沖縄県,粟国村,あぐにそん,901-3702,沖縄県島尻郡粟国村字東483番地,098-988-2016,26.5817906,127.228892,Google Maps,,1731
473561,沖縄県,渡名喜村,となきそん,901-3692,沖縄県島尻郡渡名喜村1917-3,098-989-2002,26.3721262,127.1410435,Google Maps,,1732
473570,沖縄県,南大東村,みなみだいとうそん,901-3895,沖縄県島尻郡南大東村字南144-1,09802-2-2001,25.8287832,131.2320923,Google Maps,,1733
473588,沖縄県,北大東村,きただいとうそん,901-3992,沖縄県島尻郡北大東村字中野218,09802-3-4001,25.9459336,131.2989858,Google Maps,,1734
473596,沖縄県,伊平屋村,いへやそん,905-0793,沖縄県島尻郡伊平屋村字我喜屋251,0980-46-2001,27.0390902,127.9686024,Google Maps,,1735
473600,沖縄県,伊是名村,いぜなそん,905-0695,沖縄県島尻郡伊是名村字仲田1203,0980-45-2001,26.928482,127.941119,Google Maps,,1736
473618,沖縄県,久米島町,くめじまちょう,901-3193,沖縄県島尻郡久米島町字比嘉2870,098-985-7121,26.3406496,126.8050282,Google Maps,,1737
473626,沖縄県,八重瀬町,やえせちょう,901-0492,沖縄県島尻郡八重瀬町字東風平1188,098-998-2200,26.1583189,127.7189656,Google Maps,,1738
473758,沖縄県,多良間村,たらまそん,906-0692,沖縄県宮古郡多良間村字仲筋99-2,0980-79-2011,24.6694055,124.7017902,Google Maps,,1739
473812,沖縄県,竹富町,たけとみちょう,907-8503,沖縄県石垣市美崎町11-1,0980-82-6191,24.339627,124.1544985,Google Maps,,1740
473821,沖縄県,与那国町,よなぐにちょう,907-1801,沖縄県八重山郡与那国町字与那国129,0980-87-2241,24.4679357,123.004549,Google Maps,,1741